{
"type": "FeatureCollection",
"name": "osm_poi_2025_street_services_filtered_dr_water",
"crs": { "type": "name", "properties": { "name": "urn:ogc:def:crs:OGC:1.3:CRS84" } },
"features": [
{ "type": "Feature", "properties": { "NAME": null, "NAME_EN": null, "AMENITY": "drinking_water", "SHOP": null, "OSM_TYPE": "node", "OSM_ID": 300981045 }, "geometry": { "type": "Point", "coordinates": [ 23.2906, 42.56904 ] } },
{ "type": "Feature", "properties": { "NAME": "Каптаж", "NAME_EN": null, "AMENITY": "drinking_water", "SHOP": null, "OSM_TYPE": "node", "OSM_ID": 300981047 }, "geometry": { "type": "Point", "coordinates": [ 23.1816394, 42.6428283 ] } },
{ "type": "Feature", "properties": { "NAME": null, "NAME_EN": null, "AMENITY": "drinking_water", "SHOP": null, "OSM_TYPE": "node", "OSM_ID": 300981080 }, "geometry": { "type": "Point", "coordinates": [ 23.315727, 42.5837325 ] } },
{ "type": "Feature", "properties": { "NAME": null, "NAME_EN": null, "AMENITY": "drinking_water", "SHOP": null, "OSM_TYPE": "node", "OSM_ID": 300981142 }, "geometry": { "type": "Point", "coordinates": [ 23.3251659, 42.5251204 ] } },
{ "type": "Feature", "properties": { "NAME": null, "NAME_EN": null, "AMENITY": "drinking_water", "SHOP": null, "OSM_TYPE": "node", "OSM_ID": 300981194 }, "geometry": { "type": "Point", "coordinates": [ 23.304257, 42.52788 ] } },
{ "type": "Feature", "properties": { "NAME": null, "NAME_EN": null, "AMENITY": "drinking_water", "SHOP": null, "OSM_TYPE": "node", "OSM_ID": 300981221 }, "geometry": { "type": "Point", "coordinates": [ 23.3430233, 42.5146139 ] } },
{ "type": "Feature", "properties": { "NAME": null, "NAME_EN": null, "AMENITY": "drinking_water", "SHOP": null, "OSM_TYPE": "node", "OSM_ID": 300981261 }, "geometry": { "type": "Point", "coordinates": [ 23.319928, 42.606134 ] } },
{ "type": "Feature", "properties": { "NAME": null, "NAME_EN": null, "AMENITY": "drinking_water", "SHOP": null, "OSM_TYPE": "node", "OSM_ID": 300981352 }, "geometry": { "type": "Point", "coordinates": [ 23.28218, 42.6030545 ] } },
{ "type": "Feature", "properties": { "NAME": null, "NAME_EN": null, "AMENITY": "drinking_water", "SHOP": null, "OSM_TYPE": "node", "OSM_ID": 300981473 }, "geometry": { "type": "Point", "coordinates": [ 23.2309417, 42.6168069 ] } },
{ "type": "Feature", "properties": { "NAME": null, "NAME_EN": null, "AMENITY": "drinking_water", "SHOP": null, "OSM_TYPE": "node", "OSM_ID": 300981475 }, "geometry": { "type": "Point", "coordinates": [ 23.29065, 42.58847 ] } },
{ "type": "Feature", "properties": { "NAME": null, "NAME_EN": null, "AMENITY": "drinking_water", "SHOP": null, "OSM_TYPE": "node", "OSM_ID": 300981607 }, "geometry": { "type": "Point", "coordinates": [ 23.3241306, 42.6999361 ] } },
{ "type": "Feature", "properties": { "NAME": null, "NAME_EN": null, "AMENITY": "drinking_water", "SHOP": null, "OSM_TYPE": "node", "OSM_ID": 300981796 }, "geometry": { "type": "Point", "coordinates": [ 23.3527961, 42.5344105 ] } },
{ "type": "Feature", "properties": { "NAME": null, "NAME_EN": null, "AMENITY": "drinking_water", "SHOP": null, "OSM_TYPE": "node", "OSM_ID": 300981854 }, "geometry": { "type": "Point", "coordinates": [ 23.348404, 42.540013 ] } },
{ "type": "Feature", "properties": { "NAME": null, "NAME_EN": null, "AMENITY": "drinking_water", "SHOP": null, "OSM_TYPE": "node", "OSM_ID": 300981873 }, "geometry": { "type": "Point", "coordinates": [ 23.301427, 42.530632 ] } },
{ "type": "Feature", "properties": { "NAME": null, "NAME_EN": null, "AMENITY": "drinking_water", "SHOP": null, "OSM_TYPE": "node", "OSM_ID": 332135329 }, "geometry": { "type": "Point", "coordinates": [ 23.4842774, 42.5435389 ] } },
{ "type": "Feature", "properties": { "NAME": null, "NAME_EN": null, "AMENITY": "drinking_water", "SHOP": null, "OSM_TYPE": "node", "OSM_ID": 364696548 }, "geometry": { "type": "Point", "coordinates": [ 23.4723191, 42.600859 ] } },
{ "type": "Feature", "properties": { "NAME": null, "NAME_EN": null, "AMENITY": "drinking_water", "SHOP": null, "OSM_TYPE": "node", "OSM_ID": 415614654 }, "geometry": { "type": "Point", "coordinates": [ 23.2813303, 42.7139564 ] } },
{ "type": "Feature", "properties": { "NAME": null, "NAME_EN": null, "AMENITY": "drinking_water", "SHOP": null, "OSM_TYPE": "node", "OSM_ID": 471471757 }, "geometry": { "type": "Point", "coordinates": [ 23.4463443, 42.5757601 ] } },
{ "type": "Feature", "properties": { "NAME": null, "NAME_EN": null, "AMENITY": "drinking_water", "SHOP": null, "OSM_TYPE": "node", "OSM_ID": 474485530 }, "geometry": { "type": "Point", "coordinates": [ 23.4281914, 42.584702 ] } },
{ "type": "Feature", "properties": { "NAME": null, "NAME_EN": null, "AMENITY": "drinking_water", "SHOP": null, "OSM_TYPE": "node", "OSM_ID": 493599932 }, "geometry": { "type": "Point", "coordinates": [ 23.3636691, 42.540668 ] } },
{ "type": "Feature", "properties": { "NAME": null, "NAME_EN": null, "AMENITY": "drinking_water", "SHOP": null, "OSM_TYPE": "node", "OSM_ID": 493599933 }, "geometry": { "type": "Point", "coordinates": [ 23.3646337, 42.5400339 ] } },
{ "type": "Feature", "properties": { "NAME": null, "NAME_EN": null, "AMENITY": "drinking_water", "SHOP": null, "OSM_TYPE": "node", "OSM_ID": 506201810 }, "geometry": { "type": "Point", "coordinates": [ 23.4246134, 42.477244 ] } },
{ "type": "Feature", "properties": { "NAME": null, "NAME_EN": null, "AMENITY": "drinking_water", "SHOP": null, "OSM_TYPE": "node", "OSM_ID": 556654430 }, "geometry": { "type": "Point", "coordinates": [ 23.2701942, 42.7069561 ] } },
{ "type": "Feature", "properties": { "NAME": null, "NAME_EN": null, "AMENITY": "drinking_water", "SHOP": null, "OSM_TYPE": "node", "OSM_ID": 562962387 }, "geometry": { "type": "Point", "coordinates": [ 23.2598097, 42.7030793 ] } },
{ "type": "Feature", "properties": { "NAME": null, "NAME_EN": null, "AMENITY": "drinking_water", "SHOP": null, "OSM_TYPE": "node", "OSM_ID": 562962721 }, "geometry": { "type": "Point", "coordinates": [ 23.2771254, 42.7102707 ] } },
{ "type": "Feature", "properties": { "NAME": null, "NAME_EN": null, "AMENITY": "drinking_water", "SHOP": null, "OSM_TYPE": "node", "OSM_ID": 566898167 }, "geometry": { "type": "Point", "coordinates": [ 23.2833626, 42.7149648 ] } },
{ "type": "Feature", "properties": { "NAME": null, "NAME_EN": null, "AMENITY": "drinking_water", "SHOP": null, "OSM_TYPE": "node", "OSM_ID": 569115643 }, "geometry": { "type": "Point", "coordinates": [ 23.2656542, 42.6447735 ] } },
{ "type": "Feature", "properties": { "NAME": null, "NAME_EN": null, "AMENITY": "drinking_water", "SHOP": null, "OSM_TYPE": "node", "OSM_ID": 582645869 }, "geometry": { "type": "Point", "coordinates": [ 23.2789577, 42.730327 ] } },
{ "type": "Feature", "properties": { "NAME": null, "NAME_EN": null, "AMENITY": "drinking_water", "SHOP": null, "OSM_TYPE": "node", "OSM_ID": 582645920 }, "geometry": { "type": "Point", "coordinates": [ 23.2758597, 42.7316805 ] } },
{ "type": "Feature", "properties": { "NAME": null, "NAME_EN": null, "AMENITY": "drinking_water", "SHOP": null, "OSM_TYPE": "node", "OSM_ID": 582646101 }, "geometry": { "type": "Point", "coordinates": [ 23.2807413, 42.7324686 ] } },
{ "type": "Feature", "properties": { "NAME": null, "NAME_EN": null, "AMENITY": "drinking_water", "SHOP": null, "OSM_TYPE": "node", "OSM_ID": 582890280 }, "geometry": { "type": "Point", "coordinates": [ 23.2669979, 42.6468699 ] } },
{ "type": "Feature", "properties": { "NAME": null, "NAME_EN": null, "AMENITY": "drinking_water", "SHOP": null, "OSM_TYPE": "node", "OSM_ID": 592005411 }, "geometry": { "type": "Point", "coordinates": [ 23.241277, 42.6585188 ] } },
{ "type": "Feature", "properties": { "NAME": null, "NAME_EN": null, "AMENITY": "drinking_water", "SHOP": null, "OSM_TYPE": "node", "OSM_ID": 671701531 }, "geometry": { "type": "Point", "coordinates": [ 23.2322519, 42.6131363 ] } },
{ "type": "Feature", "properties": { "NAME": null, "NAME_EN": null, "AMENITY": "drinking_water", "SHOP": null, "OSM_TYPE": "node", "OSM_ID": 685345629 }, "geometry": { "type": "Point", "coordinates": [ 23.4274937, 42.559794 ] } },
{ "type": "Feature", "properties": { "NAME": null, "NAME_EN": null, "AMENITY": "drinking_water", "SHOP": null, "OSM_TYPE": "node", "OSM_ID": 685954219 }, "geometry": { "type": "Point", "coordinates": [ 23.2596674, 42.6437926 ] } },
{ "type": "Feature", "properties": { "NAME": "Матейна чешма", "NAME_EN": null, "AMENITY": "drinking_water", "SHOP": null, "OSM_TYPE": "node", "OSM_ID": 690713568 }, "geometry": { "type": "Point", "coordinates": [ 23.4894987, 42.5755591 ] } },
{ "type": "Feature", "properties": { "NAME": null, "NAME_EN": null, "AMENITY": "drinking_water", "SHOP": null, "OSM_TYPE": "node", "OSM_ID": 729074126 }, "geometry": { "type": "Point", "coordinates": [ 23.298707, 42.6191068 ] } },
{ "type": "Feature", "properties": { "NAME": null, "NAME_EN": null, "AMENITY": "drinking_water", "SHOP": null, "OSM_TYPE": "node", "OSM_ID": 800517709 }, "geometry": { "type": "Point", "coordinates": [ 23.2997658, 42.616525 ] } },
{ "type": "Feature", "properties": { "NAME": null, "NAME_EN": null, "AMENITY": "drinking_water", "SHOP": null, "OSM_TYPE": "node", "OSM_ID": 812072248 }, "geometry": { "type": "Point", "coordinates": [ 23.2577082, 42.6275486 ] } },
{ "type": "Feature", "properties": { "NAME": null, "NAME_EN": null, "AMENITY": "drinking_water", "SHOP": null, "OSM_TYPE": "node", "OSM_ID": 823329627 }, "geometry": { "type": "Point", "coordinates": [ 23.2212176, 42.6158753 ] } },
{ "type": "Feature", "properties": { "NAME": null, "NAME_EN": null, "AMENITY": "drinking_water", "SHOP": null, "OSM_TYPE": "node", "OSM_ID": 831692833 }, "geometry": { "type": "Point", "coordinates": [ 23.2600649, 42.6217624 ] } },
{ "type": "Feature", "properties": { "NAME": null, "NAME_EN": null, "AMENITY": "drinking_water", "SHOP": null, "OSM_TYPE": "node", "OSM_ID": 831692912 }, "geometry": { "type": "Point", "coordinates": [ 23.2250511, 42.6307798 ] } },
{ "type": "Feature", "properties": { "NAME": "Ловджийската чешма", "NAME_EN": null, "AMENITY": "drinking_water", "SHOP": null, "OSM_TYPE": "node", "OSM_ID": 987998219 }, "geometry": { "type": "Point", "coordinates": [ 23.5164604, 42.585512 ] } },
{ "type": "Feature", "properties": { "NAME": null, "NAME_EN": null, "AMENITY": "drinking_water", "SHOP": null, "OSM_TYPE": "node", "OSM_ID": 988005135 }, "geometry": { "type": "Point", "coordinates": [ 23.5217546, 42.5880281 ] } },
{ "type": "Feature", "properties": { "NAME": "Чешма с минерална вода", "NAME_EN": null, "AMENITY": "drinking_water", "SHOP": null, "OSM_TYPE": "node", "OSM_ID": 1363137172 }, "geometry": { "type": "Point", "coordinates": [ 23.4036965, 42.601984 ] } },
{ "type": "Feature", "properties": { "NAME": null, "NAME_EN": null, "AMENITY": "drinking_water", "SHOP": null, "OSM_TYPE": "node", "OSM_ID": 1520367898 }, "geometry": { "type": "Point", "coordinates": [ 23.2129434, 42.5877299 ] } },
{ "type": "Feature", "properties": { "NAME": "Флора Кънева", "NAME_EN": "Flora Kaneva", "AMENITY": "drinking_water", "SHOP": null, "OSM_TYPE": "node", "OSM_ID": 1622107604 }, "geometry": { "type": "Point", "coordinates": [ 23.3066925, 42.6809768 ] } },
{ "type": "Feature", "properties": { "NAME": null, "NAME_EN": null, "AMENITY": "drinking_water", "SHOP": null, "OSM_TYPE": "node", "OSM_ID": 1654702204 }, "geometry": { "type": "Point", "coordinates": [ 23.3477361, 42.65228 ] } },
{ "type": "Feature", "properties": { "NAME": null, "NAME_EN": null, "AMENITY": "drinking_water", "SHOP": null, "OSM_TYPE": "node", "OSM_ID": 1782919393 }, "geometry": { "type": "Point", "coordinates": [ 23.3663988, 42.5335872 ] } },
{ "type": "Feature", "properties": { "NAME": null, "NAME_EN": null, "AMENITY": "drinking_water", "SHOP": null, "OSM_TYPE": "node", "OSM_ID": 1829969024 }, "geometry": { "type": "Point", "coordinates": [ 23.3427652, 42.6849366 ] } },
{ "type": "Feature", "properties": { "NAME": null, "NAME_EN": null, "AMENITY": "drinking_water", "SHOP": null, "OSM_TYPE": "node", "OSM_ID": 1856867720 }, "geometry": { "type": "Point", "coordinates": [ 23.2658919, 42.6207061 ] } },
{ "type": "Feature", "properties": { "NAME": null, "NAME_EN": null, "AMENITY": "drinking_water", "SHOP": null, "OSM_TYPE": "node", "OSM_ID": 2032773744 }, "geometry": { "type": "Point", "coordinates": [ 23.2549331, 42.6402 ] } },
{ "type": "Feature", "properties": { "NAME": "Ел Шадай", "NAME_EN": null, "AMENITY": "drinking_water", "SHOP": null, "OSM_TYPE": "node", "OSM_ID": 2357192516 }, "geometry": { "type": "Point", "coordinates": [ 23.3080878, 42.6015029 ] } },
{ "type": "Feature", "properties": { "NAME": null, "NAME_EN": null, "AMENITY": "drinking_water", "SHOP": null, "OSM_TYPE": "node", "OSM_ID": 2466650055 }, "geometry": { "type": "Point", "coordinates": [ 23.2705918, 42.6373234 ] } },
{ "type": "Feature", "properties": { "NAME": null, "NAME_EN": null, "AMENITY": "drinking_water", "SHOP": null, "OSM_TYPE": "node", "OSM_ID": 2493798943 }, "geometry": { "type": "Point", "coordinates": [ 23.3425132, 42.5740291 ] } },
{ "type": "Feature", "properties": { "NAME": null, "NAME_EN": null, "AMENITY": "drinking_water", "SHOP": null, "OSM_TYPE": "node", "OSM_ID": 2496019941 }, "geometry": { "type": "Point", "coordinates": [ 23.3506546, 42.5586682 ] } },
{ "type": "Feature", "properties": { "NAME": "Ръждавица", "NAME_EN": null, "AMENITY": "drinking_water", "SHOP": null, "OSM_TYPE": "node", "OSM_ID": 2503030510 }, "geometry": { "type": "Point", "coordinates": [ 23.4391887, 42.8357627 ] } },
{ "type": "Feature", "properties": { "NAME": "Чешма", "NAME_EN": null, "AMENITY": "drinking_water", "SHOP": null, "OSM_TYPE": "node", "OSM_ID": 2503296600 }, "geometry": { "type": "Point", "coordinates": [ 23.3660933, 42.7187539 ] } },
{ "type": "Feature", "properties": { "NAME": null, "NAME_EN": null, "AMENITY": "drinking_water", "SHOP": null, "OSM_TYPE": "node", "OSM_ID": 2508490436 }, "geometry": { "type": "Point", "coordinates": [ 23.366573, 42.7177767 ] } },
{ "type": "Feature", "properties": { "NAME": null, "NAME_EN": null, "AMENITY": "drinking_water", "SHOP": null, "OSM_TYPE": "node", "OSM_ID": 2510450268 }, "geometry": { "type": "Point", "coordinates": [ 23.3674289, 42.7155525 ] } },
{ "type": "Feature", "properties": { "NAME": null, "NAME_EN": null, "AMENITY": "drinking_water", "SHOP": null, "OSM_TYPE": "node", "OSM_ID": 2510511619 }, "geometry": { "type": "Point", "coordinates": [ 23.2951117, 42.7053716 ] } },
{ "type": "Feature", "properties": { "NAME": "Чешма Св. Георги", "NAME_EN": null, "AMENITY": "drinking_water", "SHOP": null, "OSM_TYPE": "node", "OSM_ID": 2638444155 }, "geometry": { "type": "Point", "coordinates": [ 23.2358478, 42.6574415 ] } },
{ "type": "Feature", "properties": { "NAME": null, "NAME_EN": null, "AMENITY": "drinking_water", "SHOP": null, "OSM_TYPE": "node", "OSM_ID": 2661090144 }, "geometry": { "type": "Point", "coordinates": [ 23.3407133, 42.6975186 ] } },
{ "type": "Feature", "properties": { "NAME": null, "NAME_EN": null, "AMENITY": "drinking_water", "SHOP": null, "OSM_TYPE": "node", "OSM_ID": 2711722411 }, "geometry": { "type": "Point", "coordinates": [ 23.5176523, 42.7830472 ] } },
{ "type": "Feature", "properties": { "NAME": "Чешма", "NAME_EN": null, "AMENITY": "drinking_water", "SHOP": null, "OSM_TYPE": "node", "OSM_ID": 2734365613 }, "geometry": { "type": "Point", "coordinates": [ 23.1435712, 42.706609 ] } },
{ "type": "Feature", "properties": { "NAME": null, "NAME_EN": null, "AMENITY": "drinking_water", "SHOP": null, "OSM_TYPE": "node", "OSM_ID": 2773222150 }, "geometry": { "type": "Point", "coordinates": [ 23.2438352, 42.6597744 ] } },
{ "type": "Feature", "properties": { "NAME": null, "NAME_EN": null, "AMENITY": "drinking_water", "SHOP": null, "OSM_TYPE": "node", "OSM_ID": 2828486642 }, "geometry": { "type": "Point", "coordinates": [ 23.3250124, 42.525438 ] } },
{ "type": "Feature", "properties": { "NAME": null, "NAME_EN": null, "AMENITY": "drinking_water", "SHOP": null, "OSM_TYPE": "node", "OSM_ID": 2835222565 }, "geometry": { "type": "Point", "coordinates": [ 23.3890816, 42.5061182 ] } },
{ "type": "Feature", "properties": { "NAME": null, "NAME_EN": null, "AMENITY": "drinking_water", "SHOP": null, "OSM_TYPE": "node", "OSM_ID": 2835250033 }, "geometry": { "type": "Point", "coordinates": [ 23.3559805, 42.5157165 ] } },
{ "type": "Feature", "properties": { "NAME": null, "NAME_EN": null, "AMENITY": "drinking_water", "SHOP": null, "OSM_TYPE": "node", "OSM_ID": 2997423697 }, "geometry": { "type": "Point", "coordinates": [ 23.3782154, 42.617752 ] } },
{ "type": "Feature", "properties": { "NAME": null, "NAME_EN": null, "AMENITY": "drinking_water", "SHOP": null, "OSM_TYPE": "node", "OSM_ID": 2997423699 }, "geometry": { "type": "Point", "coordinates": [ 23.3786079, 42.6179897 ] } },
{ "type": "Feature", "properties": { "NAME": null, "NAME_EN": null, "AMENITY": "drinking_water", "SHOP": null, "OSM_TYPE": "node", "OSM_ID": 2997423709 }, "geometry": { "type": "Point", "coordinates": [ 23.3795767, 42.6187631 ] } },
{ "type": "Feature", "properties": { "NAME": null, "NAME_EN": null, "AMENITY": "drinking_water", "SHOP": null, "OSM_TYPE": "node", "OSM_ID": 2997423712 }, "geometry": { "type": "Point", "coordinates": [ 23.3790828, 42.6188749 ] } },
{ "type": "Feature", "properties": { "NAME": null, "NAME_EN": null, "AMENITY": "drinking_water", "SHOP": null, "OSM_TYPE": "node", "OSM_ID": 2999512007 }, "geometry": { "type": "Point", "coordinates": [ 23.3107582, 42.547978 ] } },
{ "type": "Feature", "properties": { "NAME": null, "NAME_EN": null, "AMENITY": "drinking_water", "SHOP": null, "OSM_TYPE": "node", "OSM_ID": 2999512008 }, "geometry": { "type": "Point", "coordinates": [ 23.3034565, 42.5506468 ] } },
{ "type": "Feature", "properties": { "NAME": null, "NAME_EN": null, "AMENITY": "drinking_water", "SHOP": null, "OSM_TYPE": "node", "OSM_ID": 2999512009 }, "geometry": { "type": "Point", "coordinates": [ 23.2921152, 42.5822338 ] } },
{ "type": "Feature", "properties": { "NAME": null, "NAME_EN": null, "AMENITY": "drinking_water", "SHOP": null, "OSM_TYPE": "node", "OSM_ID": 2999512010 }, "geometry": { "type": "Point", "coordinates": [ 23.2477746, 42.5879304 ] } },
{ "type": "Feature", "properties": { "NAME": null, "NAME_EN": null, "AMENITY": "drinking_water", "SHOP": null, "OSM_TYPE": "node", "OSM_ID": 2999512011 }, "geometry": { "type": "Point", "coordinates": [ 23.2508353, 42.5947392 ] } },
{ "type": "Feature", "properties": { "NAME": null, "NAME_EN": null, "AMENITY": "drinking_water", "SHOP": null, "OSM_TYPE": "node", "OSM_ID": 2999512012 }, "geometry": { "type": "Point", "coordinates": [ 23.2527695, 42.6074938 ] } },
{ "type": "Feature", "properties": { "NAME": null, "NAME_EN": null, "AMENITY": "drinking_water", "SHOP": null, "OSM_TYPE": "node", "OSM_ID": 2999512013 }, "geometry": { "type": "Point", "coordinates": [ 23.2391395, 42.6093962 ] } },
{ "type": "Feature", "properties": { "NAME": null, "NAME_EN": null, "AMENITY": "drinking_water", "SHOP": null, "OSM_TYPE": "node", "OSM_ID": 2999512014 }, "geometry": { "type": "Point", "coordinates": [ 23.2657191, 42.6248791 ] } },
{ "type": "Feature", "properties": { "NAME": null, "NAME_EN": null, "AMENITY": "drinking_water", "SHOP": null, "OSM_TYPE": "node", "OSM_ID": 3001855129 }, "geometry": { "type": "Point", "coordinates": [ 23.2583016, 42.615789 ] } },
{ "type": "Feature", "properties": { "NAME": null, "NAME_EN": null, "AMENITY": "drinking_water", "SHOP": null, "OSM_TYPE": "node", "OSM_ID": 3001855208 }, "geometry": { "type": "Point", "coordinates": [ 23.2516495, 42.6270571 ] } },
{ "type": "Feature", "properties": { "NAME": "Гьорева чешма", "NAME_EN": null, "AMENITY": "drinking_water", "SHOP": null, "OSM_TYPE": "node", "OSM_ID": 3001855288 }, "geometry": { "type": "Point", "coordinates": [ 23.2616911, 42.6154629 ] } },
{ "type": "Feature", "properties": { "NAME": null, "NAME_EN": null, "AMENITY": "drinking_water", "SHOP": null, "OSM_TYPE": "node", "OSM_ID": 3001862465 }, "geometry": { "type": "Point", "coordinates": [ 23.2598206, 42.6112898 ] } },
{ "type": "Feature", "properties": { "NAME": null, "NAME_EN": null, "AMENITY": "drinking_water", "SHOP": null, "OSM_TYPE": "node", "OSM_ID": 3001862466 }, "geometry": { "type": "Point", "coordinates": [ 23.2571829, 42.615401 ] } },
{ "type": "Feature", "properties": { "NAME": null, "NAME_EN": null, "AMENITY": "drinking_water", "SHOP": null, "OSM_TYPE": "node", "OSM_ID": 3001875957 }, "geometry": { "type": "Point", "coordinates": [ 23.2660016, 42.6305274 ] } },
{ "type": "Feature", "properties": { "NAME": "Канково кладенче", "NAME_EN": null, "AMENITY": "drinking_water", "SHOP": null, "OSM_TYPE": "node", "OSM_ID": 3001939534 }, "geometry": { "type": "Point", "coordinates": [ 23.2980637, 42.6104299 ] } },
{ "type": "Feature", "properties": { "NAME": null, "NAME_EN": null, "AMENITY": "drinking_water", "SHOP": null, "OSM_TYPE": "node", "OSM_ID": 3002217644 }, "geometry": { "type": "Point", "coordinates": [ 23.3277418, 42.5699348 ] } },
{ "type": "Feature", "properties": { "NAME": null, "NAME_EN": null, "AMENITY": "drinking_water", "SHOP": null, "OSM_TYPE": "node", "OSM_ID": 3013193845 }, "geometry": { "type": "Point", "coordinates": [ 23.6513583, 42.8206181 ] } },
{ "type": "Feature", "properties": { "NAME": null, "NAME_EN": null, "AMENITY": "drinking_water", "SHOP": null, "OSM_TYPE": "node", "OSM_ID": 3013193847 }, "geometry": { "type": "Point", "coordinates": [ 23.6528949, 42.8217086 ] } },
{ "type": "Feature", "properties": { "NAME": null, "NAME_EN": null, "AMENITY": "drinking_water", "SHOP": null, "OSM_TYPE": "node", "OSM_ID": 3013193851 }, "geometry": { "type": "Point", "coordinates": [ 23.6526978, 42.8222784 ] } },
{ "type": "Feature", "properties": { "NAME": null, "NAME_EN": null, "AMENITY": "drinking_water", "SHOP": null, "OSM_TYPE": "node", "OSM_ID": 3133062975 }, "geometry": { "type": "Point", "coordinates": [ 23.2497557, 42.5980292 ] } },
{ "type": "Feature", "properties": { "NAME": null, "NAME_EN": null, "AMENITY": "drinking_water", "SHOP": null, "OSM_TYPE": "node", "OSM_ID": 3133063022 }, "geometry": { "type": "Point", "coordinates": [ 23.2370954, 42.6101302 ] } },
{ "type": "Feature", "properties": { "NAME": null, "NAME_EN": null, "AMENITY": "drinking_water", "SHOP": null, "OSM_TYPE": "node", "OSM_ID": 3133063026 }, "geometry": { "type": "Point", "coordinates": [ 23.2388673, 42.6104656 ] } },
{ "type": "Feature", "properties": { "NAME": null, "NAME_EN": null, "AMENITY": "drinking_water", "SHOP": null, "OSM_TYPE": "node", "OSM_ID": 3133063027 }, "geometry": { "type": "Point", "coordinates": [ 23.2365937, 42.6104825 ] } },
{ "type": "Feature", "properties": { "NAME": null, "NAME_EN": null, "AMENITY": "drinking_water", "SHOP": null, "OSM_TYPE": "node", "OSM_ID": 3133063131 }, "geometry": { "type": "Point", "coordinates": [ 23.2384715, 42.6114343 ] } },
{ "type": "Feature", "properties": { "NAME": null, "NAME_EN": null, "AMENITY": "drinking_water", "SHOP": null, "OSM_TYPE": "node", "OSM_ID": 3133063133 }, "geometry": { "type": "Point", "coordinates": [ 23.2396589, 42.6118916 ] } },
{ "type": "Feature", "properties": { "NAME": null, "NAME_EN": null, "AMENITY": "drinking_water", "SHOP": null, "OSM_TYPE": "node", "OSM_ID": 3133063135 }, "geometry": { "type": "Point", "coordinates": [ 23.2382393, 42.6121817 ] } },
{ "type": "Feature", "properties": { "NAME": null, "NAME_EN": null, "AMENITY": "drinking_water", "SHOP": null, "OSM_TYPE": "node", "OSM_ID": 3133063136 }, "geometry": { "type": "Point", "coordinates": [ 23.2343155, 42.6120643 ] } },
{ "type": "Feature", "properties": { "NAME": null, "NAME_EN": null, "AMENITY": "drinking_water", "SHOP": null, "OSM_TYPE": "node", "OSM_ID": 3133063139 }, "geometry": { "type": "Point", "coordinates": [ 23.2389041, 42.612674 ] } },
{ "type": "Feature", "properties": { "NAME": null, "NAME_EN": null, "AMENITY": "drinking_water", "SHOP": null, "OSM_TYPE": "node", "OSM_ID": 3133063177 }, "geometry": { "type": "Point", "coordinates": [ 23.2171495, 42.6162606 ] } },
{ "type": "Feature", "properties": { "NAME": null, "NAME_EN": null, "AMENITY": "drinking_water", "SHOP": null, "OSM_TYPE": "node", "OSM_ID": 3133063178 }, "geometry": { "type": "Point", "coordinates": [ 23.2201561, 42.6162881 ] } },
{ "type": "Feature", "properties": { "NAME": null, "NAME_EN": null, "AMENITY": "drinking_water", "SHOP": null, "OSM_TYPE": "node", "OSM_ID": 3133069190 }, "geometry": { "type": "Point", "coordinates": [ 23.2354783, 42.598257 ] } },
{ "type": "Feature", "properties": { "NAME": null, "NAME_EN": null, "AMENITY": "drinking_water", "SHOP": null, "OSM_TYPE": "node", "OSM_ID": 3133069195 }, "geometry": { "type": "Point", "coordinates": [ 23.2330238, 42.59971 ] } },
{ "type": "Feature", "properties": { "NAME": null, "NAME_EN": null, "AMENITY": "drinking_water", "SHOP": null, "OSM_TYPE": "node", "OSM_ID": 3133069197 }, "geometry": { "type": "Point", "coordinates": [ 23.2338212, 42.6002012 ] } },
{ "type": "Feature", "properties": { "NAME": null, "NAME_EN": null, "AMENITY": "drinking_water", "SHOP": null, "OSM_TYPE": "node", "OSM_ID": 3133069203 }, "geometry": { "type": "Point", "coordinates": [ 23.2514754, 42.6013849 ] } },
{ "type": "Feature", "properties": { "NAME": null, "NAME_EN": null, "AMENITY": "drinking_water", "SHOP": null, "OSM_TYPE": "node", "OSM_ID": 3133069206 }, "geometry": { "type": "Point", "coordinates": [ 23.2336918, 42.6021387 ] } },
{ "type": "Feature", "properties": { "NAME": null, "NAME_EN": null, "AMENITY": "drinking_water", "SHOP": null, "OSM_TYPE": "node", "OSM_ID": 3133069251 }, "geometry": { "type": "Point", "coordinates": [ 23.2423415, 42.6157752 ] } },
{ "type": "Feature", "properties": { "NAME": null, "NAME_EN": null, "AMENITY": "drinking_water", "SHOP": null, "OSM_TYPE": "node", "OSM_ID": 3138329974 }, "geometry": { "type": "Point", "coordinates": [ 23.3002542, 42.5923447 ] } },
{ "type": "Feature", "properties": { "NAME": null, "NAME_EN": null, "AMENITY": "drinking_water", "SHOP": null, "OSM_TYPE": "node", "OSM_ID": 3138329975 }, "geometry": { "type": "Point", "coordinates": [ 23.2945088, 42.5949069 ] } },
{ "type": "Feature", "properties": { "NAME": null, "NAME_EN": null, "AMENITY": "drinking_water", "SHOP": null, "OSM_TYPE": "node", "OSM_ID": 3138329976 }, "geometry": { "type": "Point", "coordinates": [ 23.2948239, 42.5949158 ] } },
{ "type": "Feature", "properties": { "NAME": null, "NAME_EN": null, "AMENITY": "drinking_water", "SHOP": null, "OSM_TYPE": "node", "OSM_ID": 3138329977 }, "geometry": { "type": "Point", "coordinates": [ 23.2982297, 42.5970056 ] } },
{ "type": "Feature", "properties": { "NAME": null, "NAME_EN": null, "AMENITY": "drinking_water", "SHOP": null, "OSM_TYPE": "node", "OSM_ID": 3138329983 }, "geometry": { "type": "Point", "coordinates": [ 23.3000763, 42.6054804 ] } },
{ "type": "Feature", "properties": { "NAME": "Алекова чешма", "NAME_EN": null, "AMENITY": "drinking_water", "SHOP": null, "OSM_TYPE": "node", "OSM_ID": 3138329984 }, "geometry": { "type": "Point", "coordinates": [ 23.2962182, 42.5924803 ] } },
{ "type": "Feature", "properties": { "NAME": null, "NAME_EN": null, "AMENITY": "drinking_water", "SHOP": null, "OSM_TYPE": "node", "OSM_ID": 3170027190 }, "geometry": { "type": "Point", "coordinates": [ 23.3262627, 42.5860896 ] } },
{ "type": "Feature", "properties": { "NAME": null, "NAME_EN": null, "AMENITY": "drinking_water", "SHOP": null, "OSM_TYPE": "node", "OSM_ID": 3170027199 }, "geometry": { "type": "Point", "coordinates": [ 23.3060774, 42.5863537 ] } },
{ "type": "Feature", "properties": { "NAME": null, "NAME_EN": null, "AMENITY": "drinking_water", "SHOP": null, "OSM_TYPE": "node", "OSM_ID": 3170027272 }, "geometry": { "type": "Point", "coordinates": [ 23.3195973, 42.5912586 ] } },
{ "type": "Feature", "properties": { "NAME": null, "NAME_EN": null, "AMENITY": "drinking_water", "SHOP": null, "OSM_TYPE": "node", "OSM_ID": 3170027273 }, "geometry": { "type": "Point", "coordinates": [ 23.3209805, 42.5973575 ] } },
{ "type": "Feature", "properties": { "NAME": null, "NAME_EN": null, "AMENITY": "drinking_water", "SHOP": null, "OSM_TYPE": "node", "OSM_ID": 3170027274 }, "geometry": { "type": "Point", "coordinates": [ 23.3198895, 42.6017953 ] } },
{ "type": "Feature", "properties": { "NAME": null, "NAME_EN": null, "AMENITY": "drinking_water", "SHOP": null, "OSM_TYPE": "node", "OSM_ID": 3170027275 }, "geometry": { "type": "Point", "coordinates": [ 23.3199415, 42.6018621 ] } },
{ "type": "Feature", "properties": { "NAME": null, "NAME_EN": null, "AMENITY": "drinking_water", "SHOP": null, "OSM_TYPE": "node", "OSM_ID": 3170027276 }, "geometry": { "type": "Point", "coordinates": [ 23.3264028, 42.6035158 ] } },
{ "type": "Feature", "properties": { "NAME": null, "NAME_EN": null, "AMENITY": "drinking_water", "SHOP": null, "OSM_TYPE": "node", "OSM_ID": 3267829837 }, "geometry": { "type": "Point", "coordinates": [ 23.3009491, 42.727765 ] } },
{ "type": "Feature", "properties": { "NAME": null, "NAME_EN": null, "AMENITY": "drinking_water", "SHOP": null, "OSM_TYPE": "node", "OSM_ID": 3271030162 }, "geometry": { "type": "Point", "coordinates": [ 23.2989414, 42.7385906 ] } },
{ "type": "Feature", "properties": { "NAME": null, "NAME_EN": null, "AMENITY": "drinking_water", "SHOP": null, "OSM_TYPE": "node", "OSM_ID": 3381330206 }, "geometry": { "type": "Point", "coordinates": [ 23.1843027, 42.6357054 ] } },
{ "type": "Feature", "properties": { "NAME": "Чешмата на Наплатанов", "NAME_EN": null, "AMENITY": "drinking_water", "SHOP": null, "OSM_TYPE": "node", "OSM_ID": 3425025412 }, "geometry": { "type": "Point", "coordinates": [ 23.366105, 42.6529904 ] } },
{ "type": "Feature", "properties": { "NAME": null, "NAME_EN": null, "AMENITY": "drinking_water", "SHOP": null, "OSM_TYPE": "node", "OSM_ID": 3514065724 }, "geometry": { "type": "Point", "coordinates": [ 23.3265963, 42.6967724 ] } },
{ "type": "Feature", "properties": { "NAME": null, "NAME_EN": null, "AMENITY": "drinking_water", "SHOP": null, "OSM_TYPE": "node", "OSM_ID": 3624048041 }, "geometry": { "type": "Point", "coordinates": [ 23.308533, 42.6746103 ] } },
{ "type": "Feature", "properties": { "NAME": null, "NAME_EN": null, "AMENITY": "drinking_water", "SHOP": null, "OSM_TYPE": "node", "OSM_ID": 3637344652 }, "geometry": { "type": "Point", "coordinates": [ 23.1935801, 42.6305253 ] } },
{ "type": "Feature", "properties": { "NAME": null, "NAME_EN": null, "AMENITY": "drinking_water", "SHOP": null, "OSM_TYPE": "node", "OSM_ID": 3637346495 }, "geometry": { "type": "Point", "coordinates": [ 23.1756423, 42.6034313 ] } },
{ "type": "Feature", "properties": { "NAME": null, "NAME_EN": null, "AMENITY": "drinking_water", "SHOP": null, "OSM_TYPE": "node", "OSM_ID": 3652316997 }, "geometry": { "type": "Point", "coordinates": [ 23.3310441, 42.609996 ] } },
{ "type": "Feature", "properties": { "NAME": null, "NAME_EN": null, "AMENITY": "drinking_water", "SHOP": null, "OSM_TYPE": "node", "OSM_ID": 3670425525 }, "geometry": { "type": "Point", "coordinates": [ 23.2998513, 42.6043074 ] } },
{ "type": "Feature", "properties": { "NAME": null, "NAME_EN": null, "AMENITY": "drinking_water", "SHOP": null, "OSM_TYPE": "node", "OSM_ID": 3670425526 }, "geometry": { "type": "Point", "coordinates": [ 23.2970688, 42.6082018 ] } },
{ "type": "Feature", "properties": { "NAME": null, "NAME_EN": null, "AMENITY": "drinking_water", "SHOP": null, "OSM_TYPE": "node", "OSM_ID": 3670425527 }, "geometry": { "type": "Point", "coordinates": [ 23.2966765, 42.6107574 ] } },
{ "type": "Feature", "properties": { "NAME": null, "NAME_EN": null, "AMENITY": "drinking_water", "SHOP": null, "OSM_TYPE": "node", "OSM_ID": 3770166836 }, "geometry": { "type": "Point", "coordinates": [ 23.3050127, 42.6676361 ] } },
{ "type": "Feature", "properties": { "NAME": null, "NAME_EN": null, "AMENITY": "drinking_water", "SHOP": null, "OSM_TYPE": "node", "OSM_ID": 3773010830 }, "geometry": { "type": "Point", "coordinates": [ 23.3248737, 42.6957443 ] } },
{ "type": "Feature", "properties": { "NAME": "Белокаменна чешма", "NAME_EN": null, "AMENITY": "drinking_water", "SHOP": null, "OSM_TYPE": "node", "OSM_ID": 3773018112 }, "geometry": { "type": "Point", "coordinates": [ 23.3249144, 42.6945955 ] } },
{ "type": "Feature", "properties": { "NAME": "Ловна чешма", "NAME_EN": null, "AMENITY": "drinking_water", "SHOP": null, "OSM_TYPE": "node", "OSM_ID": 3838516978 }, "geometry": { "type": "Point", "coordinates": [ 23.1955022, 42.6463788 ] } },
{ "type": "Feature", "properties": { "NAME": "Вазовата чешма", "NAME_EN": null, "AMENITY": "drinking_water", "SHOP": null, "OSM_TYPE": "node", "OSM_ID": 3840387717 }, "geometry": { "type": "Point", "coordinates": [ 23.2405954, 42.6445932 ] } },
{ "type": "Feature", "properties": { "NAME": "чешма", "NAME_EN": null, "AMENITY": "drinking_water", "SHOP": null, "OSM_TYPE": "node", "OSM_ID": 3893157551 }, "geometry": { "type": "Point", "coordinates": [ 23.2127778, 42.655 ] } },
{ "type": "Feature", "properties": { "NAME": null, "NAME_EN": null, "AMENITY": "drinking_water", "SHOP": null, "OSM_TYPE": "node", "OSM_ID": 3912445003 }, "geometry": { "type": "Point", "coordinates": [ 23.082232, 42.7195684 ] } },
{ "type": "Feature", "properties": { "NAME": null, "NAME_EN": null, "AMENITY": "drinking_water", "SHOP": null, "OSM_TYPE": "node", "OSM_ID": 3912445053 }, "geometry": { "type": "Point", "coordinates": [ 23.0776617, 42.7264325 ] } },
{ "type": "Feature", "properties": { "NAME": "Селска чешма", "NAME_EN": null, "AMENITY": "drinking_water", "SHOP": null, "OSM_TYPE": "node", "OSM_ID": 4032013204 }, "geometry": { "type": "Point", "coordinates": [ 23.5648077, 42.7636419 ] } },
{ "type": "Feature", "properties": { "NAME": "Чешма", "NAME_EN": null, "AMENITY": "drinking_water", "SHOP": null, "OSM_TYPE": "node", "OSM_ID": 4212633108 }, "geometry": { "type": "Point", "coordinates": [ 23.6004279, 42.8052344 ] } },
{ "type": "Feature", "properties": { "NAME": null, "NAME_EN": null, "AMENITY": "drinking_water", "SHOP": null, "OSM_TYPE": "node", "OSM_ID": 4216975461 }, "geometry": { "type": "Point", "coordinates": [ 23.1706399, 42.5995611 ] } },
{ "type": "Feature", "properties": { "NAME": null, "NAME_EN": null, "AMENITY": "drinking_water", "SHOP": null, "OSM_TYPE": "node", "OSM_ID": 4239678475 }, "geometry": { "type": "Point", "coordinates": [ 23.1805791, 42.6597864 ] } },
{ "type": "Feature", "properties": { "NAME": null, "NAME_EN": null, "AMENITY": "drinking_water", "SHOP": null, "OSM_TYPE": "node", "OSM_ID": 4239683097 }, "geometry": { "type": "Point", "coordinates": [ 23.1559834, 42.672551 ] } },
{ "type": "Feature", "properties": { "NAME": null, "NAME_EN": null, "AMENITY": "drinking_water", "SHOP": null, "OSM_TYPE": "node", "OSM_ID": 4281481970 }, "geometry": { "type": "Point", "coordinates": [ 23.3192927, 42.6880593 ] } },
{ "type": "Feature", "properties": { "NAME": null, "NAME_EN": null, "AMENITY": "drinking_water", "SHOP": null, "OSM_TYPE": "node", "OSM_ID": 4281484803 }, "geometry": { "type": "Point", "coordinates": [ 23.3388155, 42.6884145 ] } },
{ "type": "Feature", "properties": { "NAME": null, "NAME_EN": null, "AMENITY": "drinking_water", "SHOP": null, "OSM_TYPE": "node", "OSM_ID": 4294804632 }, "geometry": { "type": "Point", "coordinates": [ 23.3093525, 42.6290645 ] } },
{ "type": "Feature", "properties": { "NAME": null, "NAME_EN": null, "AMENITY": "drinking_water", "SHOP": null, "OSM_TYPE": "node", "OSM_ID": 4295731209 }, "geometry": { "type": "Point", "coordinates": [ 23.6404098, 42.8162356 ] } },
{ "type": "Feature", "properties": { "NAME": null, "NAME_EN": null, "AMENITY": "drinking_water", "SHOP": null, "OSM_TYPE": "node", "OSM_ID": 4319774220 }, "geometry": { "type": "Point", "coordinates": [ 23.3370938, 42.6880403 ] } },
{ "type": "Feature", "properties": { "NAME": null, "NAME_EN": null, "AMENITY": "drinking_water", "SHOP": null, "OSM_TYPE": "node", "OSM_ID": 4319784357 }, "geometry": { "type": "Point", "coordinates": [ 23.3282724, 42.696197 ] } },
{ "type": "Feature", "properties": { "NAME": null, "NAME_EN": null, "AMENITY": "drinking_water", "SHOP": null, "OSM_TYPE": "node", "OSM_ID": 4319815191 }, "geometry": { "type": "Point", "coordinates": [ 23.3234167, 42.6991127 ] } },
{ "type": "Feature", "properties": { "NAME": null, "NAME_EN": null, "AMENITY": "drinking_water", "SHOP": null, "OSM_TYPE": "node", "OSM_ID": 4395837189 }, "geometry": { "type": "Point", "coordinates": [ 23.4332575, 42.6417588 ] } },
{ "type": "Feature", "properties": { "NAME": null, "NAME_EN": null, "AMENITY": "drinking_water", "SHOP": null, "OSM_TYPE": "node", "OSM_ID": 4400646292 }, "geometry": { "type": "Point", "coordinates": [ 23.3202965, 42.6864615 ] } },
{ "type": "Feature", "properties": { "NAME": null, "NAME_EN": null, "AMENITY": "drinking_water", "SHOP": null, "OSM_TYPE": "node", "OSM_ID": 4406995458 }, "geometry": { "type": "Point", "coordinates": [ 23.4499345, 42.804506 ] } },
{ "type": "Feature", "properties": { "NAME": null, "NAME_EN": null, "AMENITY": "drinking_water", "SHOP": null, "OSM_TYPE": "node", "OSM_ID": 4439510721 }, "geometry": { "type": "Point", "coordinates": [ 23.3221611, 42.8435307 ] } },
{ "type": "Feature", "properties": { "NAME": null, "NAME_EN": null, "AMENITY": "drinking_water", "SHOP": null, "OSM_TYPE": "node", "OSM_ID": 4440170809 }, "geometry": { "type": "Point", "coordinates": [ 23.555367, 42.7708666 ] } },
{ "type": "Feature", "properties": { "NAME": null, "NAME_EN": null, "AMENITY": "drinking_water", "SHOP": null, "OSM_TYPE": "node", "OSM_ID": 4440171430 }, "geometry": { "type": "Point", "coordinates": [ 23.5880926, 42.7659155 ] } },
{ "type": "Feature", "properties": { "NAME": null, "NAME_EN": null, "AMENITY": "drinking_water", "SHOP": null, "OSM_TYPE": "node", "OSM_ID": 4523600045 }, "geometry": { "type": "Point", "coordinates": [ 23.4831476, 42.5904322 ] } },
{ "type": "Feature", "properties": { "NAME": null, "NAME_EN": null, "AMENITY": "drinking_water", "SHOP": null, "OSM_TYPE": "node", "OSM_ID": 4535969187 }, "geometry": { "type": "Point", "coordinates": [ 23.1617777, 42.6603701 ] } },
{ "type": "Feature", "properties": { "NAME": null, "NAME_EN": null, "AMENITY": "drinking_water", "SHOP": null, "OSM_TYPE": "node", "OSM_ID": 4537802050 }, "geometry": { "type": "Point", "coordinates": [ 23.2367158, 42.6773098 ] } },
{ "type": "Feature", "properties": { "NAME": null, "NAME_EN": null, "AMENITY": "drinking_water", "SHOP": null, "OSM_TYPE": "node", "OSM_ID": 4537856062 }, "geometry": { "type": "Point", "coordinates": [ 23.245259, 42.6781568 ] } },
{ "type": "Feature", "properties": { "NAME": null, "NAME_EN": null, "AMENITY": "drinking_water", "SHOP": null, "OSM_TYPE": "node", "OSM_ID": 4537887395 }, "geometry": { "type": "Point", "coordinates": [ 23.2434869, 42.6768422 ] } },
{ "type": "Feature", "properties": { "NAME": null, "NAME_EN": null, "AMENITY": "drinking_water", "SHOP": null, "OSM_TYPE": "node", "OSM_ID": 4587841675 }, "geometry": { "type": "Point", "coordinates": [ 23.327207, 42.6902053 ] } },
{ "type": "Feature", "properties": { "NAME": null, "NAME_EN": null, "AMENITY": "drinking_water", "SHOP": null, "OSM_TYPE": "node", "OSM_ID": 4623492603 }, "geometry": { "type": "Point", "coordinates": [ 23.2263619, 42.6739009 ] } },
{ "type": "Feature", "properties": { "NAME": null, "NAME_EN": null, "AMENITY": "drinking_water", "SHOP": null, "OSM_TYPE": "node", "OSM_ID": 4687009534 }, "geometry": { "type": "Point", "coordinates": [ 23.5276394, 42.5837765 ] } },
{ "type": "Feature", "properties": { "NAME": null, "NAME_EN": null, "AMENITY": "drinking_water", "SHOP": null, "OSM_TYPE": "node", "OSM_ID": 4687009535 }, "geometry": { "type": "Point", "coordinates": [ 23.5237804, 42.5870187 ] } },
{ "type": "Feature", "properties": { "NAME": null, "NAME_EN": null, "AMENITY": "drinking_water", "SHOP": null, "OSM_TYPE": "node", "OSM_ID": 4707171002 }, "geometry": { "type": "Point", "coordinates": [ 23.5118163, 42.8188755 ] } },
{ "type": "Feature", "properties": { "NAME": null, "NAME_EN": null, "AMENITY": "drinking_water", "SHOP": null, "OSM_TYPE": "node", "OSM_ID": 4743602175 }, "geometry": { "type": "Point", "coordinates": [ 23.1196387, 42.6850968 ] } },
{ "type": "Feature", "properties": { "NAME": null, "NAME_EN": null, "AMENITY": "drinking_water", "SHOP": null, "OSM_TYPE": "node", "OSM_ID": 4758232324 }, "geometry": { "type": "Point", "coordinates": [ 23.299351, 42.6790198 ] } },
{ "type": "Feature", "properties": { "NAME": "Бачул чешма", "NAME_EN": null, "AMENITY": "drinking_water", "SHOP": null, "OSM_TYPE": "node", "OSM_ID": 4766166464 }, "geometry": { "type": "Point", "coordinates": [ 23.4579702, 42.5843342 ] } },
{ "type": "Feature", "properties": { "NAME": null, "NAME_EN": null, "AMENITY": "drinking_water", "SHOP": null, "OSM_TYPE": "node", "OSM_ID": 4771494525 }, "geometry": { "type": "Point", "coordinates": [ 23.497996, 42.5415702 ] } },
{ "type": "Feature", "properties": { "NAME": "Боянската чешма", "NAME_EN": null, "AMENITY": "drinking_water", "SHOP": null, "OSM_TYPE": "node", "OSM_ID": 4774496652 }, "geometry": { "type": "Point", "coordinates": [ 23.2665368, 42.6422867 ] } },
{ "type": "Feature", "properties": { "NAME": null, "NAME_EN": null, "AMENITY": "drinking_water", "SHOP": null, "OSM_TYPE": "node", "OSM_ID": 4779848764 }, "geometry": { "type": "Point", "coordinates": [ 23.4333766, 42.4961564 ] } },
{ "type": "Feature", "properties": { "NAME": "Дръндарски чучур", "NAME_EN": null, "AMENITY": "drinking_water", "SHOP": null, "OSM_TYPE": "node", "OSM_ID": 4799349315 }, "geometry": { "type": "Point", "coordinates": [ 23.4746987, 42.5792351 ] } },
{ "type": "Feature", "properties": { "NAME": "Йочков чучур", "NAME_EN": null, "AMENITY": "drinking_water", "SHOP": null, "OSM_TYPE": "node", "OSM_ID": 4799364995 }, "geometry": { "type": "Point", "coordinates": [ 23.503232, 42.5757195 ] } },
{ "type": "Feature", "properties": { "NAME": null, "NAME_EN": null, "AMENITY": "drinking_water", "SHOP": null, "OSM_TYPE": "node", "OSM_ID": 4799365013 }, "geometry": { "type": "Point", "coordinates": [ 23.4981841, 42.5797131 ] } },
{ "type": "Feature", "properties": { "NAME": null, "NAME_EN": null, "AMENITY": "drinking_water", "SHOP": null, "OSM_TYPE": "node", "OSM_ID": 4799379555 }, "geometry": { "type": "Point", "coordinates": [ 23.4944055, 42.5740258 ] } },
{ "type": "Feature", "properties": { "NAME": null, "NAME_EN": null, "AMENITY": "drinking_water", "SHOP": null, "OSM_TYPE": "node", "OSM_ID": 4809642522 }, "geometry": { "type": "Point", "coordinates": [ 23.2952448, 42.6143761 ] } },
{ "type": "Feature", "properties": { "NAME": null, "NAME_EN": null, "AMENITY": "drinking_water", "SHOP": null, "OSM_TYPE": "node", "OSM_ID": 4820408432 }, "geometry": { "type": "Point", "coordinates": [ 23.342717, 42.5739975 ] } },
{ "type": "Feature", "properties": { "NAME": null, "NAME_EN": null, "AMENITY": "drinking_water", "SHOP": null, "OSM_TYPE": "node", "OSM_ID": 4834240122 }, "geometry": { "type": "Point", "coordinates": [ 23.2765157, 42.6316934 ] } },
{ "type": "Feature", "properties": { "NAME": "Чешма \"Кантона\"", "NAME_EN": null, "AMENITY": "drinking_water", "SHOP": null, "OSM_TYPE": "node", "OSM_ID": 4852309930 }, "geometry": { "type": "Point", "coordinates": [ 23.3985038, 42.4795788 ] } },
{ "type": "Feature", "properties": { "NAME": null, "NAME_EN": null, "AMENITY": "drinking_water", "SHOP": null, "OSM_TYPE": "node", "OSM_ID": 4895741723 }, "geometry": { "type": "Point", "coordinates": [ 23.5933979, 42.7958595 ] } },
{ "type": "Feature", "properties": { "NAME": null, "NAME_EN": null, "AMENITY": "drinking_water", "SHOP": null, "OSM_TYPE": "node", "OSM_ID": 4895741724 }, "geometry": { "type": "Point", "coordinates": [ 23.5960801, 42.7938007 ] } },
{ "type": "Feature", "properties": { "NAME": null, "NAME_EN": null, "AMENITY": "drinking_water", "SHOP": null, "OSM_TYPE": "node", "OSM_ID": 4938157901 }, "geometry": { "type": "Point", "coordinates": [ 23.3619051, 42.6679932 ] } },
{ "type": "Feature", "properties": { "NAME": null, "NAME_EN": null, "AMENITY": "drinking_water", "SHOP": null, "OSM_TYPE": "node", "OSM_ID": 4939175385 }, "geometry": { "type": "Point", "coordinates": [ 23.29199, 42.5832001 ] } },
{ "type": "Feature", "properties": { "NAME": null, "NAME_EN": null, "AMENITY": "drinking_water", "SHOP": null, "OSM_TYPE": "node", "OSM_ID": 4940823709 }, "geometry": { "type": "Point", "coordinates": [ 23.3182387, 42.6829003 ] } },
{ "type": "Feature", "properties": { "NAME": null, "NAME_EN": null, "AMENITY": "drinking_water", "SHOP": null, "OSM_TYPE": "node", "OSM_ID": 4965889348 }, "geometry": { "type": "Point", "coordinates": [ 23.2842479, 42.6179884 ] } },
{ "type": "Feature", "properties": { "NAME": "Лековитата чешма на Бай Сандо", "NAME_EN": null, "AMENITY": "drinking_water", "SHOP": null, "OSM_TYPE": "node", "OSM_ID": 4965961598 }, "geometry": { "type": "Point", "coordinates": [ 23.2925207, 42.6264166 ] } },
{ "type": "Feature", "properties": { "NAME": null, "NAME_EN": null, "AMENITY": "drinking_water", "SHOP": null, "OSM_TYPE": "node", "OSM_ID": 4972684445 }, "geometry": { "type": "Point", "coordinates": [ 23.3460469, 42.6970431 ] } },
{ "type": "Feature", "properties": { "NAME": null, "NAME_EN": null, "AMENITY": "drinking_water", "SHOP": null, "OSM_TYPE": "node", "OSM_ID": 4975162257 }, "geometry": { "type": "Point", "coordinates": [ 23.3386054, 42.6946078 ] } },
{ "type": "Feature", "properties": { "NAME": null, "NAME_EN": null, "AMENITY": "drinking_water", "SHOP": null, "OSM_TYPE": "node", "OSM_ID": 5018238924 }, "geometry": { "type": "Point", "coordinates": [ 23.3524488, 42.6960198 ] } },
{ "type": "Feature", "properties": { "NAME": null, "NAME_EN": null, "AMENITY": "drinking_water", "SHOP": null, "OSM_TYPE": "node", "OSM_ID": 5064604567 }, "geometry": { "type": "Point", "coordinates": [ 23.5117634, 42.8228126 ] } },
{ "type": "Feature", "properties": { "NAME": null, "NAME_EN": null, "AMENITY": "drinking_water", "SHOP": null, "OSM_TYPE": "node", "OSM_ID": 5130381180 }, "geometry": { "type": "Point", "coordinates": [ 23.3235621, 42.6996389 ] } },
{ "type": "Feature", "properties": { "NAME": null, "NAME_EN": null, "AMENITY": "drinking_water", "SHOP": null, "OSM_TYPE": "node", "OSM_ID": 5198517478 }, "geometry": { "type": "Point", "coordinates": [ 23.4780464, 42.5789027 ] } },
{ "type": "Feature", "properties": { "NAME": null, "NAME_EN": null, "AMENITY": "drinking_water", "SHOP": null, "OSM_TYPE": "node", "OSM_ID": 5198517479 }, "geometry": { "type": "Point", "coordinates": [ 23.4753667, 42.5794618 ] } },
{ "type": "Feature", "properties": { "NAME": null, "NAME_EN": null, "AMENITY": "drinking_water", "SHOP": null, "OSM_TYPE": "node", "OSM_ID": 5291701755 }, "geometry": { "type": "Point", "coordinates": [ 23.3095446, 42.7015393 ] } },
{ "type": "Feature", "properties": { "NAME": null, "NAME_EN": null, "AMENITY": "drinking_water", "SHOP": null, "OSM_TYPE": "node", "OSM_ID": 5325671719 }, "geometry": { "type": "Point", "coordinates": [ 23.467108, 42.5876515 ] } },
{ "type": "Feature", "properties": { "NAME": null, "NAME_EN": null, "AMENITY": "drinking_water", "SHOP": null, "OSM_TYPE": "node", "OSM_ID": 5343078125 }, "geometry": { "type": "Point", "coordinates": [ 23.2804157, 42.6270773 ] } },
{ "type": "Feature", "properties": { "NAME": null, "NAME_EN": null, "AMENITY": "drinking_water", "SHOP": null, "OSM_TYPE": "node", "OSM_ID": 5480454380 }, "geometry": { "type": "Point", "coordinates": [ 23.3225041, 42.6827651 ] } },
{ "type": "Feature", "properties": { "NAME": null, "NAME_EN": null, "AMENITY": "drinking_water", "SHOP": null, "OSM_TYPE": "node", "OSM_ID": 5584310521 }, "geometry": { "type": "Point", "coordinates": [ 23.3218938, 42.704213 ] } },
{ "type": "Feature", "properties": { "NAME": null, "NAME_EN": null, "AMENITY": "drinking_water", "SHOP": null, "OSM_TYPE": "node", "OSM_ID": 5624020279 }, "geometry": { "type": "Point", "coordinates": [ 23.3715339, 42.6464646 ] } },
{ "type": "Feature", "properties": { "NAME": null, "NAME_EN": null, "AMENITY": "drinking_water", "SHOP": null, "OSM_TYPE": "node", "OSM_ID": 5640351821 }, "geometry": { "type": "Point", "coordinates": [ 23.3235455, 42.6989921 ] } },
{ "type": "Feature", "properties": { "NAME": null, "NAME_EN": null, "AMENITY": "drinking_water", "SHOP": null, "OSM_TYPE": "node", "OSM_ID": 5691301022 }, "geometry": { "type": "Point", "coordinates": [ 23.3066285, 42.6939418 ] } },
{ "type": "Feature", "properties": { "NAME": null, "NAME_EN": null, "AMENITY": "drinking_water", "SHOP": null, "OSM_TYPE": "node", "OSM_ID": 5761902153 }, "geometry": { "type": "Point", "coordinates": [ 23.5811796, 42.8167278 ] } },
{ "type": "Feature", "properties": { "NAME": null, "NAME_EN": null, "AMENITY": "drinking_water", "SHOP": null, "OSM_TYPE": "node", "OSM_ID": 5838395749 }, "geometry": { "type": "Point", "coordinates": [ 23.287659, 42.57737 ] } },
{ "type": "Feature", "properties": { "NAME": null, "NAME_EN": null, "AMENITY": "drinking_water", "SHOP": null, "OSM_TYPE": "node", "OSM_ID": 5850694364 }, "geometry": { "type": "Point", "coordinates": [ 23.3009277, 42.7021511 ] } },
{ "type": "Feature", "properties": { "NAME": null, "NAME_EN": null, "AMENITY": "drinking_water", "SHOP": null, "OSM_TYPE": "node", "OSM_ID": 5920969170 }, "geometry": { "type": "Point", "coordinates": [ 23.3044018, 42.6690123 ] } },
{ "type": "Feature", "properties": { "NAME": null, "NAME_EN": null, "AMENITY": "drinking_water", "SHOP": null, "OSM_TYPE": "node", "OSM_ID": 6113373186 }, "geometry": { "type": "Point", "coordinates": [ 23.3855545, 42.5399791 ] } },
{ "type": "Feature", "properties": { "NAME": null, "NAME_EN": null, "AMENITY": "drinking_water", "SHOP": null, "OSM_TYPE": "node", "OSM_ID": 6206073178 }, "geometry": { "type": "Point", "coordinates": [ 23.3730623, 42.5718757 ] } },
{ "type": "Feature", "properties": { "NAME": null, "NAME_EN": null, "AMENITY": "drinking_water", "SHOP": null, "OSM_TYPE": "node", "OSM_ID": 6285333857 }, "geometry": { "type": "Point", "coordinates": [ 23.347647, 42.5865999 ] } },
{ "type": "Feature", "properties": { "NAME": null, "NAME_EN": null, "AMENITY": "drinking_water", "SHOP": null, "OSM_TYPE": "node", "OSM_ID": 6285334839 }, "geometry": { "type": "Point", "coordinates": [ 23.3517722, 42.5886826 ] } },
{ "type": "Feature", "properties": { "NAME": "Чешма", "NAME_EN": null, "AMENITY": "drinking_water", "SHOP": null, "OSM_TYPE": "node", "OSM_ID": 6334760750 }, "geometry": { "type": "Point", "coordinates": [ 23.176579, 42.7183573 ] } },
{ "type": "Feature", "properties": { "NAME": "Чешма", "NAME_EN": null, "AMENITY": "drinking_water", "SHOP": null, "OSM_TYPE": "node", "OSM_ID": 6342503039 }, "geometry": { "type": "Point", "coordinates": [ 23.4608431, 42.6642347 ] } },
{ "type": "Feature", "properties": { "NAME": null, "NAME_EN": null, "AMENITY": "drinking_water", "SHOP": null, "OSM_TYPE": "node", "OSM_ID": 6389038165 }, "geometry": { "type": "Point", "coordinates": [ 23.4878564, 42.5974911 ] } },
{ "type": "Feature", "properties": { "NAME": null, "NAME_EN": null, "AMENITY": "drinking_water", "SHOP": null, "OSM_TYPE": "node", "OSM_ID": 6389061339 }, "geometry": { "type": "Point", "coordinates": [ 23.4912708, 42.59122 ] } },
{ "type": "Feature", "properties": { "NAME": null, "NAME_EN": null, "AMENITY": "drinking_water", "SHOP": null, "OSM_TYPE": "node", "OSM_ID": 6405413329 }, "geometry": { "type": "Point", "coordinates": [ 23.2482732, 42.6605428 ] } },
{ "type": "Feature", "properties": { "NAME": "Чешма", "NAME_EN": null, "AMENITY": "drinking_water", "SHOP": null, "OSM_TYPE": "node", "OSM_ID": 6405414175 }, "geometry": { "type": "Point", "coordinates": [ 23.4651113, 42.6802996 ] } },
{ "type": "Feature", "properties": { "NAME": null, "NAME_EN": null, "AMENITY": "drinking_water", "SHOP": null, "OSM_TYPE": "node", "OSM_ID": 6450878230 }, "geometry": { "type": "Point", "coordinates": [ 23.3464578, 42.677685 ] } },
{ "type": "Feature", "properties": { "NAME": null, "NAME_EN": null, "AMENITY": "drinking_water", "SHOP": null, "OSM_TYPE": "node", "OSM_ID": 6516117437 }, "geometry": { "type": "Point", "coordinates": [ 23.3224105, 42.6962556 ] } },
{ "type": "Feature", "properties": { "NAME": null, "NAME_EN": null, "AMENITY": "drinking_water", "SHOP": null, "OSM_TYPE": "node", "OSM_ID": 6570990986 }, "geometry": { "type": "Point", "coordinates": [ 23.3380333, 42.6968825 ] } },
{ "type": "Feature", "properties": { "NAME": null, "NAME_EN": null, "AMENITY": "drinking_water", "SHOP": null, "OSM_TYPE": "node", "OSM_ID": 6629555283 }, "geometry": { "type": "Point", "coordinates": [ 23.3312715, 42.5502748 ] } },
{ "type": "Feature", "properties": { "NAME": null, "NAME_EN": null, "AMENITY": "drinking_water", "SHOP": null, "OSM_TYPE": "node", "OSM_ID": 6634721531 }, "geometry": { "type": "Point", "coordinates": [ 23.628139, 42.7972453 ] } },
{ "type": "Feature", "properties": { "NAME": null, "NAME_EN": null, "AMENITY": "drinking_water", "SHOP": null, "OSM_TYPE": "node", "OSM_ID": 6655073582 }, "geometry": { "type": "Point", "coordinates": [ 23.2980294, 42.7401932 ] } },
{ "type": "Feature", "properties": { "NAME": null, "NAME_EN": null, "AMENITY": "drinking_water", "SHOP": null, "OSM_TYPE": "node", "OSM_ID": 6793930958 }, "geometry": { "type": "Point", "coordinates": [ 23.2426478, 42.6590887 ] } },
{ "type": "Feature", "properties": { "NAME": null, "NAME_EN": null, "AMENITY": "drinking_water", "SHOP": null, "OSM_TYPE": "node", "OSM_ID": 6811628788 }, "geometry": { "type": "Point", "coordinates": [ 23.4582863, 42.594307 ] } },
{ "type": "Feature", "properties": { "NAME": "Момченцето с кратунката", "NAME_EN": null, "AMENITY": "drinking_water", "SHOP": null, "OSM_TYPE": "node", "OSM_ID": 6862320019 }, "geometry": { "type": "Point", "coordinates": [ 23.3296471, 42.6944575 ] } },
{ "type": "Feature", "properties": { "NAME": null, "NAME_EN": null, "AMENITY": "drinking_water", "SHOP": null, "OSM_TYPE": "node", "OSM_ID": 6880565339 }, "geometry": { "type": "Point", "coordinates": [ 23.4749213, 42.6030434 ] } },
{ "type": "Feature", "properties": { "NAME": null, "NAME_EN": null, "AMENITY": "drinking_water", "SHOP": null, "OSM_TYPE": "node", "OSM_ID": 6916774290 }, "geometry": { "type": "Point", "coordinates": [ 23.3176608, 42.6852872 ] } },
{ "type": "Feature", "properties": { "NAME": null, "NAME_EN": null, "AMENITY": "drinking_water", "SHOP": null, "OSM_TYPE": "node", "OSM_ID": 6961498861 }, "geometry": { "type": "Point", "coordinates": [ 23.3344245, 42.6942894 ] } },
{ "type": "Feature", "properties": { "NAME": null, "NAME_EN": null, "AMENITY": "drinking_water", "SHOP": null, "OSM_TYPE": "node", "OSM_ID": 6978253697 }, "geometry": { "type": "Point", "coordinates": [ 23.303913, 42.695835 ] } },
{ "type": "Feature", "properties": { "NAME": null, "NAME_EN": null, "AMENITY": "drinking_water", "SHOP": null, "OSM_TYPE": "node", "OSM_ID": 7034431306 }, "geometry": { "type": "Point", "coordinates": [ 23.3063129, 42.6962549 ] } },
{ "type": "Feature", "properties": { "NAME": null, "NAME_EN": null, "AMENITY": "drinking_water", "SHOP": null, "OSM_TYPE": "node", "OSM_ID": 7430139439 }, "geometry": { "type": "Point", "coordinates": [ 23.5411923, 42.7860811 ] } },
{ "type": "Feature", "properties": { "NAME": null, "NAME_EN": null, "AMENITY": "drinking_water", "SHOP": null, "OSM_TYPE": "node", "OSM_ID": 7481400800 }, "geometry": { "type": "Point", "coordinates": [ 23.3284288, 42.6882755 ] } },
{ "type": "Feature", "properties": { "NAME": "Чешма", "NAME_EN": "Water well", "AMENITY": "drinking_water", "SHOP": null, "OSM_TYPE": "node", "OSM_ID": 7503594185 }, "geometry": { "type": "Point", "coordinates": [ 23.1851468, 42.6492018 ] } },
{ "type": "Feature", "properties": { "NAME": "Бяла вода", "NAME_EN": null, "AMENITY": "drinking_water", "SHOP": null, "OSM_TYPE": "node", "OSM_ID": 7517532839 }, "geometry": { "type": "Point", "coordinates": [ 23.2306218, 42.6414971 ] } },
{ "type": "Feature", "properties": { "NAME": null, "NAME_EN": null, "AMENITY": "drinking_water", "SHOP": null, "OSM_TYPE": "node", "OSM_ID": 7528750697 }, "geometry": { "type": "Point", "coordinates": [ 23.2253772, 42.636377 ] } },
{ "type": "Feature", "properties": { "NAME": null, "NAME_EN": null, "AMENITY": "drinking_water", "SHOP": null, "OSM_TYPE": "node", "OSM_ID": 7636430928 }, "geometry": { "type": "Point", "coordinates": [ 23.2509259, 42.8181799 ] } },
{ "type": "Feature", "properties": { "NAME": null, "NAME_EN": null, "AMENITY": "drinking_water", "SHOP": null, "OSM_TYPE": "node", "OSM_ID": 7658692386 }, "geometry": { "type": "Point", "coordinates": [ 23.269232, 42.8488646 ] } },
{ "type": "Feature", "properties": { "NAME": null, "NAME_EN": null, "AMENITY": "drinking_water", "SHOP": null, "OSM_TYPE": "node", "OSM_ID": 7658692391 }, "geometry": { "type": "Point", "coordinates": [ 23.303622, 42.6648719 ] } },
{ "type": "Feature", "properties": { "NAME": "Чешмата с часовника", "NAME_EN": null, "AMENITY": "drinking_water", "SHOP": null, "OSM_TYPE": "node", "OSM_ID": 7731594274 }, "geometry": { "type": "Point", "coordinates": [ 23.1444409, 42.7074218 ] } },
{ "type": "Feature", "properties": { "NAME": null, "NAME_EN": null, "AMENITY": "drinking_water", "SHOP": null, "OSM_TYPE": "node", "OSM_ID": 7908635904 }, "geometry": { "type": "Point", "coordinates": [ 23.3355984, 42.6933032 ] } },
{ "type": "Feature", "properties": { "NAME": null, "NAME_EN": null, "AMENITY": "drinking_water", "SHOP": null, "OSM_TYPE": "node", "OSM_ID": 7992159277 }, "geometry": { "type": "Point", "coordinates": [ 23.147859, 42.7058147 ] } },
{ "type": "Feature", "properties": { "NAME": null, "NAME_EN": null, "AMENITY": "drinking_water", "SHOP": null, "OSM_TYPE": "node", "OSM_ID": 8013748576 }, "geometry": { "type": "Point", "coordinates": [ 23.3339527, 42.6782702 ] } },
{ "type": "Feature", "properties": { "NAME": null, "NAME_EN": null, "AMENITY": "drinking_water", "SHOP": null, "OSM_TYPE": "node", "OSM_ID": 8018989350 }, "geometry": { "type": "Point", "coordinates": [ 23.1760726, 42.6775141 ] } },
{ "type": "Feature", "properties": { "NAME": null, "NAME_EN": null, "AMENITY": "drinking_water", "SHOP": null, "OSM_TYPE": "node", "OSM_ID": 8019092560 }, "geometry": { "type": "Point", "coordinates": [ 23.1756113, 42.6590257 ] } },
{ "type": "Feature", "properties": { "NAME": null, "NAME_EN": null, "AMENITY": "drinking_water", "SHOP": null, "OSM_TYPE": "node", "OSM_ID": 8112418124 }, "geometry": { "type": "Point", "coordinates": [ 23.3344608, 42.7144345 ] } },
{ "type": "Feature", "properties": { "NAME": null, "NAME_EN": null, "AMENITY": "drinking_water", "SHOP": null, "OSM_TYPE": "node", "OSM_ID": 8245336061 }, "geometry": { "type": "Point", "coordinates": [ 23.5049956, 42.8237178 ] } },
{ "type": "Feature", "properties": { "NAME": "Паша Бунар", "NAME_EN": null, "AMENITY": "drinking_water", "SHOP": null, "OSM_TYPE": "node", "OSM_ID": 8594227768 }, "geometry": { "type": "Point", "coordinates": [ 23.2979391, 42.6151161 ] } },
{ "type": "Feature", "properties": { "NAME": "Вода", "NAME_EN": null, "AMENITY": "drinking_water", "SHOP": null, "OSM_TYPE": "node", "OSM_ID": 8765597117 }, "geometry": { "type": "Point", "coordinates": [ 23.3006818, 42.605403 ] } },
{ "type": "Feature", "properties": { "NAME": null, "NAME_EN": null, "AMENITY": "drinking_water", "SHOP": null, "OSM_TYPE": "node", "OSM_ID": 8811137151 }, "geometry": { "type": "Point", "coordinates": [ 23.6471906, 42.8166273 ] } },
{ "type": "Feature", "properties": { "NAME": null, "NAME_EN": null, "AMENITY": "drinking_water", "SHOP": null, "OSM_TYPE": "node", "OSM_ID": 8814433627 }, "geometry": { "type": "Point", "coordinates": [ 23.1014311, 42.7230937 ] } },
{ "type": "Feature", "properties": { "NAME": null, "NAME_EN": null, "AMENITY": "drinking_water", "SHOP": null, "OSM_TYPE": "node", "OSM_ID": 8814444886 }, "geometry": { "type": "Point", "coordinates": [ 23.1050943, 42.7278295 ] } },
{ "type": "Feature", "properties": { "NAME": null, "NAME_EN": null, "AMENITY": "drinking_water", "SHOP": null, "OSM_TYPE": "node", "OSM_ID": 8857974286 }, "geometry": { "type": "Point", "coordinates": [ 23.3046728, 42.6763382 ] } },
{ "type": "Feature", "properties": { "NAME": null, "NAME_EN": null, "AMENITY": "drinking_water", "SHOP": null, "OSM_TYPE": "node", "OSM_ID": 8932031065 }, "geometry": { "type": "Point", "coordinates": [ 23.2134167, 42.6109419 ] } },
{ "type": "Feature", "properties": { "NAME": null, "NAME_EN": null, "AMENITY": "drinking_water", "SHOP": null, "OSM_TYPE": "node", "OSM_ID": 8933322676 }, "geometry": { "type": "Point", "coordinates": [ 23.3460968, 42.6703683 ] } },
{ "type": "Feature", "properties": { "NAME": null, "NAME_EN": null, "AMENITY": "drinking_water", "SHOP": null, "OSM_TYPE": "node", "OSM_ID": 8937261516 }, "geometry": { "type": "Point", "coordinates": [ 23.6329756, 42.433911 ] } },
{ "type": "Feature", "properties": { "NAME": null, "NAME_EN": null, "AMENITY": "drinking_water", "SHOP": null, "OSM_TYPE": "node", "OSM_ID": 8937262040 }, "geometry": { "type": "Point", "coordinates": [ 23.6341569, 42.4337394 ] } },
{ "type": "Feature", "properties": { "NAME": "Аязмо", "NAME_EN": null, "AMENITY": "drinking_water", "SHOP": null, "OSM_TYPE": "node", "OSM_ID": 8937281478 }, "geometry": { "type": "Point", "coordinates": [ 23.633387, 42.4333364 ] } },
{ "type": "Feature", "properties": { "NAME": null, "NAME_EN": null, "AMENITY": "drinking_water", "SHOP": null, "OSM_TYPE": "node", "OSM_ID": 9006675096 }, "geometry": { "type": "Point", "coordinates": [ 23.2824758, 42.7112882 ] } },
{ "type": "Feature", "properties": { "NAME": null, "NAME_EN": null, "AMENITY": "drinking_water", "SHOP": null, "OSM_TYPE": "node", "OSM_ID": 9014071495 }, "geometry": { "type": "Point", "coordinates": [ 23.2455126, 42.6290678 ] } },
{ "type": "Feature", "properties": { "NAME": null, "NAME_EN": null, "AMENITY": "drinking_water", "SHOP": null, "OSM_TYPE": "node", "OSM_ID": 9062425985 }, "geometry": { "type": "Point", "coordinates": [ 23.33475, 42.7020098 ] } },
{ "type": "Feature", "properties": { "NAME": null, "NAME_EN": null, "AMENITY": "drinking_water", "SHOP": null, "OSM_TYPE": "node", "OSM_ID": 9139620117 }, "geometry": { "type": "Point", "coordinates": [ 23.3055187, 42.613109 ] } },
{ "type": "Feature", "properties": { "NAME": null, "NAME_EN": null, "AMENITY": "drinking_water", "SHOP": null, "OSM_TYPE": "node", "OSM_ID": 9195707713 }, "geometry": { "type": "Point", "coordinates": [ 23.4325796, 42.6412886 ] } },
{ "type": "Feature", "properties": { "NAME": null, "NAME_EN": null, "AMENITY": "drinking_water", "SHOP": null, "OSM_TYPE": "node", "OSM_ID": 9529592486 }, "geometry": { "type": "Point", "coordinates": [ 23.1436589, 42.7074438 ] } },
{ "type": "Feature", "properties": { "NAME": null, "NAME_EN": null, "AMENITY": "drinking_water", "SHOP": null, "OSM_TYPE": "node", "OSM_ID": 9730872763 }, "geometry": { "type": "Point", "coordinates": [ 23.4466871, 42.5990382 ] } },
{ "type": "Feature", "properties": { "NAME": null, "NAME_EN": null, "AMENITY": "drinking_water", "SHOP": null, "OSM_TYPE": "node", "OSM_ID": 9737319105 }, "geometry": { "type": "Point", "coordinates": [ 23.3037052, 42.7414593 ] } },
{ "type": "Feature", "properties": { "NAME": null, "NAME_EN": null, "AMENITY": "drinking_water", "SHOP": null, "OSM_TYPE": "node", "OSM_ID": 9743415524 }, "geometry": { "type": "Point", "coordinates": [ 23.180172, 42.6110776 ] } },
{ "type": "Feature", "properties": { "NAME": null, "NAME_EN": null, "AMENITY": "drinking_water", "SHOP": null, "OSM_TYPE": "node", "OSM_ID": 9794240417 }, "geometry": { "type": "Point", "coordinates": [ 23.2372722, 42.6105156 ] } },
{ "type": "Feature", "properties": { "NAME": null, "NAME_EN": null, "AMENITY": "drinking_water", "SHOP": null, "OSM_TYPE": "node", "OSM_ID": 9810281812 }, "geometry": { "type": "Point", "coordinates": [ 23.2252654, 42.6198203 ] } },
{ "type": "Feature", "properties": { "NAME": null, "NAME_EN": null, "AMENITY": "drinking_water", "SHOP": null, "OSM_TYPE": "node", "OSM_ID": 9819015121 }, "geometry": { "type": "Point", "coordinates": [ 23.3636265, 42.6861932 ] } },
{ "type": "Feature", "properties": { "NAME": null, "NAME_EN": null, "AMENITY": "drinking_water", "SHOP": null, "OSM_TYPE": "node", "OSM_ID": 9948835474 }, "geometry": { "type": "Point", "coordinates": [ 23.5591069, 42.4441754 ] } },
{ "type": "Feature", "properties": { "NAME": null, "NAME_EN": null, "AMENITY": "drinking_water", "SHOP": null, "OSM_TYPE": "node", "OSM_ID": 10017403178 }, "geometry": { "type": "Point", "coordinates": [ 23.3114715, 42.627489 ] } },
{ "type": "Feature", "properties": { "NAME": null, "NAME_EN": null, "AMENITY": "drinking_water", "SHOP": null, "OSM_TYPE": "node", "OSM_ID": 10050376821 }, "geometry": { "type": "Point", "coordinates": [ 23.4619992, 42.6643549 ] } },
{ "type": "Feature", "properties": { "NAME": "Света вода Благодатна", "NAME_EN": null, "AMENITY": "drinking_water", "SHOP": null, "OSM_TYPE": "node", "OSM_ID": 10123399717 }, "geometry": { "type": "Point", "coordinates": [ 23.5000234, 42.8151151 ] } },
{ "type": "Feature", "properties": { "NAME": null, "NAME_EN": null, "AMENITY": "drinking_water", "SHOP": null, "OSM_TYPE": "node", "OSM_ID": 10251112732 }, "geometry": { "type": "Point", "coordinates": [ 23.4694373, 42.5969462 ] } },
{ "type": "Feature", "properties": { "NAME": null, "NAME_EN": null, "AMENITY": "drinking_water", "SHOP": null, "OSM_TYPE": "node", "OSM_ID": 10271652955 }, "geometry": { "type": "Point", "coordinates": [ 23.2068255, 42.6392787 ] } },
{ "type": "Feature", "properties": { "NAME": null, "NAME_EN": null, "AMENITY": "drinking_water", "SHOP": null, "OSM_TYPE": "node", "OSM_ID": 10271794310 }, "geometry": { "type": "Point", "coordinates": [ 23.2217671, 42.6271307 ] } },
{ "type": "Feature", "properties": { "NAME": "Вентова чешма", "NAME_EN": null, "AMENITY": "drinking_water", "SHOP": null, "OSM_TYPE": "node", "OSM_ID": 10542531000 }, "geometry": { "type": "Point", "coordinates": [ 23.2840012, 42.7152373 ] } },
{ "type": "Feature", "properties": { "NAME": null, "NAME_EN": null, "AMENITY": "drinking_water", "SHOP": null, "OSM_TYPE": "node", "OSM_ID": 10581195943 }, "geometry": { "type": "Point", "coordinates": [ 23.3056419, 42.6735153 ] } },
{ "type": "Feature", "properties": { "NAME": null, "NAME_EN": null, "AMENITY": "drinking_water", "SHOP": null, "OSM_TYPE": "node", "OSM_ID": 10749947364 }, "geometry": { "type": "Point", "coordinates": [ 23.2273339, 42.6279751 ] } },
{ "type": "Feature", "properties": { "NAME": null, "NAME_EN": null, "AMENITY": "drinking_water", "SHOP": null, "OSM_TYPE": "node", "OSM_ID": 10785256767 }, "geometry": { "type": "Point", "coordinates": [ 23.3039542, 42.6770276 ] } },
{ "type": "Feature", "properties": { "NAME": null, "NAME_EN": null, "AMENITY": "drinking_water", "SHOP": null, "OSM_TYPE": "node", "OSM_ID": 10840972758 }, "geometry": { "type": "Point", "coordinates": [ 23.1605237, 42.5944625 ] } },
{ "type": "Feature", "properties": { "NAME": null, "NAME_EN": null, "AMENITY": "drinking_water", "SHOP": null, "OSM_TYPE": "node", "OSM_ID": 10895516905 }, "geometry": { "type": "Point", "coordinates": [ 23.2370424, 42.6109159 ] } },
{ "type": "Feature", "properties": { "NAME": null, "NAME_EN": null, "AMENITY": "drinking_water", "SHOP": null, "OSM_TYPE": "node", "OSM_ID": 10914491703 }, "geometry": { "type": "Point", "coordinates": [ 23.3200153, 42.6858123 ] } },
{ "type": "Feature", "properties": { "NAME": null, "NAME_EN": null, "AMENITY": "drinking_water", "SHOP": null, "OSM_TYPE": "node", "OSM_ID": 11001469174 }, "geometry": { "type": "Point", "coordinates": [ 23.3531261, 42.6599649 ] } },
{ "type": "Feature", "properties": { "NAME": null, "NAME_EN": null, "AMENITY": "drinking_water", "SHOP": null, "OSM_TYPE": "node", "OSM_ID": 11085593803 }, "geometry": { "type": "Point", "coordinates": [ 23.2524845, 42.626933 ] } },
{ "type": "Feature", "properties": { "NAME": null, "NAME_EN": null, "AMENITY": "drinking_water", "SHOP": null, "OSM_TYPE": "node", "OSM_ID": 11193078655 }, "geometry": { "type": "Point", "coordinates": [ 23.3066762, 42.6949141 ] } },
{ "type": "Feature", "properties": { "NAME": null, "NAME_EN": null, "AMENITY": "drinking_water", "SHOP": null, "OSM_TYPE": "node", "OSM_ID": 11194342095 }, "geometry": { "type": "Point", "coordinates": [ 23.238192, 42.6162786 ] } },
{ "type": "Feature", "properties": { "NAME": null, "NAME_EN": null, "AMENITY": "drinking_water", "SHOP": null, "OSM_TYPE": "node", "OSM_ID": 11204821793 }, "geometry": { "type": "Point", "coordinates": [ 23.3170675, 42.6603384 ] } },
{ "type": "Feature", "properties": { "NAME": null, "NAME_EN": null, "AMENITY": "drinking_water", "SHOP": null, "OSM_TYPE": "node", "OSM_ID": 11283588260 }, "geometry": { "type": "Point", "coordinates": [ 23.3704837, 42.6441675 ] } },
{ "type": "Feature", "properties": { "NAME": "Чешма", "NAME_EN": null, "AMENITY": "drinking_water", "SHOP": null, "OSM_TYPE": "node", "OSM_ID": 11420251470 }, "geometry": { "type": "Point", "coordinates": [ 23.2040304, 42.6505108 ] } },
{ "type": "Feature", "properties": { "NAME": "С Бога напред", "NAME_EN": null, "AMENITY": "drinking_water", "SHOP": null, "OSM_TYPE": "node", "OSM_ID": 11442998035 }, "geometry": { "type": "Point", "coordinates": [ 23.2800575, 42.6496917 ] } },
{ "type": "Feature", "properties": { "NAME": null, "NAME_EN": null, "AMENITY": "drinking_water", "SHOP": null, "OSM_TYPE": "node", "OSM_ID": 11519069618 }, "geometry": { "type": "Point", "coordinates": [ 23.3601914, 42.5855946 ] } },
{ "type": "Feature", "properties": { "NAME": null, "NAME_EN": null, "AMENITY": "drinking_water", "SHOP": null, "OSM_TYPE": "node", "OSM_ID": 11638533916 }, "geometry": { "type": "Point", "coordinates": [ 23.4961015, 42.8348532 ] } },
{ "type": "Feature", "properties": { "NAME": null, "NAME_EN": null, "AMENITY": "drinking_water", "SHOP": null, "OSM_TYPE": "node", "OSM_ID": 11669704649 }, "geometry": { "type": "Point", "coordinates": [ 23.3336525, 42.6945586 ] } },
{ "type": "Feature", "properties": { "NAME": null, "NAME_EN": null, "AMENITY": "drinking_water", "SHOP": null, "OSM_TYPE": "node", "OSM_ID": 11734730041 }, "geometry": { "type": "Point", "coordinates": [ 23.305595, 42.6959078 ] } },
{ "type": "Feature", "properties": { "NAME": null, "NAME_EN": null, "AMENITY": "drinking_water", "SHOP": null, "OSM_TYPE": "node", "OSM_ID": 11734837071 }, "geometry": { "type": "Point", "coordinates": [ 23.3085944, 42.6959249 ] } },
{ "type": "Feature", "properties": { "NAME": null, "NAME_EN": null, "AMENITY": "drinking_water", "SHOP": null, "OSM_TYPE": "node", "OSM_ID": 11795767859 }, "geometry": { "type": "Point", "coordinates": [ 23.4145107, 42.6881332 ] } },
{ "type": "Feature", "properties": { "NAME": null, "NAME_EN": null, "AMENITY": "drinking_water", "SHOP": null, "OSM_TYPE": "node", "OSM_ID": 11903292565 }, "geometry": { "type": "Point", "coordinates": [ 23.3374443, 42.6423616 ] } },
{ "type": "Feature", "properties": { "NAME": null, "NAME_EN": null, "AMENITY": "drinking_water", "SHOP": null, "OSM_TYPE": "node", "OSM_ID": 11913651801 }, "geometry": { "type": "Point", "coordinates": [ 23.3441464, 42.6834607 ] } },
{ "type": "Feature", "properties": { "NAME": null, "NAME_EN": null, "AMENITY": "drinking_water", "SHOP": null, "OSM_TYPE": "node", "OSM_ID": 11951774741 }, "geometry": { "type": "Point", "coordinates": [ 23.3292751, 42.6958699 ] } },
{ "type": "Feature", "properties": { "NAME": null, "NAME_EN": null, "AMENITY": "drinking_water", "SHOP": null, "OSM_TYPE": "node", "OSM_ID": 11951804891 }, "geometry": { "type": "Point", "coordinates": [ 23.407921, 42.6282801 ] } },
{ "type": "Feature", "properties": { "NAME": null, "NAME_EN": null, "AMENITY": "drinking_water", "SHOP": null, "OSM_TYPE": "node", "OSM_ID": 11951806497 }, "geometry": { "type": "Point", "coordinates": [ 23.3665261, 42.6476094 ] } },
{ "type": "Feature", "properties": { "NAME": null, "NAME_EN": null, "AMENITY": "drinking_water", "SHOP": null, "OSM_TYPE": "node", "OSM_ID": 11951807828 }, "geometry": { "type": "Point", "coordinates": [ 23.2800454, 42.6483151 ] } },
{ "type": "Feature", "properties": { "NAME": null, "NAME_EN": null, "AMENITY": "drinking_water", "SHOP": null, "OSM_TYPE": "node", "OSM_ID": 11951807829 }, "geometry": { "type": "Point", "coordinates": [ 23.2800003, 42.6486846 ] } },
{ "type": "Feature", "properties": { "NAME": null, "NAME_EN": null, "AMENITY": "drinking_water", "SHOP": null, "OSM_TYPE": "node", "OSM_ID": 11951810326 }, "geometry": { "type": "Point", "coordinates": [ 23.3322482, 42.6912666 ] } },
{ "type": "Feature", "properties": { "NAME": null, "NAME_EN": null, "AMENITY": "drinking_water", "SHOP": null, "OSM_TYPE": "node", "OSM_ID": 11952402353 }, "geometry": { "type": "Point", "coordinates": [ 23.3132541, 42.6606444 ] } },
{ "type": "Feature", "properties": { "NAME": null, "NAME_EN": null, "AMENITY": "drinking_water", "SHOP": null, "OSM_TYPE": "node", "OSM_ID": 11981425303 }, "geometry": { "type": "Point", "coordinates": [ 23.2370618, 42.6772468 ] } },
{ "type": "Feature", "properties": { "NAME": null, "NAME_EN": null, "AMENITY": "drinking_water", "SHOP": null, "OSM_TYPE": "node", "OSM_ID": 11989778092 }, "geometry": { "type": "Point", "coordinates": [ 23.4020535, 42.6898846 ] } },
{ "type": "Feature", "properties": { "NAME": null, "NAME_EN": null, "AMENITY": "drinking_water", "SHOP": null, "OSM_TYPE": "node", "OSM_ID": 12025633867 }, "geometry": { "type": "Point", "coordinates": [ 23.1957415, 42.6283778 ] } },
{ "type": "Feature", "properties": { "NAME": null, "NAME_EN": null, "AMENITY": "drinking_water", "SHOP": null, "OSM_TYPE": "node", "OSM_ID": 12025689048 }, "geometry": { "type": "Point", "coordinates": [ 23.2210008, 42.6507706 ] } },
{ "type": "Feature", "properties": { "NAME": null, "NAME_EN": null, "AMENITY": "drinking_water", "SHOP": null, "OSM_TYPE": "node", "OSM_ID": 12051405556 }, "geometry": { "type": "Point", "coordinates": [ 23.5073689, 42.7970532 ] } },
{ "type": "Feature", "properties": { "NAME": null, "NAME_EN": null, "AMENITY": "drinking_water", "SHOP": null, "OSM_TYPE": "node", "OSM_ID": 12241678129 }, "geometry": { "type": "Point", "coordinates": [ 23.2413928, 42.6535959 ] } },
{ "type": "Feature", "properties": { "NAME": null, "NAME_EN": null, "AMENITY": "drinking_water", "SHOP": null, "OSM_TYPE": "node", "OSM_ID": 12245018531 }, "geometry": { "type": "Point", "coordinates": [ 23.2762966, 42.7098736 ] } },
{ "type": "Feature", "properties": { "NAME": null, "NAME_EN": null, "AMENITY": "drinking_water", "SHOP": null, "OSM_TYPE": "node", "OSM_ID": 12278288076 }, "geometry": { "type": "Point", "coordinates": [ 23.2707672, 42.6373076 ] } },
{ "type": "Feature", "properties": { "NAME": null, "NAME_EN": null, "AMENITY": "drinking_water", "SHOP": null, "OSM_TYPE": "node", "OSM_ID": 12278332131 }, "geometry": { "type": "Point", "coordinates": [ 23.2480839, 42.6459989 ] } },
{ "type": "Feature", "properties": { "NAME": null, "NAME_EN": null, "AMENITY": "drinking_water", "SHOP": null, "OSM_TYPE": "node", "OSM_ID": 12278792703 }, "geometry": { "type": "Point", "coordinates": [ 23.1723309, 42.6443192 ] } },
{ "type": "Feature", "properties": { "NAME": null, "NAME_EN": null, "AMENITY": "drinking_water", "SHOP": null, "OSM_TYPE": "node", "OSM_ID": 12281828676 }, "geometry": { "type": "Point", "coordinates": [ 23.0897612, 42.7084125 ] } },
{ "type": "Feature", "properties": { "NAME": null, "NAME_EN": null, "AMENITY": "drinking_water", "SHOP": null, "OSM_TYPE": "node", "OSM_ID": 12296924090 }, "geometry": { "type": "Point", "coordinates": [ 23.3230344, 42.6949111 ] } },
{ "type": "Feature", "properties": { "NAME": null, "NAME_EN": null, "AMENITY": "drinking_water", "SHOP": null, "OSM_TYPE": "node", "OSM_ID": 12313999795 }, "geometry": { "type": "Point", "coordinates": [ 23.3418277, 42.6438269 ] } },
{ "type": "Feature", "properties": { "NAME": null, "NAME_EN": null, "AMENITY": "drinking_water", "SHOP": null, "OSM_TYPE": "node", "OSM_ID": 12390663766 }, "geometry": { "type": "Point", "coordinates": [ 23.2932767, 42.6843859 ] } },
{ "type": "Feature", "properties": { "NAME": null, "NAME_EN": null, "AMENITY": "drinking_water", "SHOP": null, "OSM_TYPE": "node", "OSM_ID": 12459670025 }, "geometry": { "type": "Point", "coordinates": [ 23.2953089, 42.6828007 ] } },
{ "type": "Feature", "properties": { "NAME": null, "NAME_EN": null, "AMENITY": "drinking_water", "SHOP": null, "OSM_TYPE": "node", "OSM_ID": 12696155544 }, "geometry": { "type": "Point", "coordinates": [ 23.4012116, 42.6654478 ] } },
{ "type": "Feature", "properties": { "NAME": null, "NAME_EN": null, "AMENITY": "drinking_water", "SHOP": null, "OSM_TYPE": "node", "OSM_ID": 12698741148 }, "geometry": { "type": "Point", "coordinates": [ 23.4033851, 42.602342 ] } },
{ "type": "Feature", "properties": { "NAME": null, "NAME_EN": null, "AMENITY": "drinking_water", "SHOP": null, "OSM_TYPE": "node", "OSM_ID": 12794507099 }, "geometry": { "type": "Point", "coordinates": [ 23.3389969, 42.6872009 ] } },
{ "type": "Feature", "properties": { "NAME": null, "NAME_EN": null, "AMENITY": "drinking_water", "SHOP": null, "OSM_TYPE": "node", "OSM_ID": 12837097870 }, "geometry": { "type": "Point", "coordinates": [ 23.3195088, 42.7023149 ] } },
{ "type": "Feature", "properties": { "NAME": null, "NAME_EN": null, "AMENITY": "drinking_water", "SHOP": null, "OSM_TYPE": "node", "OSM_ID": 12876966524 }, "geometry": { "type": "Point", "coordinates": [ 23.2645538, 42.6347709 ] } },
{ "type": "Feature", "properties": { "NAME": null, "NAME_EN": null, "AMENITY": "drinking_water", "SHOP": null, "OSM_TYPE": "node", "OSM_ID": 12879450377 }, "geometry": { "type": "Point", "coordinates": [ 23.3723566, 42.5713226 ] } },
{ "type": "Feature", "properties": { "NAME": null, "NAME_EN": null, "AMENITY": "drinking_water", "SHOP": null, "OSM_TYPE": "node", "OSM_ID": 12883597833 }, "geometry": { "type": "Point", "coordinates": [ 23.3211274, 42.6715816 ] } },
{ "type": "Feature", "properties": { "NAME": null, "NAME_EN": null, "AMENITY": "drinking_water", "SHOP": null, "OSM_TYPE": "node", "OSM_ID": 12942490462 }, "geometry": { "type": "Point", "coordinates": [ 23.5114235, 42.7387436 ] } },
{ "type": "Feature", "properties": { "NAME": null, "NAME_EN": null, "AMENITY": "drinking_water", "SHOP": null, "OSM_TYPE": "node", "OSM_ID": 12945161039 }, "geometry": { "type": "Point", "coordinates": [ 23.3204076, 42.7128503 ] } },
{ "type": "Feature", "properties": { "NAME": null, "NAME_EN": null, "AMENITY": "drinking_water", "SHOP": null, "OSM_TYPE": "node", "OSM_ID": 12969103311 }, "geometry": { "type": "Point", "coordinates": [ 23.3211277, 42.6715971 ] } },
{ "type": "Feature", "properties": { "NAME": null, "NAME_EN": null, "AMENITY": "drinking_water", "SHOP": null, "OSM_TYPE": "node", "OSM_ID": 12979610289 }, "geometry": { "type": "Point", "coordinates": [ 23.479458, 42.6018481 ] } },
{ "type": "Feature", "properties": { "NAME": null, "NAME_EN": null, "AMENITY": "drinking_water", "SHOP": null, "OSM_TYPE": "node", "OSM_ID": 12979854366 }, "geometry": { "type": "Point", "coordinates": [ 23.5298098, 42.7190232 ] } },
{ "type": "Feature", "properties": { "NAME": null, "NAME_EN": null, "AMENITY": "drinking_water", "SHOP": null, "OSM_TYPE": "node", "OSM_ID": 12986098785 }, "geometry": { "type": "Point", "coordinates": [ 23.531283, 42.7229378 ] } },
{ "type": "Feature", "properties": { "NAME": null, "NAME_EN": null, "AMENITY": "drinking_water", "SHOP": null, "OSM_TYPE": "node", "OSM_ID": 13059006758 }, "geometry": { "type": "Point", "coordinates": [ 23.3207992, 42.713535 ] } },
{ "type": "Feature", "properties": { "NAME": null, "NAME_EN": null, "AMENITY": "drinking_water", "SHOP": null, "OSM_TYPE": "node", "OSM_ID": 13059043608 }, "geometry": { "type": "Point", "coordinates": [ 23.3205903, 42.7131698 ] } },
{ "type": "Feature", "properties": { "NAME": null, "NAME_EN": null, "AMENITY": "drinking_water", "SHOP": null, "OSM_TYPE": "node", "OSM_ID": 13059060476 }, "geometry": { "type": "Point", "coordinates": [ 23.3205021, 42.7129993 ] } },
{ "type": "Feature", "properties": { "NAME": null, "NAME_EN": null, "AMENITY": "drinking_water", "SHOP": null, "OSM_TYPE": "node", "OSM_ID": 13059066947 }, "geometry": { "type": "Point", "coordinates": [ 23.3207196, 42.713379 ] } }
]
}
