{
"type": "FeatureCollection",
"name": "sofiaplan_schools_points_20230705_shortversion",
"crs": { "type": "name", "properties": { "name": "urn:ogc:def:crs:EPSG::7801" } },
"features": [
{ "type": "Feature", "properties": { "objectid": 1, "object_nam": "Национално училище за  танцово изкуство", "object_nom": 0.0, "adres": "бул. Шипченски проход №48", "finansiran": "1", "type": "4", "url": "https://nutibg.com/" }, "geometry": { "type": "Point", "coordinates": [ 325110.666400000452995, 4729143.192099999636412 ] } },
{ "type": "Feature", "properties": { "objectid": 2, "object_nam": "22 СОУ Георги С. Раковски", "object_nom": 22.0, "adres": "бул. Витоша №132", "finansiran": "2", "type": "3", "url": "https://www.22seu.bg/" }, "geometry": { "type": "Point", "coordinates": [ 320923.579199999570847, 4730014.721700001507998 ] } },
{ "type": "Feature", "properties": { "objectid": 4, "object_nam": "Национална природо-математическа гимназия Академик Любомир Чакалов", "object_nom": 0.0, "adres": "ж.к. Лозенец, ул. Бигла №52", "finansiran": "1", "type": "4", "url": "https://npmg.org/" }, "geometry": { "type": "Point", "coordinates": [ 322154.065800003707409, 4728401.72859999909997 ] } },
{ "type": "Feature", "properties": { "objectid": 5, "object_nam": "21 СОУ Христо Ботев", "object_nom": 21.0, "adres": "ж.к. Лозенец, ул. Люботрън №12", "finansiran": "2", "type": "3", "url": "http://www.21su.bg/" }, "geometry": { "type": "Point", "coordinates": [ 320950.24210000038147, 4728308.583299998193979 ] } },
{ "type": "Feature", "properties": { "objectid": 6, "object_nam": "124 ОУ Васил Левски", "object_nom": 124.0, "adres": "кв. Подуяне, ул. Вършец №13", "finansiran": "2", "type": "2", "url": "http://www.124ou.org/" }, "geometry": { "type": "Point", "coordinates": [ 325614.956699997186661, 4731341.129299998283386 ] } },
{ "type": "Feature", "properties": { "objectid": 7, "object_nam": "94 СОУ Дим. Страшимиров", "object_nom": 94.0, "adres": "кв. Христо Ботев, ул. 511 №22", "finansiran": "2", "type": "3", "url": "http://school94-sofia.com/" }, "geometry": { "type": "Point", "coordinates": [ 326531.400799997150898, 4730471.053199999034405 ] } },
{ "type": "Feature", "properties": { "objectid": 8, "object_nam": "17 СОУ Дамян Груев", "object_nom": 17.0, "adres": "ж.к. Западен парк, ул. Сава Михайлов №64", "finansiran": "2", "type": "3", "url": "http://17su.bg/" }, "geometry": { "type": "Point", "coordinates": [ 317978.924699999392033, 4732409.2577 ] } },
{ "type": "Feature", "properties": { "objectid": 9, "object_nam": "123 СОУ Стефан Стамболов", "object_nom": 123.0, "adres": "ж.к. Красна поляна, ул. Братин дол №26", "finansiran": "2", "type": "3", "url": "https://123sustefanstambolov.com/" }, "geometry": { "type": "Point", "coordinates": [ 317987.438000001013279, 4731641.172499999403954 ] } },
{ "type": "Feature", "properties": { "objectid": 10, "object_nam": "49 ОУ Бенито Хуарес", "object_nom": 49.0, "adres": "ж.к. Сухата река, ул. Константин Фотинов №4", "finansiran": "2", "type": "2", "url": "https://www.49ousofia.com/" }, "geometry": { "type": "Point", "coordinates": [ 324965.204499997198582, 4731713.889800000935793 ] } },
{ "type": "Feature", "properties": { "objectid": 11, "object_nam": "166 Специализирано спортно училище \"Васил Левски\"", "object_nom": 166.0, "adres": "ж.к. Сухата река, ул. Константин Фотинов №4", "finansiran": "2", "type": "4", "url": "https://166su.com/" }, "geometry": { "type": "Point", "coordinates": [ 324933.543600000441074, 4731747.18129999935627 ] } },
{ "type": "Feature", "properties": { "objectid": 12, "object_nam": "199 ОУ Свети апостол Йоан Богослов", "object_nom": 199.0, "adres": "ж.к. Левски Г, ул. ПОРУЧИК ГЕОРГИ КЮМЮРДЖИЕВ №30", "finansiran": "2", "type": "2", "url": "https://www.199ou.bg/" }, "geometry": { "type": "Point", "coordinates": [ 326222.615099996328354, 4733098.165800001472235 ] } },
{ "type": "Feature", "properties": { "objectid": 13, "object_nam": "44 СОУ Неофит Бозвели", "object_nom": 44.0, "adres": "ж.к. Сухата река, ул. Плакалница №45", "finansiran": "2", "type": "3", "url": "http://44sou.eu/" }, "geometry": { "type": "Point", "coordinates": [ 325287.537900000810623, 4731730.344900000840425 ] } },
{ "type": "Feature", "properties": { "objectid": 14, "object_nam": "Софийска духовна семинария Св. Иван Рилски (СОУ 1-12 клас)", "object_nom": 0.0, "adres": "ж.к. Лозенец, пл. Велчова завера №2", "finansiran": "1", "type": "5", "url": "https://sofia-seminaria.org/" }, "geometry": { "type": "Point", "coordinates": [ 322623.093500003218651, 4728945.354899998754263 ] } },
{ "type": "Feature", "properties": { "objectid": 15, "object_nam": "20 ОУ Тодор Минков", "object_nom": 20.0, "adres": "ул. Княз Борис I №27", "finansiran": "2", "type": "2", "url": "https://20ou.bg/" }, "geometry": { "type": "Point", "coordinates": [ 321045.0253000035882, 4730438.14130000025034 ] } },
{ "type": "Feature", "properties": { "objectid": 16, "object_nam": "ПРОФЕСИОНАЛНА ГИМНАЗИЯ ПО АУДИО-, ВИДЕО- И ТЕЛЕКОМУНИКАЦИЯ \"А. С. ПОПОВ\"", "object_nom": 0.0, "adres": "бул. Сливница №10", "finansiran": "1", "type": "5", "url": "https://aspopov.bg/" }, "geometry": { "type": "Point", "coordinates": [ 319513.43299999833107, 4732629.255699999630451 ] } },
{ "type": "Feature", "properties": { "objectid": 17, "object_nam": "41 ОУ Патриарх Евтимий", "object_nom": 41.0, "adres": "ул. Цар Самуил №24", "finansiran": "2", "type": "2", "url": "http://www.41ou.com/" }, "geometry": { "type": "Point", "coordinates": [ 321110.350100003182888, 4730876.898499999195337 ] } },
{ "type": "Feature", "properties": { "objectid": 18, "object_nam": "120 ОУ Г. С. Раковски", "object_nom": 120.0, "adres": "ж.к. Лозенец, пл. Папа Йоан Павел II №7", "finansiran": "2", "type": "2", "url": "http://www.daskalo.com/ou120/" }, "geometry": { "type": "Point", "coordinates": [ 321734.656999997794628, 4729849.638900000602007 ] } },
{ "type": "Feature", "properties": { "objectid": 19, "object_nam": "119 СОУ Академик Михаил Арнаудов", "object_nom": 119.0, "adres": "ж.к. Изток, ул. Латинка №11", "finansiran": "2", "type": "3", "url": "https://119su.bg/" }, "geometry": { "type": "Point", "coordinates": [ 324176.721100002527237, 4728856.31870000064373 ] } },
{ "type": "Feature", "properties": { "objectid": 20, "object_nam": "138 СОУ Професор В. Златарски", "object_nom": 138.0, "adres": "ж.к. Гео Милев, ул. Алфред Нобел №3", "finansiran": "2", "type": "3", "url": "http://www.138sou.com/" }, "geometry": { "type": "Point", "coordinates": [ 324512.990000002086163, 4729221.0493 ] } },
{ "type": "Feature", "properties": { "objectid": 21, "object_nam": "105 СОУ \"Атанас Далчев\"", "object_nom": 105.0, "adres": "ул. Св. Пимен Зографски №7", "finansiran": "2", "type": "3", "url": "http://105sou.eu/" }, "geometry": { "type": "Point", "coordinates": [ 323850.493400000035763, 4727739.929099999368191 ] } },
{ "type": "Feature", "properties": { "objectid": 22, "object_nam": "Частно средно общообразователно училище   \"Орфей\"", "object_nom": 0.0, "adres": "ж.к. Гоце Делчев, ул. Георги Измирлиев №24", "finansiran": "3", "type": "3", "url": "https://www.orfei.net/" }, "geometry": { "type": "Point", "coordinates": [ 319116.222900003194809, 4728009.686999998986721 ] } },
{ "type": "Feature", "properties": { "objectid": 23, "object_nam": "ЧАСТНА ПРОФЕСИОНАЛНА   ГИМНАЗИЯ ПО БАНКОВО ДЕЛО, ТЪРГОВИЯ И ФИНАНСИ", "object_nom": 0.0, "adres": "бул. Витоша №91", "finansiran": "3", "type": "5", "url": "https://btf.ntbg.bg/" }, "geometry": { "type": "Point", "coordinates": [ 320849.058600001037121, 4729572.046399999409914 ] } },
{ "type": "Feature", "properties": { "objectid": 24, "object_nam": "Втора английска езикова гимназия \"Томас Джеферсън\"", "object_nom": 0.0, "adres": "ул. Траянова врата №26", "finansiran": "2", "type": "4", "url": "https://2els.com/" }, "geometry": { "type": "Point", "coordinates": [ 319756.760300002992153, 4728970.191300000995398 ] } },
{ "type": "Feature", "properties": { "objectid": 25, "object_nam": "Частно основно училище \"Банкерче\"", "object_nom": 0.0, "adres": "ул. Нишава №107", "finansiran": "3", "type": "2", "url": "https://www.bankerche.com/" }, "geometry": { "type": "Point", "coordinates": [ 319537.00110000371933, 4728878.901500001549721 ] } },
{ "type": "Feature", "properties": { "objectid": 26, "object_nam": "ЧАСТНА  ПРОФЕСИОНАЛНА ГИМНАЗИЯ \"БАНКЕР\"", "object_nom": 0.0, "adres": "ул. Нишава №107", "finansiran": "3", "type": "5", "url": "https://www.banker-school.com/" }, "geometry": { "type": "Point", "coordinates": [ 319549.263099998235703, 4728879.2335 ] } },
{ "type": "Feature", "properties": { "objectid": 27, "object_nam": "135 СОУ \"Ян Амос Коменски\"", "object_nom": 135.0, "adres": "ул. Булина ливада №47", "finansiran": "2", "type": "3", "url": "http://www.135sou.eu/" }, "geometry": { "type": "Point", "coordinates": [ 318320.115099996328354, 4732326.525600001215935 ] } },
{ "type": "Feature", "properties": { "objectid": 28, "object_nam": "109 ОУ Христо Смирненски", "object_nom": 109.0, "adres": "ж.к. Слатина, ул. Слатинска №24", "finansiran": "2", "type": "2", "url": "https://109ou.net/" }, "geometry": { "type": "Point", "coordinates": [ 325453.579999998211861, 4730476.752300001680851 ] } },
{ "type": "Feature", "properties": { "objectid": 29, "object_nam": "31 Средно училище за чужди езици и мениджмънт Иван Вазов", "object_nom": 31.0, "adres": "ж.к. Гео Милев, ул. Гео Милев №2", "finansiran": "2", "type": "4", "url": "https://ivanvazov.com/" }, "geometry": { "type": "Point", "coordinates": [ 324027.326200000941753, 4730098.833200000226498 ] } },
{ "type": "Feature", "properties": { "objectid": 30, "object_nam": "47 СОУ Христо Г. Данов", "object_nom": 47.0, "adres": "ж.к. Иван Вазов, ул. Димитър Манов №18", "finansiran": "2", "type": "3", "url": "https://www.47suhristodanov.com/" }, "geometry": { "type": "Point", "coordinates": [ 320466.484600000083447, 4729463.57490000128746 ] } },
{ "type": "Feature", "properties": { "objectid": 31, "object_nam": "107 ОУ Хан Крум", "object_nom": 107.0, "adres": "ж.к. Лозенец, ул. Димитър Димов №13", "finansiran": "2", "type": "2", "url": "http://www.107ou.com/" }, "geometry": { "type": "Point", "coordinates": [ 322143.765900000929832, 4729033.322700001299381 ] } },
{ "type": "Feature", "properties": { "objectid": 32, "object_nam": "ЧАСТНА ПРОФЕСИОНАЛНА ГИМНАЗИЯ ПО ИКОНОМИКА, ИНФОРМАТИКА И ТУРИЗЪМ  БУЛПРОГРЕС", "object_nom": 0.0, "adres": "ул. Суходолска №13", "finansiran": "3", "type": "5", "url": "https://bulprogress.com/" }, "geometry": { "type": "Point", "coordinates": [ 318405.69709999859333, 4731895.844500001519918 ] } },
{ "type": "Feature", "properties": { "objectid": 33, "object_nam": "Частно основно училище  \" Св. Климент Охридски \"", "object_nom": 0.0, "adres": "кв. Изток, ул. Лъчезар Станчев №13", "finansiran": "3", "type": "2", "url": "https://saintkliment.com/" }, "geometry": { "type": "Point", "coordinates": [ 324511.542700000107288, 4727895.573100000619888 ] } },
{ "type": "Feature", "properties": { "objectid": 34, "object_nam": "130 СОУ Стефан Караджа", "object_nom": 130.0, "adres": "кв. Васил Левски, ул. Константин Фотинов №118", "finansiran": "2", "type": "3", "url": "https://130cy.com/" }, "geometry": { "type": "Point", "coordinates": [ 326206.727099999785423, 4732010.153499998152256 ] } },
{ "type": "Feature", "properties": { "objectid": 35, "object_nam": "148 СОУ \"ПРОФ. ЛЮБОМИР МИЛЕТИЧ\"", "object_nom": 148.0, "adres": "ул. Слатинска №35", "finansiran": "2", "type": "3", "url": "http://148-ou.com/" }, "geometry": { "type": "Point", "coordinates": [ 325665.244400002062321, 4730019.922600001096725 ] } },
{ "type": "Feature", "properties": { "objectid": 36, "object_nam": "57 Специализирано спортно училище   \"Свети  Наум Охридски\"", "object_nom": 57.0, "adres": "ул. Доктор Калинков №40", "finansiran": "2", "type": "4", "url": "https://57su.com/" }, "geometry": { "type": "Point", "coordinates": [ 319158.500399999320507, 4731658.3816 ] } },
{ "type": "Feature", "properties": { "objectid": 37, "object_nam": "ПРОФЕСИОНАЛНА ГИМНАЗИЯ ПО ТРАНСПОРТ МАКГАХАН", "object_nom": 0.0, "adres": "кв. Редута, ул. Кадемлия №15", "finansiran": "1", "type": "5", "url": "https://www.pgtmakgahan.eu/" }, "geometry": { "type": "Point", "coordinates": [ 324624.510899998247623, 4730715.269799999892712 ] } },
{ "type": "Feature", "properties": { "objectid": 38, "object_nam": "23 СОУ Фредерик Жолио Кюри", "object_nom": 23.0, "adres": "бул. Ситняково №21", "finansiran": "2", "type": "3", "url": "http://23su.info/" }, "geometry": { "type": "Point", "coordinates": [ 324313.135200001299381, 4731106.934500001370907 ] } },
{ "type": "Feature", "properties": { "objectid": 39, "object_nam": "28 СОУ Алеко Константинов", "object_nom": 28.0, "adres": "бул. Възкресение №60", "finansiran": "2", "type": "3", "url": "http://28sou.eu/" }, "geometry": { "type": "Point", "coordinates": [ 318547.348099999129772, 4731364.545299999415874 ] } },
{ "type": "Feature", "properties": { "objectid": 40, "object_nam": "92 СОУ Димитър Талев", "object_nom": 92.0, "adres": "ж.к. Красна поляна, ул. Добротич №21", "finansiran": "2", "type": "3", "url": "https://www.92dimitartalev.com/" }, "geometry": { "type": "Point", "coordinates": [ 318122.300399996340275, 4731057.404399998486042 ] } },
{ "type": "Feature", "properties": { "objectid": 41, "object_nam": "СПГЕ, ПРОФЕСИОНАЛНА ГИМНАЗИЯ ПО ЕЛЕКТРОНИКА \"ДЖОН АТАНАСОВ\";", "object_nom": 0.0, "adres": "ж.к. Изток, ул. Райко Алексиев №46", "finansiran": "1", "type": "5", "url": "https://spge-bg.com/" }, "geometry": { "type": "Point", "coordinates": [ 324724.322599999606609, 4728351.000399999320507 ] } },
{ "type": "Feature", "properties": { "objectid": 42, "object_nam": "ПРОФЕСИОНАЛНА ГИМНАЗИЯ ПО ОБЛЕКЛО \"КНЯГИНЯ МАРИЯ ЛУИЗА \"", "object_nom": 0.0, "adres": "бул. Черни връх №37", "finansiran": "1", "type": "5", "url": "https://pgo-sofia.com/" }, "geometry": { "type": "Point", "coordinates": [ 321369.092000000178814, 4728382.039299998432398 ] } },
{ "type": "Feature", "properties": { "objectid": 43, "object_nam": "139 ОУ Захарий Круша", "object_nom": 139.0, "adres": "ж.к. Лозенец, ул. Димитър Хаджикоцев №44", "finansiran": "2", "type": "2", "url": "http://139ou.com/" }, "geometry": { "type": "Point", "coordinates": [ 321044.797600001096725, 4729026.508299998939037 ] } },
{ "type": "Feature", "properties": { "objectid": 44, "object_nam": "Частно начално училище \"Прогресивно образование\"", "object_nom": 0.0, "adres": "ул. Нишава №107", "finansiran": "3", "type": "1", "url": "https://school1.transform.bg/" }, "geometry": { "type": "Point", "coordinates": [ 319550.359399996697903, 4728888.660799998790026 ] } },
{ "type": "Feature", "properties": { "objectid": 45, "object_nam": "143 ОУ Г.Бенковски", "object_nom": 143.0, "adres": "ж.к. Сухата река, ул. Тодорини кукли №9", "finansiran": "2", "type": "2", "url": "https://www.143ou.com/" }, "geometry": { "type": "Point", "coordinates": [ 324350.836300000548363, 4731925.656199999153614 ] } },
{ "type": "Feature", "properties": { "objectid": 46, "object_nam": "35 Средно езиково училище Добри Войников", "object_nom": 35.0, "adres": "ж.к. Лозенец, ул. Добри Войников №16", "finansiran": "2", "type": "4", "url": "https://35sou.bg/" }, "geometry": { "type": "Point", "coordinates": [ 322105.726199999451637, 4729712.591099999845028 ] } },
{ "type": "Feature", "properties": { "objectid": 47, "object_nam": "СОФИЙСКА ГИМНАЗИЯ ПО СТРОИТЕЛСТВО, АРХИТЕКТУРА И ГЕОДЕЗИЯ \"ХРИСТО БОТЕВ\"", "object_nom": 0.0, "adres": "бул. Евлоги Георгиев №34", "finansiran": "1", "type": "5", "url": "http://www.sgcag.info/" }, "geometry": { "type": "Point", "coordinates": [ 322280.753300003707409, 4730060.394999999552965 ] } },
{ "type": "Feature", "properties": { "objectid": 48, "object_nam": "ПРОФЕСИОНАЛНА ГИМНАЗИЯ ПО ФРИЗЬОРСТВО И КОЗМЕТИКА \"КНЯГИНЯ ЕВДОКИЯ\"", "object_nom": 0.0, "adres": "ж.к. Изток, ул. Атанас Далчев №8", "finansiran": "1", "type": "5", "url": "https://spgke.com/" }, "geometry": { "type": "Point", "coordinates": [ 324233.14130000025034, 4728575.263900000602007 ] } },
{ "type": "Feature", "properties": { "objectid": 49, "object_nam": "126 ОУ П. Ю. Тодоров", "object_nom": 126.0, "adres": "ж.к. Стрелбище, бул. България №43", "finansiran": "2", "type": "2", "url": "http://126ou.net/" }, "geometry": { "type": "Point", "coordinates": [ 319378.068300001323223, 4728813.99379999935627 ] } },
{ "type": "Feature", "properties": { "objectid": 50, "object_nam": "113 СОУ Сава Филаретов", "object_nom": 113.0, "adres": "бул. Тодор Александров №177", "finansiran": "2", "type": "3", "url": "http://www.113su.net/" }, "geometry": { "type": "Point", "coordinates": [ 319072.95889999717474, 4732166.040300000458956 ] } },
{ "type": "Feature", "properties": { "objectid": 51, "object_nam": "33 ЕЗИКОВА ГИМНАЗИЯ \"СВЕТА СОФИЯ\"", "object_nom": 33.0, "adres": "ж.к. Света Троица, ул. Пловдив№20", "finansiran": "2", "type": "4", "url": "https://33eg.eu/" }, "geometry": { "type": "Point", "coordinates": [ 319434.212300002574921, 4733045.3733000010252 ] } },
{ "type": "Feature", "properties": { "objectid": 52, "object_nam": "45 ОУ Константин Величков", "object_nom": 45.0, "adres": "ж.к. Света Троица, ул. Пловдив №20", "finansiran": "2", "type": "2", "url": "https://www.kv45ou.com/" }, "geometry": { "type": "Point", "coordinates": [ 319484.694899998605251, 4732976.930500000715256 ] } },
{ "type": "Feature", "properties": { "objectid": 53, "object_nam": "43 ОУ Христо Смирненски", "object_nom": 43.0, "adres": "бул. Сливница №45", "finansiran": "2", "type": "2", "url": "https://43ou.com/" }, "geometry": { "type": "Point", "coordinates": [ 319868.004199996590614, 4732529.276799999177456 ] } },
{ "type": "Feature", "properties": { "objectid": 54, "object_nam": "НФСГ, Финансово-стопанска гимназия", "object_nom": 0.0, "adres": "ж.к. Лозенец, ул. Розова долина №1", "finansiran": "1", "type": "5", "url": "https://www.nfsg-sofia.net/" }, "geometry": { "type": "Point", "coordinates": [ 321848.554899998009205, 4729810.833999998867512 ] } },
{ "type": "Feature", "properties": { "objectid": 55, "object_nam": "ЧАСТНО  СРЕДНО ОБЩООБРАЗОВАТЕЛНО   УЧИЛИЩЕ  \"ГАЛИНА СЕРГЕЕВНА УЛАНОВА\"", "object_nom": 0.0, "adres": "бул. Свети Наум №36", "finansiran": "3", "type": "3", "url": "https://www.ruliceum.org/bg/school" }, "geometry": { "type": "Point", "coordinates": [ 321953.577399998903275, 4729216.448399998247623 ] } },
{ "type": "Feature", "properties": { "objectid": 56, "object_nam": "Частно основно училище   \"Професор Николай Райнов\"", "object_nom": 0.0, "adres": "ул. Горски пътник №44", "finansiran": "3", "type": "2", "url": "https://www.waldorf.bg/" }, "geometry": { "type": "Point", "coordinates": [ 321017.23929999768734, 4728659.330800000578165 ] } },
{ "type": "Feature", "properties": { "objectid": 57, "object_nam": "Частно средно  училище \"Свети Георги\"", "object_nom": 0.0, "adres": "ж.к. Лозенец, бул. Никола Вапцаров №47", "finansiran": "3", "type": "3", "url": "https://stgeorgeschool.eu/?lang=bg" }, "geometry": { "type": "Point", "coordinates": [ 321594.872900001704693, 4727925.934999998658895 ] } },
{ "type": "Feature", "properties": { "objectid": 58, "object_nam": "Частна профилирана гимназия  \"Образователни технологии\"", "object_nom": 0.0, "adres": "ж.к. Слатина, ул. Гео Милев №158, в сградата на ВВТУ Тодор Каблешков", "finansiran": "3", "type": "4", "url": "https://eduteh.eu/chastna-profilirana-gimnazia" }, "geometry": { "type": "Point", "coordinates": [ 326393.811700001358986, 4729433.466899998486042 ] } },
{ "type": "Feature", "properties": { "objectid": 59, "object_nam": "147 ОУ  \"Йордан  Радичков\"", "object_nom": 147.0, "adres": "ул. Доктор Калинков №40", "finansiran": "2", "type": "2", "url": "https://www.147ou.com/" }, "geometry": { "type": "Point", "coordinates": [ 319208.475400000810623, 4731645.54450000077486 ] } },
{ "type": "Feature", "properties": { "objectid": 60, "object_nam": "157 ГИЧЕ “Сесар Вайехо“", "object_nom": 157.0, "adres": "ул. Слатинска №35", "finansiran": "2", "type": "4", "url": "https://157giche.com/" }, "geometry": { "type": "Point", "coordinates": [ 325654.723600000143051, 4729973.275100000202656 ] } },
{ "type": "Feature", "properties": { "objectid": 61, "object_nam": "ЧУТИ \"Г.С.Уланова\" (по изкуствата)", "object_nom": 0.0, "adres": "бул. Свети Наум №36", "finansiran": "3", "type": "4", "url": "https://www.ruliceum.org/bg/dance" }, "geometry": { "type": "Point", "coordinates": [ 321982.86710000038147, 4729212.413600001484156 ] } },
{ "type": "Feature", "properties": { "objectid": 62, "object_nam": "6-тоосновно помощно училище (ЦСОП Лозенец)", "object_nom": 0.0, "adres": "ул. Русалийски проход №12", "finansiran": "1", "type": "6", "url": "https://csop-lozenec.eu/" }, "geometry": { "type": "Point", "coordinates": [ 320969.040200002491474, 4727579.824499998241663 ] } },
{ "type": "Feature", "properties": { "objectid": 63, "object_nam": "Частно средно училище по изкуства и чужди езици \"Артис\"", "object_nom": 0.0, "adres": "бул. \"Андрей Ляпчев, до метростанция \"Александър Малинов 72", "finansiran": "3", "type": "3", "url": "https://artisbg.com/" }, "geometry": { "type": "Point", "coordinates": [ 325745.028053241141606, 4725828.114475041627884 ] } },
{ "type": "Feature", "properties": { "objectid": 64, "object_nam": "73 СОУ Владислав Граматик", "object_nom": 73.0, "adres": "ж.к. Гоце Делчев, ул. Георги Измирлиев №2", "finansiran": "2", "type": "3", "url": "http://sou73.bg/" }, "geometry": { "type": "Point", "coordinates": [ 319616.418600000441074, 4727681.673799999058247 ] } },
{ "type": "Feature", "properties": { "objectid": 65, "object_nam": "121 СОУ Георги Измирлиев", "object_nom": 121.0, "adres": "ж.к. Гоце Делчев, ул. Георги Измирлиев №24", "finansiran": "2", "type": "3", "url": "https://www.121su.org/" }, "geometry": { "type": "Point", "coordinates": [ 319164.403599999845028, 4728005.500900000333786 ] } },
{ "type": "Feature", "properties": { "objectid": 66, "object_nam": "42 ОУ Хаджи Димитър", "object_nom": 42.0, "adres": "ж.к. Хаджи Димитър, ул. Генерал Липранди №5", "finansiran": "2", "type": "2", "url": "https://42ou.com/" }, "geometry": { "type": "Point", "coordinates": [ 323521.305500000715256, 4732343.986999999731779 ] } },
{ "type": "Feature", "properties": { "objectid": 67, "object_nam": "Частно ОУ  \"Образователни технологии\"", "object_nom": 0.0, "adres": "ж.к. Слатина, ул. Гео Милев №158, в сградата на ВВТУ Тодор Каблешков", "finansiran": "3", "type": "2", "url": "https://eduteh.eu/chastno-osnovno-uchilishte" }, "geometry": { "type": "Point", "coordinates": [ 326381.616800002753735, 4729372.5603 ] } },
{ "type": "Feature", "properties": { "objectid": 68, "object_nam": "Частно ОУ  \"Джани РоДари\"", "object_nom": 0.0, "adres": "ж.к. Слатина, ул. Гео Милев №158, в сградата на ВВТУ Тодор Каблешков", "finansiran": "3", "type": "2", "url": "https://djanirodari.org/" }, "geometry": { "type": "Point", "coordinates": [ 326342.08330000191927, 4729202.594200000166893 ] } },
{ "type": "Feature", "properties": { "objectid": 69, "object_nam": "93 СОУ Академик Ал. Теодоров - Балан", "object_nom": 93.0, "adres": "ж.к. Гео Милев, ул. Гео Милев №32", "finansiran": "2", "type": "3", "url": "https://www.93su.bg/" }, "geometry": { "type": "Point", "coordinates": [ 324804.026600003242493, 4729691.124099999666214 ] } },
{ "type": "Feature", "properties": { "objectid": 70, "object_nam": "104 ОУ Захари Стоянов", "object_nom": 104.0, "adres": "ж.к. Гоце Делчев, ул. Костенски водопад №60", "finansiran": "2", "type": "2", "url": "https://www.104ou.com/" }, "geometry": { "type": "Point", "coordinates": [ 319466.070299997925758, 4727955.376899998635054 ] } },
{ "type": "Feature", "properties": { "objectid": 71, "object_nam": "3 СОУ Марин Дринов", "object_nom": 3.0, "adres": "ж.к. Света Троица, ул. Хайдут Сидер №12", "finansiran": "2", "type": "3", "url": "http://3coy.eu/wordpress/" }, "geometry": { "type": "Point", "coordinates": [ 318758.370399996638298, 4732877.293000001460314 ] } },
{ "type": "Feature", "properties": { "objectid": 72, "object_nam": "11 ОУ Свети Пимен Зографски", "object_nom": 11.0, "adres": "ж.к. Дианабад, ул. Никола Габровски №22", "finansiran": "2", "type": "2", "url": "https://11oy.bg/" }, "geometry": { "type": "Point", "coordinates": [ 323203.17790000140667, 4727517.851300001144409 ] } },
{ "type": "Feature", "properties": { "objectid": 73, "object_nam": "95 СОУ Професор Иван Шишманов", "object_nom": 95.0, "adres": "ж.к. Стефан Караджа, ул. Ангел войвода №66", "finansiran": "2", "type": "3", "url": "https://sites.google.com/site/95sousofia/" }, "geometry": { "type": "Point", "coordinates": [ 324581.505199998617172, 4732394.584699999541044 ] } },
{ "type": "Feature", "properties": { "objectid": 74, "object_nam": "75 ОУ Тодор Каблешков", "object_nom": 75.0, "adres": "бул. Възкресение №151", "finansiran": "2", "type": "2", "url": "https://www.ou75sofia.com/" }, "geometry": { "type": "Point", "coordinates": [ 317023.660599999129772, 4731040.580400001257658 ] } },
{ "type": "Feature", "properties": { "objectid": 75, "object_nam": "24 СОУ Пейо К.Яворов", "object_nom": 24.0, "adres": "ж.к. Хаджи Димитър, ул. Клисура №16", "finansiran": "2", "type": "3", "url": "http://sou24.bg.cm/" }, "geometry": { "type": "Point", "coordinates": [ 324146.864399999380112, 4732311.0760000012815 ] } },
{ "type": "Feature", "properties": { "objectid": 76, "object_nam": "ПРОФЕСИОНАЛНА ГИМНАЗИЯ ПО ТЕКСТИЛ И МОДЕН ДИЗАЙН", "object_nom": 0.0, "adres": "ж.к. Иван Взов, ул. Балша №2", "finansiran": "1", "type": "5", "url": "https://pgdsofia.com/" }, "geometry": { "type": "Point", "coordinates": [ 320500.331299997866154, 4729606.872600000351667 ] } },
{ "type": "Feature", "properties": { "objectid": 77, "object_nam": "НАЦИОНАЛНА ТЪРГОВСКО-БАНКОВА ГИМНАЗИЯ", "object_nom": 0.0, "adres": "бул. Витоша №91", "finansiran": "1", "type": "5", "url": "https://www.ntbg.bg/" }, "geometry": { "type": "Point", "coordinates": [ 320898.687299996614456, 4729584.467300001531839 ] } },
{ "type": "Feature", "properties": { "objectid": 78, "object_nam": "Национална професионална гимназия по полиграфия и фотография", "object_nom": 0.0, "adres": "ж.к. Стрелбище, ул. Златишки проход №5", "finansiran": "1", "type": "5", "url": "https://npgpf.com/" }, "geometry": { "type": "Point", "coordinates": [ 319897.813900001347065, 4728708.627900000661612 ] } },
{ "type": "Feature", "properties": { "objectid": 79, "object_nam": "122 ОУ Николай Лилиев", "object_nom": 122.0, "adres": "ж.к. Лозенец, ул. Презвитер Козма №2", "finansiran": "2", "type": "2", "url": "https://122ou.com/" }, "geometry": { "type": "Point", "coordinates": [ 321568.039800003170967, 4728903.208599999547005 ] } },
{ "type": "Feature", "properties": { "objectid": 80, "object_nam": "Професионална гимназия по  хранително-вкусови технологии \"Проф. д-р Георги Павлов\"", "object_nom": 0.0, "adres": "ж.к. Света Троица, ул. Хайдут Сидер №10", "finansiran": "1", "type": "5", "url": "https://www.facebook.com/profile.php?id=100063838890180&locale=bg_BG" }, "geometry": { "type": "Point", "coordinates": [ 318809.80629999935627, 4732931.087200000882149 ] } },
{ "type": "Feature", "properties": { "objectid": 81, "object_nam": "ПРОФЕСИОНАЛНА ГИМНАЗИЯ ПО ТРАНСПОРТ И ЕНЕРГЕТИКА \"ХЕНРИ ФОРД\"", "object_nom": 0.0, "adres": "ж.к. Света Троица, ул. Хайдут Сидер №8", "finansiran": "1", "type": "5", "url": "https://www.pgtehford.com/" }, "geometry": { "type": "Point", "coordinates": [ 318866.744300000369549, 4733021.802299998700619 ] } },
{ "type": "Feature", "properties": { "objectid": 82, "object_nam": "СГХСТ, Софийска гимназия по хлебни и сладкарски технологии", "object_nom": 0.0, "adres": "ж.к. Западен парк, ул. Суходолска №12, бл. 5", "finansiran": "1", "type": "5", "url": "https://www.sghst.com/" }, "geometry": { "type": "Point", "coordinates": [ 318043.243100002408028, 4731805.741099998354912 ] } },
{ "type": "Feature", "properties": { "objectid": 83, "object_nam": "81 СОУ Виктор Юго", "object_nom": 81.0, "adres": "ж.к. Младост III, ул .Бъднина №3", "finansiran": "2", "type": "3", "url": "https://www.81sou.org/" }, "geometry": { "type": "Point", "coordinates": [ 325957.999200001358986, 4725091.988899998366833 ] } },
{ "type": "Feature", "properties": { "objectid": 84, "object_nam": "106 ОУ Григорий Цамблак", "object_nom": 106.0, "adres": "кв. Васил Левски, ул. Григорий Цамблак №18", "finansiran": "2", "type": "2", "url": "http://106ou.info/" }, "geometry": { "type": "Point", "coordinates": [ 326472.937899999320507, 4731541.724800001829863 ] } },
{ "type": "Feature", "properties": { "objectid": 85, "object_nam": "ЧАСТНО ОСНОВНО УЧИЛИЩЕ \"Д-Р ПЕТЪР БЕРОН\"", "object_nom": 0.0, "adres": "бул. Черни връх №67, вход от ул. Флора Кънева №14", "finansiran": "3", "type": "2", "url": "https://pberon.com/" }, "geometry": { "type": "Point", "coordinates": [ 321171.381899997591972, 4726247.148299999535084 ] } },
{ "type": "Feature", "properties": { "objectid": 86, "object_nam": "НПГПТО „М. В. Ломоносов“ (Корпус практика)", "object_nom": 0.0, "adres": "ул. Иван Грозев №6", "finansiran": " ", "type": "5", "url": "https://lomonosov-bg.com/" }, "geometry": { "type": "Point", "coordinates": [ 318553.169699996709824, 4732889.285500001162291 ] } },
{ "type": "Feature", "properties": { "objectid": 87, "object_nam": "7 СОУ Св. Седмочисленици", "object_nom": 7.0, "adres": "ул. Цар Иван Шишман №28", "finansiran": "2", "type": "3", "url": "https://7-mo.com/" }, "geometry": { "type": "Point", "coordinates": [ 322075.63740000128746, 4730638.555300001055002 ] } },
{ "type": "Feature", "properties": { "objectid": 88, "object_nam": "60 ОУ „Св. Св. Кирил и Методий“", "object_nom": 60.0, "adres": "ул. Наука №2", "finansiran": "2", "type": "2", "url": "https://www.60ousvsvkirilimetodii.com/" }, "geometry": { "type": "Point", "coordinates": [ 323530.594200000166893, 4736332.574799999594688 ] } },
{ "type": "Feature", "properties": { "objectid": 89, "object_nam": "112 ОУ „Стоян Заимов“", "object_nom": 112.0, "adres": "бул. Княз Александър Дондуков №60", "finansiran": "2", "type": "2", "url": "https://112ou.org/" }, "geometry": { "type": "Point", "coordinates": [ 322766.376999996602535, 4731502.357799999415874 ] } },
{ "type": "Feature", "properties": { "objectid": 90, "object_nam": "67 ОУ „Васил Друмев“", "object_nom": 67.0, "adres": "ж.к. Сердика, ул. Гюешево №63", "finansiran": "2", "type": "2", "url": "https://67ouvasildrumev.com/" }, "geometry": { "type": "Point", "coordinates": [ 319531.401600003242493, 4730981.557199999690056 ] } },
{ "type": "Feature", "properties": { "objectid": 91, "object_nam": "Софийска математическа гимназия Паисий Хилендарски", "object_nom": 0.0, "adres": "ул. Искър №61", "finansiran": "2", "type": "4", "url": "https://smg.bg/" }, "geometry": { "type": "Point", "coordinates": [ 322462.127700001001358, 4731863.335400000214577 ] } },
{ "type": "Feature", "properties": { "objectid": 92, "object_nam": "30 СУ „Братя Миладинови“", "object_nom": 30.0, "adres": "бул. Александър Стамболийски №125А, 1303 ж.к. Зона Б-5", "finansiran": "2", "type": "3", "url": "http://30su-bg.com/" }, "geometry": { "type": "Point", "coordinates": [ 320342.480700001120567, 4731563.171 ] } },
{ "type": "Feature", "properties": { "objectid": 93, "object_nam": "НГ по приложни изкуства „Св. Лука“", "object_nom": 0.0, "adres": "бул. Сливница №134", "finansiran": "1", "type": "4", "url": "https://ngpisvetiluka.com/" }, "geometry": { "type": "Point", "coordinates": [ 320834.880999997258186, 4732302.0165 ] } },
{ "type": "Feature", "properties": { "objectid": 94, "object_nam": "Национална професионална гимназия по прецизна техниха и оптика „М. В. Ломоносов“", "object_nom": 0.0, "adres": "ул. Св. Св. Кирил и Методий №148", "finansiran": "1", "type": "5", "url": "https://lomonosov-bg.com/" }, "geometry": { "type": "Point", "coordinates": [ 320917.191500000655651, 4732283.868599999696016 ] } },
{ "type": "Feature", "properties": { "objectid": 95, "object_nam": "76 ОУ „Уилям Сароян”", "object_nom": 76.0, "adres": "ул. Братя Миладинови №9", "finansiran": "2", "type": "2", "url": "http://76ou.eu/" }, "geometry": { "type": "Point", "coordinates": [ 321107.542300000786781, 4731511.282900001853704 ] } },
{ "type": "Feature", "properties": { "objectid": 96, "object_nam": "14 СУ „Проф. д-р Асен Златаров“", "object_nom": 14.0, "adres": "ул. Ген. Иван Чернаев №8", "finansiran": "2", "type": "3", "url": "https://www.14su.bg/" }, "geometry": { "type": "Point", "coordinates": [ 320715.770400002598763, 4732800.61710000038147 ] } },
{ "type": "Feature", "properties": { "objectid": 97, "object_nam": "ПГ по механоелектотехника „Никола Й. Вапцаров“", "object_nom": 0.0, "adres": "ул. Стара планина №13", "finansiran": "1", "type": "5", "url": "https://pgme-sofia.eu/" }, "geometry": { "type": "Point", "coordinates": [ 322440.34936041594483, 4731641.916024573147297 ] } },
{ "type": "Feature", "properties": { "objectid": 98, "object_nam": "133 СОУ Александър С. Пушкин", "object_nom": 133.0, "adres": "ул. Цар Шишман №1", "finansiran": "2", "type": "3", "url": "http://133sou.com/" }, "geometry": { "type": "Point", "coordinates": [ 322382.189000003039837, 4730870.755199998617172 ] } },
{ "type": "Feature", "properties": { "objectid": 99, "object_nam": "58 ОУ „Сергей Румянцев“", "object_nom": 58.0, "adres": "ул. Железопътна №65", "finansiran": "2", "type": "2", "url": "http://58ou.net/" }, "geometry": { "type": "Point", "coordinates": [ 323054.276100002229214, 4734462.101799998432398 ] } },
{ "type": "Feature", "properties": { "objectid": 100, "object_nam": "Профилирана гимназия с интензивно изучаване на румънски език „Михай Еминеску“", "object_nom": 0.0, "adres": "ул. Георги С. Раковски №20", "finansiran": "1", "type": "4", "url": "http://pgiire.com/" }, "geometry": { "type": "Point", "coordinates": [ 322038.558100000023842, 4732287.543800000101328 ] } },
{ "type": "Feature", "properties": { "objectid": 101, "object_nam": "127 СУ \"Иван Николаевич Денкоглу\"", "object_nom": 127.0, "adres": "ул. Парчевич №43", "finansiran": "2", "type": "3", "url": "https://127sou.com/" }, "geometry": { "type": "Point", "coordinates": [ 321466.652099996805191, 4730711.648800000548363 ] } },
{ "type": "Feature", "properties": { "objectid": 102, "object_nam": "ПГ по текстилни и кожени изделия", "object_nom": 0.0, "adres": "ж.к. Сердика, ул. Архитект Петко Момчилов №2", "finansiran": "1", "type": "5", "url": "https://www.pgtki.org/" }, "geometry": { "type": "Point", "coordinates": [ 319033.112400002777576, 4730669.714899998158216 ] } },
{ "type": "Feature", "properties": { "objectid": 103, "object_nam": "ЧАСТНА ПРОФИЛИРАНА ГИМНАЗИЯ ПО ИНФОРМАЦИОННИ ТЕХНОЛОГИИ И ЕЗИЦИ “ЕВКЛИД”", "object_nom": 0.0, "adres": "ул. Балканджи Йово №22", "finansiran": "3", "type": "4", "url": "https://www.evklid.bg/%D0%B3%D0%B8%D0%BC%D0%BD%D0%B0%D0%B7%D0%B8%D1%8F-%D0%B5%D0%B2%D0%BA%D0%BB%D0%B8%D0%B4/" }, "geometry": { "type": "Point", "coordinates": [ 318672.641000002622604, 4729691.306099999696016 ] } },
{ "type": "Feature", "properties": { "objectid": 104, "object_nam": "59 ОУ Васил Левски", "object_nom": 59.0, "adres": "кв. Орландовци, ул. Кестен №1", "finansiran": "2", "type": "2", "url": "http://59sou.org/" }, "geometry": { "type": "Point", "coordinates": [ 323635.230700001120567, 4733418.701400000602007 ] } },
{ "type": "Feature", "properties": { "objectid": 105, "object_nam": "18 СУ „Уилям Гладстон“", "object_nom": 18.0, "adres": "ул. Пиротска №68", "finansiran": "2", "type": "3", "url": "https://18sou.net/" }, "geometry": { "type": "Point", "coordinates": [ 320750.857900001108646, 4731850.581500001251698 ] } },
{ "type": "Feature", "properties": { "objectid": 106, "object_nam": "4 сменно-вечерна гимназия „Отец Паисий", "object_nom": 0.0, "adres": "ул. Дунав №30", "finansiran": "2", "type": "3", "url": "https://ve4erna.com/" }, "geometry": { "type": "Point", "coordinates": [ 322400.753100000321865, 4731781.063400000333786 ] } },
{ "type": "Feature", "properties": { "objectid": 107, "object_nam": "12 СОУ Цар Иван Асен II", "object_nom": 12.0, "adres": "ж.к. Яворов, ул. Цар Иван Асен II №72", "finansiran": "2", "type": "3", "url": "https://12sou-sofia.info/" }, "geometry": { "type": "Point", "coordinates": [ 323539.700499996542931, 4730248.9419 ] } },
{ "type": "Feature", "properties": { "objectid": 108, "object_nam": "29 СУ „Кузман Шапкарев“", "object_nom": 29.0, "adres": "ул. Георги С. Раковски №20", "finansiran": "2", "type": "3", "url": "http://sou29.com/" }, "geometry": { "type": "Point", "coordinates": [ 322088.560099996626377, 4732298.43299999833107 ] } },
{ "type": "Feature", "properties": { "objectid": 109, "object_nam": "38 ОУ Васил Априлов", "object_nom": 38.0, "adres": "ул. Шипка №40", "finansiran": "2", "type": "2", "url": "https://vasilaprilov.com/" }, "geometry": { "type": "Point", "coordinates": [ 323211.111800000071526, 4730831.374200001358986 ] } },
{ "type": "Feature", "properties": { "objectid": 110, "object_nam": "Софийска професионална гимназия по туризъм", "object_nom": 0.0, "adres": "бул. Сливница №182", "finansiran": "1", "type": "5", "url": "https://spgt.org/" }, "geometry": { "type": "Point", "coordinates": [ 321933.863200001418591, 4732156.704300001263618 ] } },
{ "type": "Feature", "properties": { "objectid": 111, "object_nam": "Първа частна английска гимназия \"Уилям Шекспир-Интелект Инвест\"", "object_nom": 0.0, "adres": "ул. Стара планина №13, ет. 3", "finansiran": "3", "type": "4", "url": "https://www.fpels.ws/" }, "geometry": { "type": "Point", "coordinates": [ 322418.240389061102178, 4731632.021100330166519 ] } },
{ "type": "Feature", "properties": { "objectid": 112, "object_nam": "Частна профилирана гимназия \"Веда\"", "object_nom": 0.0, "adres": "ул. Иван Мърквичка №1", "finansiran": "3", "type": "4", "url": "https://wedaschule.com/gimnazia/" }, "geometry": { "type": "Point", "coordinates": [ 320251.985500000417233, 4734140.256799999624491 ] } },
{ "type": "Feature", "properties": { "objectid": 113, "object_nam": "Национално училище за изящни изкуства \"Илия Петров\"", "object_nom": 0.0, "adres": "бул. Васил Левски №62", "finansiran": "1", "type": "4", "url": "https://hg-iliapetrov.com/" }, "geometry": { "type": "Point", "coordinates": [ 322071.537399999797344, 4730291.124600000679493 ] } },
{ "type": "Feature", "properties": { "objectid": 114, "object_nam": "9 Френска езикова гимназия Алфонс дьо Ламартин", "object_nom": 9.0, "adres": "бул. Патриарх Евтимий №35", "finansiran": "2", "type": "4", "url": "https://www.feg.bg/" }, "geometry": { "type": "Point", "coordinates": [ 321643.11879999935627, 4730378.847500000149012 ] } },
{ "type": "Feature", "properties": { "objectid": 115, "object_nam": "6 ОУ Граф Игнатиев", "object_nom": 6.0, "adres": "ул. 6-ти септември №16", "finansiran": "2", "type": "2", "url": "https://www.6ou.org/" }, "geometry": { "type": "Point", "coordinates": [ 321919.463799998164177, 4730683.409600000828505 ] } },
{ "type": "Feature", "properties": { "objectid": 116, "object_nam": "ЧПГ \"ЕЗИКОВ СВЯТ\"", "object_nom": 0.0, "adres": "бул. Александър Стамболийски №82", "finansiran": "3", "type": "4", "url": "https://www.ezikovsviat.com/" }, "geometry": { "type": "Point", "coordinates": [ 320526.75959999859333, 4731594.039900001138449 ] } },
{ "type": "Feature", "properties": { "objectid": 117, "object_nam": "25 ОУ „д-р Петър Берон“", "object_nom": 25.0, "adres": "ж.к. Лагера, ул. Балканджи Йово №22", "finansiran": "2", "type": "2", "url": "https://25ou.bg/" }, "geometry": { "type": "Point", "coordinates": [ 318612.743100002408028, 4729684.289099998772144 ] } },
{ "type": "Feature", "properties": { "objectid": 118, "object_nam": "34 ОУ „Стою Шишков“", "object_nom": 34.0, "adres": "ж.к. Борово, ул. Родопски извор №43", "finansiran": "2", "type": "2", "url": "https://34ou.org/" }, "geometry": { "type": "Point", "coordinates": [ 318588.920000001788139, 4728487.145199999213219 ] } },
{ "type": "Feature", "properties": { "objectid": 119, "object_nam": "Първа Частна Математическа Гимназия", "object_nom": 0.0, "adres": "бул. Генерал Михаил Д. Скобелев №58", "finansiran": "3", "type": "4", "url": "https://parvamatematicheska.com/" }, "geometry": { "type": "Point", "coordinates": [ 320564.341899998486042, 4731005.8882 ] } },
{ "type": "Feature", "properties": { "objectid": 120, "object_nam": "Частно начално училище \"Питагор\"", "object_nom": 0.0, "adres": "бул. Генерал Михаил Д. Скобелев №58", "finansiran": "3", "type": "1", "url": "https://pitagor-school.eu/" }, "geometry": { "type": "Point", "coordinates": [ 320577.711499996483326, 4731008.289900001138449 ] } },
{ "type": "Feature", "properties": { "objectid": 121, "object_nam": "Частно основно училище с ранно чуждоезиково обучение \"Езиков свят\"", "object_nom": 0.0, "adres": "бул. Александър Стамболийски №82", "finansiran": "3", "type": "2", "url": "https://www.ezikovsviat.com/%d1%87%d0%be%d1%83-%d0%b5%d0%b7%d0%b8%d0%ba%d0%be%d0%b2-%d1%81%d0%b2%d1%8f%d1%82" }, "geometry": { "type": "Point", "coordinates": [ 320508.582400001585484, 4731599.663899999111891 ] } },
{ "type": "Feature", "properties": { "objectid": 122, "object_nam": "32 СУ „Св. Климент Охридски“", "object_nom": 32.0, "adres": "бул. Христо Ботев №63", "finansiran": "2", "type": "3", "url": "https://www.school32.com/" }, "geometry": { "type": "Point", "coordinates": [ 320989.564499996602535, 4731643.25 ] } },
{ "type": "Feature", "properties": { "objectid": 123, "object_nam": "134 СУ „Димчо Дебелянов“", "object_nom": 134.0, "adres": "ул. Пиротска №78", "finansiran": "1", "type": "2", "url": "https://www.hebrewschool-bg.org/" }, "geometry": { "type": "Point", "coordinates": [ 320444.074799999594688, 4731916.975000001490116 ] } },
{ "type": "Feature", "properties": { "objectid": 124, "object_nam": "203 Профилирана езикова гимназия \"Свети Методий\"", "object_nom": 203.0, "adres": "ж.к. Красно село, ул. Пчела №21", "finansiran": "2", "type": "4", "url": "https://www.stmethodiushs.bg/" }, "geometry": { "type": "Point", "coordinates": [ 318124.282499998807907, 4728775.687699999660254 ] } },
{ "type": "Feature", "properties": { "objectid": 125, "object_nam": "164 гимназия с преподаване на испански език \"Мигел де Сервантес\"", "object_nom": 164.0, "adres": "ул. Султан тепе №1", "finansiran": "2", "type": "4", "url": "https://www.ibbcervantes-bg.com/" }, "geometry": { "type": "Point", "coordinates": [ 323587.700300000607967, 4730908.46680000051856 ] } },
{ "type": "Feature", "properties": { "objectid": 126, "object_nam": "Национално музикално училище „Любомир Пипков“", "object_nom": 0.0, "adres": "ул. Оборище №17", "finansiran": "1", "type": "4", "url": "https://nmu.bg/" }, "geometry": { "type": "Point", "coordinates": [ 322901.579099997878075, 4731145.423000000417233 ] } },
{ "type": "Feature", "properties": { "objectid": 127, "object_nam": "136 ОУ „Любен Kаравело“", "object_nom": 136.0, "adres": "ул. Димитър Петков N 116", "finansiran": "2", "type": "2", "url": "http://136ou.com/" }, "geometry": { "type": "Point", "coordinates": [ 319759.459499999880791, 4731699.341499999165535 ] } },
{ "type": "Feature", "properties": { "objectid": 129, "object_nam": "Частно средно училище „Кралица София Испанска“", "object_nom": 0.0, "adres": "ул. Лозенград №2", "finansiran": "3", "type": "3", "url": "https://ispanskouchilishte.com/" }, "geometry": { "type": "Point", "coordinates": [ 321571.962099999189377, 4732020.496800001710653 ] } },
{ "type": "Feature", "properties": { "objectid": 130, "object_nam": "142 ОУ „ВЕСЕЛИН ХАНЧЕВ“", "object_nom": 142.0, "adres": "ж.к. Красно село, ул. Пчела №21", "finansiran": "2", "type": "2", "url": "https://142ou.com/" }, "geometry": { "type": "Point", "coordinates": [ 318096.99040000140667, 4728790.899700000882149 ] } },
{ "type": "Feature", "properties": { "objectid": 131, "object_nam": "129 ОУ \"Антим -І\"", "object_nom": 120.0, "adres": "ул. Султан тепе №1", "finansiran": "2", "type": "2", "url": "https://129ou-sofia.eu/" }, "geometry": { "type": "Point", "coordinates": [ 323666.444600000977516, 4730871.946899998933077 ] } },
{ "type": "Feature", "properties": { "objectid": 132, "object_nam": "48 ОУ „Йосиф Ковачев“", "object_nom": 48.0, "adres": "ул. Клокотница №21", "finansiran": "2", "type": "2", "url": "https://48-ou.com/" }, "geometry": { "type": "Point", "coordinates": [ 321441.332800000905991, 4732544.390299998223782 ] } },
{ "type": "Feature", "properties": { "objectid": 133, "object_nam": "1 СОУ Пенчо Славейков", "object_nom": 1.0, "adres": "ул. Стара планина №11", "finansiran": "2", "type": "3", "url": "http://1sousofia.org/" }, "geometry": { "type": "Point", "coordinates": [ 322349.496699996292591, 4731555.732099998742342 ] } },
{ "type": "Feature", "properties": { "objectid": 134, "object_nam": "51 СУ „Елисавета Багряна“", "object_nom": 51.0, "adres": "ж.к. Хиподрума, ул. Софийски герой №29", "finansiran": "2", "type": "3", "url": "https://51sou.info/" }, "geometry": { "type": "Point", "coordinates": [ 319666.078299999237061, 4729798.124600000679493 ] } },
{ "type": "Feature", "properties": { "objectid": 135, "object_nam": "36 СОУ „Максим Горки“", "object_nom": 36.0, "adres": "ж.к. Борово, ул. Пирински проход №35", "finansiran": "2", "type": "3", "url": "https://36sou.com/" }, "geometry": { "type": "Point", "coordinates": [ 318580.474799998104572, 4728810.342099998146296 ] } },
{ "type": "Feature", "properties": { "objectid": 136, "object_nam": "100 ОУ „Найден Геров“", "object_nom": 100.0, "adres": "ул. Иван Йосифов №68", "finansiran": "2", "type": "2", "url": "https://www.100oung.com/" }, "geometry": { "type": "Point", "coordinates": [ 319979.115299999713898, 4733386.25450000166893 ] } },
{ "type": "Feature", "properties": { "objectid": 137, "object_nam": "Профилирана гимназия за изобразителни изкуства \"Професор Николай Райнов\"", "object_nom": 0.0, "adres": "ул. Николай Райнов №2", "finansiran": "2", "type": "4", "url": "https://www.pgii-nrainov.eu/" }, "geometry": { "type": "Point", "coordinates": [ 323750.806100003421307, 4733691.753199998289347 ] } },
{ "type": "Feature", "properties": { "objectid": 138, "object_nam": "5 Вечерно СОУ „Пеньо Пенев“", "object_nom": 0.0, "adres": "ул. Св. Св. Кирил и Методий  №63", "finansiran": "2", "type": "3", "url": "https://www.peta-vg.com/" }, "geometry": { "type": "Point", "coordinates": [ 321502.130900003015995, 4732023.286400001496077 ] } },
{ "type": "Feature", "properties": { "objectid": 140, "object_nam": "46 ОУ „Константин Фотинов“", "object_nom": 46.0, "adres": "бул. Христо Ботев №109", "finansiran": "2", "type": "2", "url": "https://www.46ou.net/" }, "geometry": { "type": "Point", "coordinates": [ 321142.109600000083447, 4732045.999600000679493 ] } },
{ "type": "Feature", "properties": { "objectid": 141, "object_nam": "132 СУ „Ваня Войнова“", "object_nom": 132.0, "adres": "бул. Цар Борис III №128", "finansiran": "2", "type": "3", "url": "https://www.132su.com/" }, "geometry": { "type": "Point", "coordinates": [ 317784.057300001382828, 4729308.039700001478195 ] } },
{ "type": "Feature", "properties": { "objectid": 142, "object_nam": "ПГ по ПСТТ, ПРОФЕСИОНАЛНА ГИМНАЗИЯ ПО ПОДЕМНА, СТРОИТЕЛНА И ТРАНСПОРТНА ТЕХНИКА", "object_nom": 0.0, "adres": "ул. Марко Балабанов №2", "finansiran": "1", "type": "5", "url": "https://www.pgpstt.com/" }, "geometry": { "type": "Point", "coordinates": [ 320897.829899996519089, 4731381.541900001466274 ] } },
{ "type": "Feature", "properties": { "objectid": 143, "object_nam": "91 Немска езикова гимназия Професор Константин Гълъбов", "object_nom": 91.0, "adres": "ул. Позитано N 26", "finansiran": "2", "type": "4", "url": "https://91neg.bg/" }, "geometry": { "type": "Point", "coordinates": [ 321145.977799996733665, 4731348.713500000536442 ] } },
{ "type": "Feature", "properties": { "objectid": 144, "object_nam": "19 СУ „Елин Пелин\"", "object_nom": 19.0, "adres": "кв. Крива река, ул. Яков Крайков №16", "finansiran": "2", "type": "3", "url": "https://19su.bg/" }, "geometry": { "type": "Point", "coordinates": [ 320057.550700001418591, 4730283.27930000051856 ] } },
{ "type": "Feature", "properties": { "objectid": 145, "object_nam": "Частно езиково средно училище  \"Дорис Тенеди\"", "object_nom": 0.0, "adres": "ж.к. Бели брези, ул. Нишава №66", "finansiran": "3", "type": "3", "url": "https://doristenedi.com/" }, "geometry": { "type": "Point", "coordinates": [ 319207.652999997138977, 4729101.8766999989748 ] } },
{ "type": "Feature", "properties": { "objectid": 146, "object_nam": "Първа английска езикова гимназия", "object_nom": 0.0, "adres": "бул. Княз Александър Дондуков №60", "finansiran": " ", "type": "4", "url": "https://www.fels-sofia.org/" }, "geometry": { "type": "Point", "coordinates": [ 322828.358599998056889, 4731512.374099999666214 ] } },
{ "type": "Feature", "properties": { "objectid": 147, "object_nam": "74 СОУ Гоце Делчев", "object_nom": 74.0, "adres": "ж.к. Връбница 1, ул. Бакърено шосе №1", "finansiran": "2", "type": "3", "url": "https://www.74su.org/" }, "geometry": { "type": "Point", "coordinates": [ 318918.193999998271465, 4735762.382100000977516 ] } },
{ "type": "Feature", "properties": { "objectid": 148, "object_nam": "Частно основно училище \"Светлина\"", "object_nom": 0.0, "adres": "ул. Йозеф Валдхард №3", "finansiran": "3", "type": "2", "url": "https://svetlina.net/osnovno-inovativno-uchilishte/" }, "geometry": { "type": "Point", "coordinates": [ 322630.024700000882149, 4726001.230399999767542 ] } },
{ "type": "Feature", "properties": { "objectid": 149, "object_nam": "Частна професионална гимназия по охрана и сигурност  \"Св.Георги Победоносец\"", "object_nom": 0.0, "adres": "ул. Полк. Георги Янков , 8 СОУ, ІV етаж", "finansiran": "3", "type": "5", "url": "https://www.security-school-bg.com/" }, "geometry": { "type": "Point", "coordinates": [ 324872.511500000953674, 4727433.881700001657009 ] } },
{ "type": "Feature", "properties": { "objectid": 150, "object_nam": "ЧАСТНА ЕЗИКОВА ГИМНАЗИЯ \"ПРОФ. ИВАН АПОСТОЛОВ\"", "object_nom": 0.0, "adres": "ул. Проф. арх. Станчо Белковски № 1", "finansiran": "3", "type": "4", "url": "https://ivanapostolov.bg/" }, "geometry": { "type": "Point", "coordinates": [ 324956.023800000548363, 4727585.339099999517202 ] } },
{ "type": "Feature", "properties": { "objectid": 151, "object_nam": "СПЕЦИАЛИЗИРАНО СПОРТНО УЧИЛИЩЕ \"ГЕН. ВЛАДИМИР СТОЙЧЕВ\"", "object_nom": 0.0, "adres": "бул. Асен Йорданов №2", "finansiran": "1", "type": "4", "url": "https://sugvs-sofia.com/" }, "geometry": { "type": "Point", "coordinates": [ 326028.006599999964237, 4728632.9868 ] } },
{ "type": "Feature", "properties": { "objectid": 152, "object_nam": "ПРОФЕСИОНАЛНА ГИМНАЗИЯ ПО ТРАНСПОРТ (Н. Ботушев)", "object_nom": 0.0, "adres": "кв. Гара Искър, ул. Мюнхен №12", "finansiran": "1", "type": "5", "url": "https://pgtsofia.com/" }, "geometry": { "type": "Point", "coordinates": [ 328736.196099996566772, 4727050.998799998313189 ] } },
{ "type": "Feature", "properties": { "objectid": 153, "object_nam": "61 ОУ Св.Св. Кирил и Методий", "object_nom": 61.0, "adres": "ж.к. Връбница 2, бул. Ломско шосе №186", "finansiran": "2", "type": "2", "url": "https://ou-61.org/" }, "geometry": { "type": "Point", "coordinates": [ 319134.636399999260902, 4735972.060600001364946 ] } },
{ "type": "Feature", "properties": { "objectid": 154, "object_nam": "ПРОФЕСИОНАЛНА ГИМНАЗИЯ ПО ТЕЛЕКОМУНИКАЦИИ", "object_nom": 0.0, "adres": "Студентски град, ул. Акад. Стефан  Младенов №1", "finansiran": "1", "type": "5", "url": "https://tcom-sf.org/" }, "geometry": { "type": "Point", "coordinates": [ 323546.992799997329712, 4726690.374200001358986 ] } },
{ "type": "Feature", "properties": { "objectid": 155, "object_nam": "62 ОУ Христо Ботев", "object_nom": 62.0, "adres": "кв. Обеля, ул. Ефрем Чучков №26", "finansiran": "2", "type": "2", "url": "https://62ou.com/" }, "geometry": { "type": "Point", "coordinates": [ 316939.319899998605251, 4736210.257599998265505 ] } },
{ "type": "Feature", "properties": { "objectid": 156, "object_nam": "140 СОУ Иван Богоров", "object_nom": 140.0, "adres": "ж.к. Обеля II, ул. Дико Илиев № 9", "finansiran": "2", "type": "3", "url": "http://140su.com/" }, "geometry": { "type": "Point", "coordinates": [ 317936.753200002014637, 4736847.371899999678135 ] } },
{ "type": "Feature", "properties": { "objectid": 157, "object_nam": "102 ОУ Панайот Волов", "object_nom": 102.0, "adres": "ж.к. Надежда IV, ул. Звезда №3", "finansiran": "2", "type": "2", "url": "https://www.102ou.com/" }, "geometry": { "type": "Point", "coordinates": [ 320317.289599999785423, 4735633.412900000810623 ] } },
{ "type": "Feature", "properties": { "objectid": 158, "object_nam": "141 Основно училище   \"Народни будители\"", "object_nom": 141.0, "adres": "ж.к. Свобода, ул. Народни Будители (до бл. 5)", "finansiran": "2", "type": "2", "url": "https://141ou.com/" }, "geometry": { "type": "Point", "coordinates": [ 320536.703699998557568, 4735986.956300001591444 ] } },
{ "type": "Feature", "properties": { "objectid": 159, "object_nam": "16 ОУ Райко Жинзифов", "object_nom": 16.0, "adres": "ж.к. Надежда I, ул. Дравски бой №7", "finansiran": "2", "type": "2", "url": "https://www.ou16.bg/" }, "geometry": { "type": "Point", "coordinates": [ 319823.492499999701977, 4734662.535199999809265 ] } },
{ "type": "Feature", "properties": { "objectid": 160, "object_nam": "101 СОУ Бачо Киро", "object_nom": 101.0, "adres": "ж.к. Надежда I, ул. Илинденско въстание №36", "finansiran": "2", "type": "3", "url": "https://101su.bg/" }, "geometry": { "type": "Point", "coordinates": [ 319368.936099998652935, 4734902.68299999833107 ] } },
{ "type": "Feature", "properties": { "objectid": 161, "object_nam": "8 СОУ Васил Левски", "object_nom": 8.0, "adres": "ж.к. \"Младост 1\", ул. Полк. Г. Янков № 3", "finansiran": "2", "type": "3", "url": "https://8sou.com/" }, "geometry": { "type": "Point", "coordinates": [ 324909.096799999475479, 4727470.050599999725819 ] } },
{ "type": "Feature", "properties": { "objectid": 162, "object_nam": "55 СОУ Петко Каравелов", "object_nom": 55.0, "adres": "ж.к. Дървеница, ул. Дъбница №3", "finansiran": "2", "type": "3", "url": "https://www.55su.bg/" }, "geometry": { "type": "Point", "coordinates": [ 324613.42339999973774, 4726694.979899998754263 ] } },
{ "type": "Feature", "properties": { "objectid": 163, "object_nam": "70 ОУ Св. Климент Охридски", "object_nom": 70.0, "adres": "кв. Модерно предградие, ул. Адам Мицкевич №10", "finansiran": "2", "type": "2", "url": "http://www.70ou.com/" }, "geometry": { "type": "Point", "coordinates": [ 318430.729599997401237, 4734739.0320999994874 ] } },
{ "type": "Feature", "properties": { "objectid": 164, "object_nam": "145 ОУ Симеон Радев", "object_nom": 145.0, "adres": "ж.к. Младост IА, ул. Ресен №1", "finansiran": "2", "type": "2", "url": "http://145ou.com/" }, "geometry": { "type": "Point", "coordinates": [ 326627.435099996626377, 4725816.062699999660254 ] } },
{ "type": "Feature", "properties": { "objectid": 165, "object_nam": "2 СОУ Академик Емилиян Станев", "object_nom": 2.0, "adres": "ж.к. Бъкстон, ул. Генерал Александър В. Суворов №36", "finansiran": "2", "type": "3", "url": "https://2su.bg/" }, "geometry": { "type": "Point", "coordinates": [ 317535.795500002801418, 4728348.580699998885393 ] } },
{ "type": "Feature", "properties": { "objectid": 166, "object_nam": "144 СОУ Народни будители", "object_nom": 144.0, "adres": "ж.к. Младост  III, ул. Бъднина №1", "finansiran": "2", "type": "3", "url": "https://144sou.bg/re/" }, "geometry": { "type": "Point", "coordinates": [ 326025.059199996292591, 4725223.466699998825788 ] } },
{ "type": "Feature", "properties": { "objectid": 167, "object_nam": "68 СОУ Академик Никола Обрешков", "object_nom": 68.0, "adres": "ж.к. Дружба II", "finansiran": "2", "type": "3", "url": "https://68su.org/" }, "geometry": { "type": "Point", "coordinates": [ 327997.395300000905991, 4726247.614 ] } },
{ "type": "Feature", "properties": { "objectid": 168, "object_nam": "69 СОУ Димитър Маринов", "object_nom": 69.0, "adres": "ж.к. Дружба I, ул. Чудомир Топлодолски № 2", "finansiran": "2", "type": "3", "url": "http://www.sou69.com/" }, "geometry": { "type": "Point", "coordinates": [ 327531.7820999994874, 4727750.718800000846386 ] } },
{ "type": "Feature", "properties": { "objectid": 169, "object_nam": "10 СОУ Теодор Траянов", "object_nom": 10.0, "adres": "ж.к. Младост I, ул. Методи Андонов №1", "finansiran": "2", "type": "3", "url": "https://10sou.eu/" }, "geometry": { "type": "Point", "coordinates": [ 325580.867899999022484, 4726120.757800001651049 ] } },
{ "type": "Feature", "properties": { "objectid": 170, "object_nam": "3-то помощно училище \"Едуард Сеген\" (ЦСОП Едуард Сеген)", "object_nom": 0.0, "adres": "ул. Граничар №16", "finansiran": "1", "type": "6", "url": "http://csopsegen.com/za-nas/" }, "geometry": { "type": "Point", "coordinates": [ 319878.625100001692772, 4734582.513000000268221 ] } },
{ "type": "Feature", "properties": { "objectid": 171, "object_nam": "15 СОУ Адам Мицкевич", "object_nom": 15.0, "adres": "ж.к. Надежда II, ул. Йордан Хаджиконстантинов - Джинот №68", "finansiran": "2", "type": "3", "url": "https://www.15sou-sofia.com/" }, "geometry": { "type": "Point", "coordinates": [ 320497.489500001072884, 4734944.772199999541044 ] } },
{ "type": "Feature", "properties": { "objectid": 172, "object_nam": "153 Специализирано спортно училище \"Неофит Рилски\"", "object_nom": 153.0, "adres": "ж.к. Свобода, ул. Народни будители №2", "finansiran": "2", "type": "4", "url": "https://www.nrilski153.org/" }, "geometry": { "type": "Point", "coordinates": [ 320756.045999996364117, 4735732.817600000649691 ] } },
{ "type": "Feature", "properties": { "objectid": 173, "object_nam": "77 ОУ Св. Св. Кирил и Методий", "object_nom": 77.0, "adres": "кв. Филиповци, ул. 3-ти март №45", "finansiran": "2", "type": "2", "url": "https://77ou-sofia.com/" }, "geometry": { "type": "Point", "coordinates": [ 313368.4966000020504, 4734048.191500000655651 ] } },
{ "type": "Feature", "properties": { "objectid": 174, "object_nam": "ПРОФЕСИОНАЛНА ГИМНАЗИЯ ПО ЕЛЕКТРОТЕХНИКА И АВТОМАТИКА", "object_nom": 0.0, "adres": "бул. Овча купел №1", "finansiran": "1", "type": "5", "url": "https://pgea.bg/" }, "geometry": { "type": "Point", "coordinates": [ 317268.364799998700619, 4728740.215799998492002 ] } },
{ "type": "Feature", "properties": { "objectid": 175, "object_nam": "НАЦИОНАЛНО СРЕДНО УЧИЛИЩЕ \"СОФИЯ\"", "object_nom": 0.0, "adres": "кв. Овча купел, ул. Монтевидео №21", "finansiran": "1", "type": "3", "url": "http://www.nsousofia.org/" }, "geometry": { "type": "Point", "coordinates": [ 315643.802000001072884, 4729447.215999998152256 ] } },
{ "type": "Feature", "properties": { "objectid": 176, "object_nam": "163 ОУ Черноризец Храбър", "object_nom": 163.0, "adres": "ж.к. Дружба II, ул. Обиколна №36", "finansiran": "2", "type": "2", "url": "http://163ou.org/" }, "geometry": { "type": "Point", "coordinates": [ 328296.209600001573563, 4725384.7029 ] } },
{ "type": "Feature", "properties": { "objectid": 177, "object_nam": "27 СОУ Академик Георги Караславов", "object_nom": 27.0, "adres": "ул. Полк. Н. Попов №4", "finansiran": "2", "type": "3", "url": "https://www.27su.eu/" }, "geometry": { "type": "Point", "coordinates": [ 315884.039399996399879, 4733134.765099998563528 ] } },
{ "type": "Feature", "properties": { "objectid": 178, "object_nam": "89 ОУ Д-р Христо Стамболски", "object_nom": 89.0, "adres": "ж.к. Дружба I, ул. Чудомир Топлодолски № 4", "finansiran": "2", "type": "2", "url": "http://www.89ousofia.com/" }, "geometry": { "type": "Point", "coordinates": [ 327459.656199999153614, 4727652.8235 ] } },
{ "type": "Feature", "properties": { "objectid": 179, "object_nam": "56 СОУ Проф. Константин Иречек", "object_nom": 56.0, "adres": "ж.к. Люлин VIII, ул. Търново", "finansiran": "2", "type": "3", "url": "https://su-56.com/" }, "geometry": { "type": "Point", "coordinates": [ 316689.077899999916553, 4734295.02419999986887 ] } },
{ "type": "Feature", "properties": { "objectid": 180, "object_nam": "Частно ОУ Ерих Кестнер", "object_nom": 0.0, "adres": "ж.к. Люлин VI, ул. полк. Никола Попов", "finansiran": "3", "type": "2", "url": "https://www.eks-bg.eu/" }, "geometry": { "type": "Point", "coordinates": [ 316004.319700002670288, 4733209.6842 ] } },
{ "type": "Feature", "properties": { "objectid": 181, "object_nam": "Частно средно общообразователно училище \"Българско школо\"", "object_nom": 0.0, "adres": "ул. Генерал-майор Васил Делов №10", "finansiran": "3", "type": "3", "url": "https://bgshkolo.com/" }, "geometry": { "type": "Point", "coordinates": [ 325148.128200002014637, 4724510.63060000166297 ] } },
{ "type": "Feature", "properties": { "objectid": 182, "object_nam": "Частно Основно Училище \"Азбуки\"", "object_nom": 0.0, "adres": "ул. Проф. арх. Станчо Белковски № 1", "finansiran": "3", "type": "2", "url": "https://azbuki-school.bg/" }, "geometry": { "type": "Point", "coordinates": [ 324922.261500000953674, 4727563.564599998295307 ] } },
{ "type": "Feature", "properties": { "objectid": 183, "object_nam": "Частно основно училище \"Куест Академи\"", "object_nom": 0.0, "adres": "ул. Димитър Доспевски №9", "finansiran": "3", "type": "2", "url": "https://questacademy.bg/" }, "geometry": { "type": "Point", "coordinates": [ 325895.156199999153614, 4726287.907600000500679 ] } },
{ "type": "Feature", "properties": { "objectid": 184, "object_nam": "Технологично училище \"Електронни системи\" към Технически Университет  - София", "object_nom": 0.0, "adres": "ж.к. Младост I, ул. Владимир Пашов №2", "finansiran": "1", "type": "5", "url": "https://www.elsys-bg.org/" }, "geometry": { "type": "Point", "coordinates": [ 325645.962499998509884, 4727408.80180000141263 ] } },
{ "type": "Feature", "properties": { "objectid": 185, "object_nam": "54 СОУ Св. Иван Рилски", "object_nom": 54.0, "adres": "ж.к. Лев Толстой, ул. Йордан Хаджиконстантинов - Джинот №38", "finansiran": "2", "type": "3", "url": "http://54suivanrilski.com/" }, "geometry": { "type": "Point", "coordinates": [ 320810.384499996900558, 4734797.355399999767542 ] } },
{ "type": "Feature", "properties": { "objectid": 186, "object_nam": "98 НУ Св. Св. Кирил и Методий", "object_nom": 98.0, "adres": "кв. Илиянци, ул. Махония №2", "finansiran": "2", "type": "1", "url": "https://nu98.org/" }, "geometry": { "type": "Point", "coordinates": [ 321312.549199998378754, 4737390.933499999344349 ] } },
{ "type": "Feature", "properties": { "objectid": 187, "object_nam": "85 СОУ Отец Паисий", "object_nom": 85.0, "adres": "кв. Враждебна, ул. 59 №13", "finansiran": "2", "type": "3", "url": "https://su85.org/" }, "geometry": { "type": "Point", "coordinates": [ 329193.918700002133846, 4732778.1706000007689 ] } },
{ "type": "Feature", "properties": { "objectid": 188, "object_nam": "50 ОУ Васил Левски", "object_nom": 50.0, "adres": "кв. Драгалевци, ул. Бела Дона №1", "finansiran": "2", "type": "2", "url": "https://50ou-vasil-levski.com/" }, "geometry": { "type": "Point", "coordinates": [ 320344.042700000107288, 4723872.1886 ] } },
{ "type": "Feature", "properties": { "objectid": 189, "object_nam": "64 ОУ Цар Симеон Велики", "object_nom": 64.0, "adres": "кв. Симеоново, ул. Симеоновска №1", "finansiran": "2", "type": "2", "url": "https://64oucarsimeon.org/" }, "geometry": { "type": "Point", "coordinates": [ 322485.027699999511242, 4722436.838799998164177 ] } },
{ "type": "Feature", "properties": { "objectid": 190, "object_nam": "33 ОУ Санкт Петербург", "object_nom": 33.0, "adres": "ж.к. Люлин III,  ул. 309 №8", "finansiran": "2", "type": "2", "url": "https://33-ou.com/" }, "geometry": { "type": "Point", "coordinates": [ 315546.700300000607967, 4734070.857900001108646 ] } },
{ "type": "Feature", "properties": { "objectid": 191, "object_nam": "63 ОУ \"Христо Ботев\"", "object_nom": 63.0, "adres": "кв. Требич, ул. \"Леденика\" №12", "finansiran": "2", "type": "2", "url": "https://63ou-hbotev.org/" }, "geometry": { "type": "Point", "coordinates": [ 320986.44030000269413, 4740004.510400000959635 ] } },
{ "type": "Feature", "properties": { "objectid": 192, "object_nam": "65 ОУ \"Св.Св. Кирил и Методий\"", "object_nom": 65.0, "adres": "Бусманци, ул. Ген. Йосиф В. Гурко №40", "finansiran": "2", "type": "2", "url": "https://65ou.ucoz.com/" }, "geometry": { "type": "Point", "coordinates": [ 330643.543799996376038, 4728698.083399999886751 ] } },
{ "type": "Feature", "properties": { "objectid": 193, "object_nam": "71 СОУ \"П.К. Яворов\"", "object_nom": 71.0, "adres": "с. Казичане, ул. Пейо Яворов №10", "finansiran": "2", "type": "3", "url": "http://71sou.org/" }, "geometry": { "type": "Point", "coordinates": [ 333042.517399996519089, 4726603.320099998265505 ] } },
{ "type": "Feature", "properties": { "objectid": 194, "object_nam": "78 СОУ \"Христо Смирненски\"", "object_nom": 7.0, "adres": "Банкя, ул. Царибродска №5", "finansiran": "2", "type": "3", "url": "https://78su.net/" }, "geometry": { "type": "Point", "coordinates": [ 306726.499300003051758, 4733390.011900000274181 ] } },
{ "type": "Feature", "properties": { "objectid": 195, "object_nam": "83 ОУ \"Елин Пелин\"", "object_nom": 83.0, "adres": "кв. Панчарево, ул. Елин Пелин №21", "finansiran": "2", "type": "2", "url": "https://83ou.org/" }, "geometry": { "type": "Point", "coordinates": [ 328457.557800002396107, 4719950.627599999308586 ] } },
{ "type": "Feature", "properties": { "objectid": 196, "object_nam": "84 ОУ \"Васил Левски\"", "object_nom": 84.0, "adres": "с. Герман, ул. Патриарх Герман №81Б", "finansiran": "2", "type": "2", "url": "https://www.84ou.com/" }, "geometry": { "type": "Point", "coordinates": [ 329070.092600002884865, 4722395.635800000280142 ] } },
{ "type": "Feature", "properties": { "objectid": 197, "object_nam": "86 ОУ \"Св. Климент Охридски\"", "object_nom": 86.0, "adres": "с. Владая, ул. Брезова гора №2", "finansiran": "2", "type": "2", "url": "https://www.86ou-vladaya.com/" }, "geometry": { "type": "Point", "coordinates": [ 311013.448100000619888, 4724223.642700001597404 ] } },
{ "type": "Feature", "properties": { "objectid": 198, "object_nam": "88 СОУ \"ДИМИТЪР ПОПНИКОЛОВ\"", "object_nom": 88.0, "adres": "ж.к. Овча купел I, ул. Димитър Попниколов №7", "finansiran": "2", "type": "3", "url": "https://88cy.info/" }, "geometry": { "type": "Point", "coordinates": [ 316355.359099999070168, 4730169.493599999696016 ] } },
{ "type": "Feature", "properties": { "objectid": 199, "object_nam": "146 ОУ Патриарх Евтимий", "object_nom": 146.0, "adres": "с. Волуяк, ул. Зорница №63", "finansiran": "2", "type": "2", "url": "http://146ou.4stupki.com/" }, "geometry": { "type": "Point", "coordinates": [ 315266.603799998760223, 4739811.114199999719858 ] } },
{ "type": "Feature", "properties": { "objectid": 200, "object_nam": "152 ОУ \"Св.Св. Кирил и Методий\"", "object_nom": 152.0, "adres": "Мърчаево, ул. Цар Симеон I №62", "finansiran": "2", "type": "2", "url": "http://152oy-murchaevo.com/" }, "geometry": { "type": "Point", "coordinates": [ 309260.431500002741814, 4721304.723499998450279 ] } },
{ "type": "Feature", "properties": { "objectid": 202, "object_nam": "156 ОУ  \"Васил Левски\"", "object_nom": 156.0, "adres": "кв. Кремиковци, алея Свежест", "finansiran": "2", "type": "2", "url": "http://156ou.bg/" }, "geometry": { "type": "Point", "coordinates": [ 336563.477600000798702, 4740724.70719999819994 ] } },
{ "type": "Feature", "properties": { "objectid": 203, "object_nam": "159 ОУ \"Васил Левски\"", "object_nom": 159.0, "adres": "кв. Челопечене, ул. Ангел Маджаров №31", "finansiran": "2", "type": "2", "url": "https://www.ou159.com/" }, "geometry": { "type": "Point", "coordinates": [ 333986.487499997019768, 4735045.204799998551607 ] } },
{ "type": "Feature", "properties": { "objectid": 204, "object_nam": "160 ОУ \"Св.Св. Кирил и Методий\"", "object_nom": 160.0, "adres": "с. Чепинци, ул. Стара планина №22", "finansiran": "2", "type": "2", "url": "https://ou-160.com/" }, "geometry": { "type": "Point", "coordinates": [ 330596.397600002586842, 4738270.760499998927116 ] } },
{ "type": "Feature", "properties": { "objectid": 205, "object_nam": "162 ОУ \"Отец Паисий\"", "object_nom": 162.0, "adres": "кв. Ботунец, ул. Свобода № 10", "finansiran": "2", "type": "2", "url": "https://162ou.com/" }, "geometry": { "type": "Point", "coordinates": [ 337024.666900001466274, 4735829.772799998521805 ] } },
{ "type": "Feature", "properties": { "objectid": 206, "object_nam": "170 СОУ \"Васил Левски\"", "object_nom": 170.0, "adres": "кв. Курило, ул. Искърско дефиле №277", "finansiran": "2", "type": "3", "url": "https://170sou.com/" }, "geometry": { "type": "Point", "coordinates": [ 324411.33389999717474, 4745517.103500001132488 ] } },
{ "type": "Feature", "properties": { "objectid": 207, "object_nam": "171 ОУ \"Стоил Попов\"", "object_nom": 171.0, "adres": "гр. Нови Искър, кв. Кумарица, ул. Светлина №26", "finansiran": "2", "type": "2", "url": "https://171ou.bg/" }, "geometry": { "type": "Point", "coordinates": [ 323467.393899999558926, 4742463.425200000405312 ] } },
{ "type": "Feature", "properties": { "objectid": 208, "object_nam": "172 ОУ \"Христо Ботев\"", "object_nom": 172.0, "adres": "гр. Нови Искър, кв. Гниляне, ул. Христо Ботев № 51", "finansiran": "2", "type": "2", "url": "https://172obu.com" }, "geometry": { "type": "Point", "coordinates": [ 326305.820900000631809, 4743773.159099999815226 ] } },
{ "type": "Feature", "properties": { "objectid": 209, "object_nam": "175 ОУ Васил Левски", "object_nom": 175.0, "adres": "с. Мрамор, ул. Св.Св.Кирил и Методий №1", "finansiran": "2", "type": "2", "url": "http://175ou.bgschool.bg/" }, "geometry": { "type": "Point", "coordinates": [ 317922.23929999768734, 4741211.471599999815226 ] } },
{ "type": "Feature", "properties": { "objectid": 210, "object_nam": "176 ОУ \"Св.Св. Кирил и Методий\"", "object_nom": 176.0, "adres": "с. Негован, ул. Училищна № 6", "finansiran": "2", "type": "2", "url": "https://176ou.com/" }, "geometry": { "type": "Point", "coordinates": [ 328636.296899996697903, 4739507.503199998289347 ] } },
{ "type": "Feature", "properties": { "objectid": 211, "object_nam": "115 ОУ \"Св.Св. Кирил и Методий\"", "object_nom": 115.0, "adres": "с. Горни Богров, ул. Черковна №9", "finansiran": "2", "type": "2", "url": "http://115oy.com/" }, "geometry": { "type": "Point", "coordinates": [ 338776.654799997806549, 4733658.974500000476837 ] } },
{ "type": "Feature", "properties": { "objectid": 212, "object_nam": "116 ОУ  ПАИСИЙ ХИЛЕНДАРСКИ", "object_nom": 116.0, "adres": "с. Яна, ул.Васил Левски №32", "finansiran": "2", "type": "2", "url": "https://116ouphilendarski.com/" }, "geometry": { "type": "Point", "coordinates": [ 341025.156000003218651, 4734799.142700001597404 ] } },
{ "type": "Feature", "properties": { "objectid": 213, "object_nam": "117 СОУ \"Св.Св. Кирил и Методий\"", "object_nom": 117.0, "adres": "гр. Бухово, ул. Младежка №34", "finansiran": "2", "type": "3", "url": "http://www.117sou.bg/" }, "geometry": { "type": "Point", "coordinates": [ 340962.31870000064373, 4737764.318500000983477 ] } },
{ "type": "Feature", "properties": { "objectid": 214, "object_nam": "177 ОУ \"Св.Св. Кирил и Методий\"", "object_nom": 177.0, "adres": "с. Световрачене, ул.Софийска №23", "finansiran": "2", "type": "2", "url": "https://177ou.idwebbg.com/" }, "geometry": { "type": "Point", "coordinates": [ 327078.116999998688698, 4740751.103999998420477 ] } },
{ "type": "Feature", "properties": { "objectid": 215, "object_nam": "179 ОУ \"Васил Левски\"", "object_nom": 179.0, "adres": "с. Доброславци, ул.Доброславско шосе №34", "finansiran": "2", "type": "2", "url": "https://www.179ou.com/" }, "geometry": { "type": "Point", "coordinates": [ 318772.636100001633167, 4745537.898499999195337 ] } },
{ "type": "Feature", "properties": { "objectid": 216, "object_nam": "191 ОУ \"Отец Паисий\"", "object_nom": 191.0, "adres": "с. Железница, ул. Плана планина №11", "finansiran": "2", "type": "2", "url": "http://191ou.info/" }, "geometry": { "type": "Point", "coordinates": [ 324832.051100000739098, 4713441.255300000309944 ] } },
{ "type": "Feature", "properties": { "objectid": 217, "object_nam": "192 СОУ \"Христо Ботев\"", "object_nom": 192.0, "adres": "с. Бистрица, ул. Просвета №11", "finansiran": "2", "type": "3", "url": "https://hristobotev.net/" }, "geometry": { "type": "Point", "coordinates": [ 324155.47749999910593, 4718643.638399999588728 ] } },
{ "type": "Feature", "properties": { "objectid": 218, "object_nam": "200 ОУ \"Отец Паисий\"", "object_nom": 200.0, "adres": "с. Лозен, ул. Иван Пешев №1", "finansiran": "2", "type": "2", "url": "https://200ou.org/" }, "geometry": { "type": "Point", "coordinates": [ 335527.739900000393391, 4720620.8462999984622 ] } },
{ "type": "Feature", "properties": { "objectid": 219, "object_nam": "201 ОУ \"Св.Св. Кирил и Методий\"", "object_nom": 201.0, "adres": "с. Лозен, ул. Св.св. Кирил и Методий №17", "finansiran": "2", "type": "2", "url": "https://201ou.alle.bg/" }, "geometry": { "type": "Point", "coordinates": [ 333805.228699997067451, 4720335.288400001823902 ] } },
{ "type": "Feature", "properties": { "objectid": 220, "object_nam": "202 ОУ \"Христо Ботев\"", "object_nom": 202.0, "adres": "с. Долни Пасарел, ул. Диляна №16", "finansiran": "2", "type": "2", "url": "https://202ou.weebly.com/" }, "geometry": { "type": "Point", "coordinates": [ 335897.047799997031689, 4713675.582800000905991 ] } },
{ "type": "Feature", "properties": { "objectid": 221, "object_nam": "ПГТ \"Алеко Константинов\"", "object_nom": 0.0, "adres": "Банкя, ул. Александър Стамболийски №13", "finansiran": "1", "type": "5", "url": "https://www.pgtbankya.com/za-nas" }, "geometry": { "type": "Point", "coordinates": [ 306935.435199998319149, 4733104.291700001806021 ] } },
{ "type": "Feature", "properties": { "objectid": 222, "object_nam": "Частно Основно Училище \"Откривател\"", "object_nom": 0.0, "adres": "ул. Болград №6", "finansiran": "3", "type": "2", "url": "https://montessorischools.bg/" }, "geometry": { "type": "Point", "coordinates": [ 320774.748632507107686, 4728804.634038525633514 ] } },
{ "type": "Feature", "properties": { "objectid": 223, "object_nam": "4-ТО ОСНОВНО ПОМОЩНО УЧИЛИЩЕ \"ПРОФ. ДИМИТЪР КАЦАРОВ\" (ЦСОП ДИМИТЪР КАЦАРОВ)", "object_nom": 0.0, "adres": "ул. проф.Николай Державин №2", "finansiran": "1", "type": "6", "url": "https://tssop-knyazhevo.eu/" }, "geometry": { "type": "Point", "coordinates": [ 314552.501500003039837, 4727176.281300000846386 ] } },
{ "type": "Feature", "properties": { "objectid": 224, "object_nam": "Специално училище за ученици с нарушено зрение \"ЛУИ БРАЙЛ\"", "object_nom": 0.0, "adres": "ж.к. Връбница 1, ул. Ломско шосе №177", "finansiran": "1", "type": "6", "url": "https://suunz.org/" }, "geometry": { "type": "Point", "coordinates": [ 318859.246899999678135, 4736046.79280000180006 ] } },
{ "type": "Feature", "properties": { "objectid": 225, "object_nam": "ССУ С ДЕТСКА ГРАДИНА ЗА ДЕЦА С УВРЕДЕН СЛУХ ПРОФ. ДЕЧО ДЕНЕВ", "object_nom": 0.0, "adres": "ул. Ген. Стефан Тошев №82", "finansiran": "1", "type": "6", "url": "https://deafschoolsofia.com/" }, "geometry": { "type": "Point", "coordinates": [ 317824.957099996507168, 4727810.678100001066923 ] } },
{ "type": "Feature", "properties": { "objectid": 226, "object_nam": "ЧНУ \"Фоти\"", "object_nom": 0.0, "adres": "Банкя, ул. Панайот Волов №2", "finansiran": "3", "type": "1", "url": "http://photy.isixteen.net/nachalno-uchilishte/" }, "geometry": { "type": "Point", "coordinates": [ 306666.491400003433228, 4732939.0592 ] } },
{ "type": "Feature", "properties": { "objectid": 227, "object_nam": "ЧСОУ \"УВЕКИНД\" (СОУ 1-12 клас)", "object_nom": 0.0, "adres": "кв. Княжево, ул. Войводина могила №136", "finansiran": "3", "type": "3", "url": "https://uwekind.com/" }, "geometry": { "type": "Point", "coordinates": [ 313596.302799999713898, 4726920.554400000721216 ] } },
{ "type": "Feature", "properties": { "objectid": 228, "object_nam": "ЧПСОУ, ЧАСТНА ЕЗИКОВА ГИМНАЗИЯ И ОСНОВНО УЧИЛИЩЕ  СВ. НАУМ", "object_nom": 0.0, "adres": "кв. Бояна, ул. Брезите №17", "finansiran": "3", "type": "3", "url": "http://www.svetinaum.net/" }, "geometry": { "type": "Point", "coordinates": [ 317323.013999998569489, 4725780.319600000977516 ] } },
{ "type": "Feature", "properties": { "objectid": 229, "object_nam": "ЧСОУ \"РЬОРИХ\"", "object_nom": 0.0, "adres": "Драгалевци, ул.Камен дел №4а", "finansiran": "3", "type": "3", "url": "https://roerich-school.org/" }, "geometry": { "type": "Point", "coordinates": [ 320409.929999999701977, 4723677.565600000321865 ] } },
{ "type": "Feature", "properties": { "objectid": 230, "object_nam": "Частно средно езиково училище \"Дрита\"", "object_nom": 0.0, "adres": "ул. Каменица №13", "finansiran": "3", "type": "3", "url": "http://www.dritaschool.com/" }, "geometry": { "type": "Point", "coordinates": [ 322799.351599998772144, 4722413.791799999773502 ] } },
{ "type": "Feature", "properties": { "objectid": 231, "object_nam": "ЧНГ Ерих Кестнер (профилирана гимназия)", "object_nom": 0.0, "adres": "ж.к. Люлин VI, ул. полк. Никола Попов №4", "finansiran": "3", "type": "4", "url": "https://www.eks-bg.eu/" }, "geometry": { "type": "Point", "coordinates": [ 315916.063400000333786, 4733114.638999998569489 ] } },
{ "type": "Feature", "properties": { "objectid": 232, "object_nam": "5 ОУ Иван Вазов", "object_nom": 5.0, "adres": "кв. Павлово, ул. Симеон Радев №31", "finansiran": "2", "type": "2", "url": "https://5ou-ivanvazov.com/" }, "geometry": { "type": "Point", "coordinates": [ 317298.386900000274181, 4727793.739199999719858 ] } },
{ "type": "Feature", "properties": { "objectid": 233, "object_nam": "53 ОУ Николай Хрелков", "object_nom": 53.0, "adres": "кв. Горна Баня, ул. Обзор №6", "finansiran": "2", "type": "2", "url": "http://53ou.com/" }, "geometry": { "type": "Point", "coordinates": [ 314246.439000003039837, 4729313.131400000303984 ] } },
{ "type": "Feature", "properties": { "objectid": 234, "object_nam": "Национален учебен комплекс по култура с лицей за изучаване на италиански език и култура", "object_nom": 0.0, "adres": "кв. Горна Баня, ул. Вечерница №21", "finansiran": "1", "type": "4", "url": "https://www.nukk.org/" }, "geometry": { "type": "Point", "coordinates": [ 314125.054799996316433, 4729119.620000001043081 ] } },
{ "type": "Feature", "properties": { "objectid": 235, "object_nam": "Частно ОУ Доктор Мария Монтесори", "object_nom": 0.0, "adres": "кв. Горна Баня, ул. Вечерница №21, в сградата на Националния учебен комплекс по култура", "finansiran": "2", "type": "2", "url": "https://montessori-bg.org/" }, "geometry": { "type": "Point", "coordinates": [ 314077.237000003457069, 4729178.359099999070168 ] } },
{ "type": "Feature", "properties": { "objectid": 236, "object_nam": "52 ОУ Цанко Церковски", "object_nom": 52.0, "adres": "кв. Бояна, ул. Александър Сергеевич Пушкин №112", "finansiran": "2", "type": "2", "url": "https://www.52ou.org/" }, "geometry": { "type": "Point", "coordinates": [ 316799.193599998950958, 4726349.304200001060963 ] } },
{ "type": "Feature", "properties": { "objectid": 237, "object_nam": "125 СОУ Боян Пенев", "object_nom": 125.0, "adres": "ж.к. Младост I, ул. Никола Генадиев №1", "finansiran": "2", "type": "3", "url": "http://sou125.com/" }, "geometry": { "type": "Point", "coordinates": [ 326033.743699997663498, 4726448.175999999046326 ] } },
{ "type": "Feature", "properties": { "objectid": 238, "object_nam": "Частна профилирана гимназия с преподаване на английски език Меридиан 22", "object_nom": 0.0, "adres": "ж.к. Младост II, до бл. 227", "finansiran": "3", "type": "4", "url": "http://highschool.meridian22-edu.com/" }, "geometry": { "type": "Point", "coordinates": [ 325479.668099999427795, 4725392.00620000064373 ] } },
{ "type": "Feature", "properties": { "objectid": 239, "object_nam": "131 СУ \"Климент Аркадиевич Тимирязев\"", "object_nom": 131.0, "adres": "ж.к. Младост IV, ул. Филип Аврамов №29", "finansiran": "2", "type": "3", "url": "https://su131.weebly.com/" }, "geometry": { "type": "Point", "coordinates": [ 326207.151900000870228, 4724283.506000000983477 ] } },
{ "type": "Feature", "properties": { "objectid": 240, "object_nam": "Американски колеж", "object_nom": 0.0, "adres": "ж.к. Младост II, Алея Флойд Бляк", "finansiran": "3", "type": "4", "url": "https://www.acs.bg/bg/" }, "geometry": { "type": "Point", "coordinates": [ 325041.037100002169609, 4724026.632199998944998 ] } },
{ "type": "Feature", "properties": { "objectid": 241, "object_nam": "149 СОУ Иван Хаджийски", "object_nom": 149.0, "adres": "ж.к. Овча купел II, ул. Иван хаджийски №21", "finansiran": "2", "type": "3", "url": "http://149su.com/" }, "geometry": { "type": "Point", "coordinates": [ 315448.404899999499321, 4730325.291299998760223 ] } },
{ "type": "Feature", "properties": { "objectid": 242, "object_nam": "66 СОУ Филип Станиславов", "object_nom": 66.0, "adres": "кв. Овча купел, ул. Букет №29", "finansiran": "2", "type": "3", "url": "https://66sou.org/" }, "geometry": { "type": "Point", "coordinates": [ 316484.601999998092651, 4728809.478300001472235 ] } },
{ "type": "Feature", "properties": { "objectid": 243, "object_nam": "108 СОУ Никола Беловеждов", "object_nom": 108.0, "adres": "ж.к. Дружба I, ул.5038 №15", "finansiran": "2", "type": "3", "url": "https://www.108su.net/" }, "geometry": { "type": "Point", "coordinates": [ 326901.232799999415874, 4728179.557700000703335 ] } },
{ "type": "Feature", "properties": { "objectid": 244, "object_nam": "72 ОУ Христо Ботев", "object_nom": 72.0, "adres": "кв. Суходол, ул. Овче поле №14", "finansiran": "2", "type": "2", "url": "http://ou72.org/" }, "geometry": { "type": "Point", "coordinates": [ 313621.820100001990795, 4731343.996899999678135 ] } },
{ "type": "Feature", "properties": { "objectid": 245, "object_nam": "Професионална гимназия по  екология и биотехнологии \"Проф. д-р Асен Златаров\"", "object_nom": 0.0, "adres": "кв. Карпузица, ул. Средорек №3", "finansiran": "1", "type": "5", "url": "https://pgeb-bg.com/" }, "geometry": { "type": "Point", "coordinates": [ 315868.094800002872944, 4728094.717799998819828 ] } },
{ "type": "Feature", "properties": { "objectid": 246, "object_nam": "26 СОУ Йордан Йовков", "object_nom": 26.0, "adres": "кв. Княжево, ул. Кореняците №40", "finansiran": "2", "type": "3", "url": "http://26coy.net/Web_26/" }, "geometry": { "type": "Point", "coordinates": [ 315183.513999998569489, 4727908.645899999886751 ] } },
{ "type": "Feature", "properties": { "objectid": 247, "object_nam": "ЧОУ, Частно ОУ с ранно чуждоезиково обучение Света София", "object_nom": 0.0, "adres": "кв. Княжево, ул. Морени №7", "finansiran": "3", "type": "2", "url": "https://www.svetasofia.com/" }, "geometry": { "type": "Point", "coordinates": [ 315629.3766999989748, 4727151.906399998813868 ] } },
{ "type": "Feature", "properties": { "objectid": 248, "object_nam": "90 СОУ Генерал Хосе де Сан Мартин", "object_nom": 90.0, "adres": "ж.к. Люлин II, ул. Стефана Клинчарова №3", "finansiran": "2", "type": "3", "url": "http://sou90.org/" }, "geometry": { "type": "Point", "coordinates": [ 315963.08049999922514, 4734631.277399998158216 ] } },
{ "type": "Feature", "properties": { "objectid": 249, "object_nam": "96 СОУ Лев Николаевич Толстой", "object_nom": 96.0, "adres": "ж.к. Люлин IV, ул. Никола Беловеждов №1", "finansiran": "2", "type": "3", "url": "http://96sou.com/" }, "geometry": { "type": "Point", "coordinates": [ 315250.191600002348423, 4733803.666900001466274 ] } },
{ "type": "Feature", "properties": { "objectid": 250, "object_nam": "97 СОУ Братя Миладинови", "object_nom": 97.0, "adres": "ж.к. Люлин V, ул. 504 №1", "finansiran": "2", "type": "3", "url": "http://97su.bg/" }, "geometry": { "type": "Point", "coordinates": [ 315065.221600003540516, 4733379.477699998766184 ] } },
{ "type": "Feature", "properties": { "objectid": 251, "object_nam": "ЧОУ „Изгрев“", "object_nom": 0.0, "adres": "кв. Панчарево, ул. Люляк №17", "finansiran": "3", "type": "2", "url": "https://izgrevou.com/" }, "geometry": { "type": "Point", "coordinates": [ 328969.529500000178814, 4719113.186799999326468 ] } },
{ "type": "Feature", "properties": { "objectid": 252, "object_nam": "ЧСОУ с чуждоезиков профил \"Абрахам Линкълн\"", "object_nom": 0.0, "adres": "с. Лозен, ул. Орлова круша №1", "finansiran": "3", "type": "3", "url": "http://aeasofia.com/" }, "geometry": { "type": "Point", "coordinates": [ 332683.405100002884865, 4721643.875500001013279 ] } },
{ "type": "Feature", "properties": { "objectid": 253, "object_nam": "128 СОУ Алберт Айнщайн", "object_nom": 128.0, "adres": "ж.к. Младост II", "finansiran": "2", "type": "3", "url": "https://128sou-sofia.info/" }, "geometry": { "type": "Point", "coordinates": [ 325438.270700000226498, 4725312.456000000238419 ] } },
{ "type": "Feature", "properties": { "objectid": 254, "object_nam": "Частно ОУ с изучаване на английски език Меридиан 22", "object_nom": 0.0, "adres": "ж.к. Младост II, до бл. 227", "finansiran": "3", "type": "2", "url": "http://school.meridian22.bg/" }, "geometry": { "type": "Point", "coordinates": [ 325477.011500000953674, 4725386.102800000458956 ] } },
{ "type": "Feature", "properties": { "objectid": 255, "object_nam": "ПРОФЕСИОНАЛНА ГИМНАЗИЯ ПО СЕЛСКО СТОПАНСТВО \"БУЗЕМА\"", "object_nom": 0.0, "adres": "кв. Овча купел, ул. Маестро Кънев №74", "finansiran": "1", "type": "5", "url": "https://pgss-buzema.eu/" }, "geometry": { "type": "Point", "coordinates": [ 316017.76410000026226, 4729591.471500001847744 ] } },
{ "type": "Feature", "properties": { "objectid": 256, "object_nam": "137 СОУ Ангел Кънчев", "object_nom": 137.0, "adres": "ж.к. Люлин I,  ул. 335 №15", "finansiran": "2", "type": "3", "url": "https://www.137sou.org/" }, "geometry": { "type": "Point", "coordinates": [ 316572.607100002467632, 4734806.127900000661612 ] } },
{ "type": "Feature", "properties": { "objectid": 257, "object_nam": "Национална гимназия за древни езици и култура Константин Кирил Философ", "object_nom": 0.0, "adres": "кв. Модерно предградие, ул. Баба №16", "finansiran": "1", "type": "4", "url": "https://ngdek.com/" }, "geometry": { "type": "Point", "coordinates": [ 317421.943400003015995, 4734746.715199999511242 ] } },
{ "type": "Feature", "properties": { "objectid": 258, "object_nam": "37 СОУ Райна Княгиня", "object_nom": 37.0, "adres": "ж.к. Люлин IX, ул. Луи Пастьор №1", "finansiran": "2", "type": "3", "url": "http://37su.eu/" }, "geometry": { "type": "Point", "coordinates": [ 317633.527699999511242, 4733978.139199998229742 ] } },
{ "type": "Feature", "properties": { "objectid": 259, "object_nam": "39 СОУ Петър Динеков", "object_nom": 39.0, "adres": "ж.к. Младост II, ул. Васил Карагьозов №6", "finansiran": "2", "type": "3", "url": "https://www.39su.eu/" }, "geometry": { "type": "Point", "coordinates": [ 325376.657399997115135, 4725027.641199998557568 ] } },
{ "type": "Feature", "properties": { "objectid": 260, "object_nam": "Частно основно училище с изучаване на немски език \"ВЕДА\"", "object_nom": 0.0, "adres": "ул. Иван Мърквичка №1", "finansiran": "3", "type": "2", "url": "https://wedaschule.com/osnovno-uchilishte/" }, "geometry": { "type": "Point", "coordinates": [ 320261.585400000214577, 4734145.787399999797344 ] } },
{ "type": "Feature", "properties": { "objectid": 261, "object_nam": "ЧСОУ \"Цар Симеон Велики\"", "object_nom": 0.0, "adres": "Иваняне, ул. Св.св. Кирил и Методий №66", "finansiran": "3", "type": "3", "url": "https://tzarsimeon.bg/" }, "geometry": { "type": "Point", "coordinates": [ 310541.547600001096725, 4733113.41330000013113 ] } },
{ "type": "Feature", "properties": { "objectid": 262, "object_nam": "Частно средно училище  \"Петко Рачов Славейков\"", "object_nom": 0.0, "adres": "кв. Карпузица, ул. Средорек №3", "finansiran": "3", "type": "3", "url": "https://www.slaveikov-school.org/" }, "geometry": { "type": "Point", "coordinates": [ 315836.44709999859333, 4728100.571899998933077 ] } },
{ "type": "Feature", "properties": { "objectid": 263, "object_nam": "ЧСУ \"Евлоги и Христо Георгиеви\"", "object_nom": 0.0, "adres": "бул. Цар Борис III №224, сградата на ДИУУ", "finansiran": "3", "type": "3", "url": "https://unischool.bg/" }, "geometry": { "type": "Point", "coordinates": [ 315792.2550999969244, 4727774.148699998855591 ] } },
{ "type": "Feature", "properties": { "objectid": 264, "object_nam": "ЧОУ \"ТОМАС ЕДИСЪН\"", "object_nom": 0.0, "adres": "бул. Никола Петков №73", "finansiran": "3", "type": "2", "url": "https://edisonschool.eu/" }, "geometry": { "type": "Point", "coordinates": [ 316216.226027197611984, 4728088.406254640780389 ] } },
{ "type": "Feature", "properties": { "objectid": 265, "object_nam": "Частно средно   училище \"Дружба\"", "object_nom": 0.0, "adres": "ж.к. Обеля II, ул. 106 №3", "finansiran": "3", "type": "3", "url": "https://drujba.org/" }, "geometry": { "type": "Point", "coordinates": [ 317777.833599999547005, 4736837.028999999165535 ] } },
{ "type": "Feature", "properties": { "objectid": 266, "object_nam": "82 ОУ Васил Априлов", "object_nom": 82.0, "adres": "кв. Горубляне, ул. Самоковско шосе №41", "finansiran": "2", "type": "2", "url": "https://www.82ou.bg/" }, "geometry": { "type": "Point", "coordinates": [ 328592.473700001835823, 4723814.32039999961853 ] } },
{ "type": "Feature", "properties": { "objectid": 267, "object_nam": "150 ОУ Цар Симеон I", "object_nom": 150.0, "adres": "ж.к. Дружба II, IV-ти Микрорайон, ул. Делийска воденица №11", "finansiran": "2", "type": "2", "url": "http://www.150ou.org/" }, "geometry": { "type": "Point", "coordinates": [ 328658.678999997675419, 4725507.705400001257658 ] } },
{ "type": "Feature", "properties": { "objectid": 268, "object_nam": "103 Основно училище \"Васил Левски\"", "object_nom": 103.0, "adres": "кв. Филиповци", "finansiran": "2", "type": "2", "url": "http://103ouvasillevski.bg/" }, "geometry": { "type": "Point", "coordinates": [ 314370.71169999986887, 4734051.841699998825788 ] } },
{ "type": "Feature", "properties": { "objectid": 269, "object_nam": "118 СОУ Академик Людмил Стоянов", "object_nom": 118.0, "adres": "ж.к. Младост I, ул. Д-р Стоян Чомаков №6", "finansiran": "2", "type": "3", "url": "http://sou118.com/" }, "geometry": { "type": "Point", "coordinates": [ 325915.969400003552437, 4727105.982700001448393 ] } },
{ "type": "Feature", "properties": { "objectid": 270, "object_nam": "4 Основно училище \"Проф. Джон Атанасов\"", "object_nom": 4.0, "adres": "ж.к. Дружба I, ул. Тирана №12", "finansiran": "2", "type": "2", "url": "https://4ou.bg/" }, "geometry": { "type": "Point", "coordinates": [ 327769.984899997711182, 4727147.056400001049042 ] } },
{ "type": "Feature", "properties": { "objectid": 271, "object_nam": "79 СОУ Индира Ганди", "object_nom": 79.0, "adres": "ж.к. Люлин VII, ул. полк. Ст. Топузов №6", "finansiran": "2", "type": "3", "url": "https://79su.bg/" }, "geometry": { "type": "Point", "coordinates": [ 316776.843900002539158, 4733176.191700000315905 ] } },
{ "type": "Feature", "properties": { "objectid": 272, "object_nam": "40 СОУ Луи Пастьор", "object_nom": 40.0, "adres": "ж.к. Люлин IX, ул. Иван Бойчев №17", "finansiran": "2", "type": "3", "url": "https://40-su.com/" }, "geometry": { "type": "Point", "coordinates": [ 317041.848099999129772, 4733864.52589999884367 ] } },
{ "type": "Feature", "properties": { "objectid": 273, "object_nam": "Частно средно училище с ранно чуждоезиково обучение \"ЕСПА\"", "object_nom": 0.0, "adres": "в.з. Киноцентър III, ул. Градина №23", "finansiran": "3", "type": "3", "url": "https://www.espa-bg.com/" }, "geometry": { "type": "Point", "coordinates": [ 319289.444300003349781, 4725931.246800001710653 ] } },
{ "type": "Feature", "properties": { "objectid": 274, "object_nam": "Частно основно училище \"Проф. д-р Васил Златарски\"", "object_nom": 0.0, "adres": "бул. Св.Климент Охридски №49", "finansiran": "3", "type": "4", "url": "https://bg.zlatarskischool.org/" }, "geometry": { "type": "Point", "coordinates": [ 324194.394100002944469, 4725787.316399998962879 ] } },
{ "type": "Feature", "properties": { "objectid": 275, "object_nam": "ЧГЕХП, ЧАСТНА ГИМНАЗИЯ С ЕЗИКОВ И ХУМАНИТАРЕН ПРОФИЛ \"ПРОФ.Д-Р ВАСИЛ ЗЛАТАРСКИ", "object_nom": 0.0, "adres": "бул. Св.Климент Охридски №49", "finansiran": "3", "type": "4", "url": "https://bg.zlatarskischool.org/international-school-sofia/" }, "geometry": { "type": "Point", "coordinates": [ 324205.020199999213219, 4725800.894299998879433 ] } }
]
}
