{
"type": "FeatureCollection",
"name": "sofia_tourist_routes",
"crs": { "type": "name", "properties": { "name": "urn:ogc:def:crs:OGC:1.3:CRS84" } },
"features": [
{ "type": "Feature", "properties": { "Name": "Communist Tour" }, "geometry": { "type": "MultiLineString", "coordinates": [ [ [ 23.320644785755736, 42.695006838304842, 0.0 ], [ 23.321038158567678, 42.694939172105428, 0.0 ], [ 23.322264191582864, 42.694777842535622, 0.0 ], [ 23.322500319620005, 42.695534076625329, 0.0 ], [ 23.32276033441287, 42.69641454381474, 0.0 ], [ 23.3239889, 42.696207, 0.0 ], [ 23.3242572, 42.6970034, 0.0 ], [ 23.32440193456959, 42.697573166624814, 0.0 ], [ 23.3265102, 42.6977762, 0.0 ], [ 23.326546702104235, 42.69775867244838, 0.0 ], [ 23.326537, 42.6973977, 0.0 ], [ 23.326377972588865, 42.697221401839762, 0.0 ], [ 23.326868107938587, 42.696806767225397, 0.0 ], [ 23.326865320980435, 42.696747933300479, 0.0 ], [ 23.32682081299405, 42.696738516800252, 0.0 ], [ 23.326334502086524, 42.696464669339854, 0.0 ], [ 23.3260658122168, 42.696545653611459, 0.0 ], [ 23.325918508219985, 42.696429139449286, 0.0 ], [ 23.326060341371345, 42.696269140964873, 0.0 ], [ 23.325744693758352, 42.695918750380194, 0.0 ], [ 23.3279747, 42.6946024, 0.0 ], [ 23.3288017, 42.6943218, 0.0 ], [ 23.329086, 42.6943258, 0.0 ], [ 23.3293971, 42.6944165, 0.0 ], [ 23.329542, 42.6945032, 0.0 ], [ 23.3298155, 42.6944677, 0.0 ], [ 23.3304056, 42.694657, 0.0 ], [ 23.3305666, 42.6946018, 0.0 ], [ 23.3342305, 42.6931193, 0.0 ], [ 23.3341446, 42.6927092, 0.0 ], [ 23.3344665, 42.6927013, 0.0 ], [ 23.3342412, 42.6922676, 0.0 ], [ 23.3348849, 42.6922834, 0.0 ], [ 23.3355501, 42.6916762, 0.0 ], [ 23.3339408, 42.6907062, 0.0 ], [ 23.3322885, 42.6905801, 0.0 ], [ 23.3317843, 42.6901542, 0.0 ], [ 23.3312157, 42.6903514, 0.0 ], [ 23.3286496, 42.6880861, 0.0 ], [ 23.3284243, 42.6880703, 0.0 ], [ 23.3218631, 42.6886203, 0.0 ], [ 23.3216056, 42.6886518, 0.0 ], [ 23.3203182, 42.6879184, 0.0 ], [ 23.3198461, 42.6879342, 0.0 ], [ 23.319374, 42.6854736, 0.0 ] ] ] } },
{ "type": "Feature", "properties": { "Name": "Culture Tour" }, "geometry": { "type": "MultiLineString", "coordinates": [ [ [ 23.320716427612794, 42.695036495777394, 0.0 ], [ 23.320944425845003, 42.69577952295397, 0.0 ], [ 23.322471990892438, 42.695542346376996, 0.0 ], [ 23.322759747332622, 42.696486284990286, 0.0 ], [ 23.3228838, 42.6967387, 0.0 ], [ 23.3235061, 42.6966441, 0.0 ], [ 23.3236026, 42.6966756, 0.0 ], [ 23.3236616, 42.6968491, 0.0 ], [ 23.3243268, 42.696715, 0.0 ], [ 23.3250349, 42.6967781, 0.0 ], [ 23.3258718, 42.6964312, 0.0 ], [ 23.3260542, 42.6965776, 0.0 ], [ 23.326332933961101, 42.696491162287245, 0.0 ], [ 23.326610815672982, 42.696653776269109, 0.0 ] ] ] } },
{ "type": "Feature", "properties": { "Name": "Culture Tour" }, "geometry": { "type": "MultiLineString", "coordinates": [ [ [ 23.324623050701707, 42.695052404073174, 0.0 ], [ 23.3250215, 42.6948941, 0.0 ] ] ] } },
{ "type": "Feature", "properties": { "Name": "Free Sofia Tour" }, "geometry": { "type": "MultiLineString", "coordinates": [ [ [ 23.320673602165375, 42.69504878621818, 0.0 ], [ 23.320898065975317, 42.695809592547164, 0.0 ], [ 23.3212266, 42.695921, 0.0 ], [ 23.3216342, 42.6962443, 0.0 ], [ 23.3218488, 42.6965045, 0.0 ], [ 23.321999, 42.6971038, 0.0 ], [ 23.3221385, 42.6977346, 0.0 ], [ 23.3223316, 42.6987754, 0.0 ], [ 23.32233097793145, 42.699497145936832, 0.0 ], [ 23.322354729803877, 42.699602334318463, 0.0 ], [ 23.322617521935754, 42.700067870502281, 0.0 ], [ 23.323487639387483, 42.699918938589178, 0.0 ], [ 23.323537782443481, 42.699860417357911, 0.0 ], [ 23.323276986296406, 42.698907416961511, 0.0 ], [ 23.322926955794816, 42.697769600263072, 0.0 ], [ 23.3238246, 42.697498, 0.0 ], [ 23.324243, 42.6974033, 0.0 ], [ 23.3240606, 42.6968277, 0.0 ], [ 23.3242978, 42.6966787, 0.0 ], [ 23.325025090369127, 42.696757100890849, 0.0 ], [ 23.32568268477829, 42.696471705715794, 0.0 ], [ 23.325711632172641, 42.696339917428745, 0.0 ], [ 23.327166881418517, 42.695735037259524, 0.0 ], [ 23.325671988001019, 42.694387012017245, 0.0 ], [ 23.3267614, 42.6937315, 0.0 ], [ 23.3274105, 42.6940469, 0.0 ], [ 23.328022, 42.6936684, 0.0 ], [ 23.3287478, 42.6943856, 0.0 ], [ 23.3292949, 42.6951662, 0.0 ], [ 23.3300567, 42.6962702, 0.0 ], [ 23.3302927, 42.6962544, 0.0 ], [ 23.3317733, 42.6959942, 0.0 ], [ 23.3321595, 42.6956709, 0.0 ], [ 23.3326316, 42.6954107, 0.0 ], [ 23.333093, 42.695387, 0.0 ], [ 23.3336294, 42.695663, 0.0 ], [ 23.3339298, 42.6956394, 0.0 ], [ 23.3335757, 42.6946616, 0.0 ], [ 23.3328355, 42.6936286, 0.0 ], [ 23.3325136, 42.6935497, 0.0 ], [ 23.3322561, 42.6936443, 0.0 ] ] ] } },
{ "type": "Feature", "properties": { "Name": "Culture Tour" }, "geometry": { "type": "MultiLineString", "coordinates": [ [ [ 23.3258718, 42.6964312, 0.0 ], [ 23.3260167, 42.6962701, 0.0 ], [ 23.3257216, 42.6959423, 0.0 ], [ 23.3255338, 42.6959305, 0.0 ], [ 23.3242785, 42.694724, 0.0 ], [ 23.324123, 42.6946294, 0.0 ], [ 23.324021, 42.6946688, 0.0 ], [ 23.32379303785649, 42.694430544619557, 0.0 ], [ 23.324611942987751, 42.693898871836801, 0.0 ], [ 23.32456980588794, 42.693854859125743, 0.0 ], [ 23.323734652090678, 42.694374845009634, 0.0 ], [ 23.322964144605823, 42.693710041469501, 0.0 ], [ 23.322965195139513, 42.693620507618306, 0.0 ], [ 23.323960328980743, 42.69256456563766, 0.0 ], [ 23.3237264, 42.6924569, 0.0 ], [ 23.3230559, 42.6924923, 0.0 ], [ 23.3230129, 42.6921296, 0.0 ], [ 23.322936209962378, 42.692073450927268, 0.0 ], [ 23.322250518535558, 42.692126662153051, 0.0 ], [ 23.32187, 42.6900636, 0.0 ], [ 23.3253703, 42.6897245, 0.0 ], [ 23.3264002, 42.6903515, 0.0 ], [ 23.3266996, 42.6903875, 0.0 ], [ 23.3267935, 42.6904289, 0.0 ] ] ] } },
{ "type": "Feature", "properties": { "Name": "City Sightseeing Tour" }, "geometry": { "type": "MultiLineString", "coordinates": [ [ [ 23.3217591, 42.697758, 0.0 ], [ 23.3206896, 42.6979768, 0.0 ], [ 23.3187872, 42.6983178, 0.0 ], [ 23.3175507, 42.6985347, 0.0 ], [ 23.3156758, 42.6989309, 0.0 ], [ 23.3138064, 42.6992423, 0.0 ], [ 23.3124625, 42.6994808, 0.0 ], [ 23.3114728, 42.6996858, 0.0 ], [ 23.3111161, 42.6997608, 0.0 ], [ 23.310797, 42.6998257, 0.0 ], [ 23.3104992, 42.699881, 0.0 ], [ 23.3102203, 42.6999342, 0.0 ], [ 23.3100325, 42.6999736, 0.0 ], [ 23.3100164, 42.6999381, 0.0 ], [ 23.3097106, 42.6987317, 0.0 ], [ 23.3096462, 42.6985504, 0.0 ], [ 23.3095175, 42.6980813, 0.0 ], [ 23.3090991, 42.6965279, 0.0 ], [ 23.3088201, 42.6955383, 0.0 ], [ 23.3087879, 42.6953096, 0.0 ], [ 23.3087558, 42.6950178, 0.0 ], [ 23.3088523, 42.6945487, 0.0 ], [ 23.3090776, 42.6941465, 0.0 ], [ 23.3095551, 42.6934841, 0.0 ], [ 23.3101666, 42.6925733, 0.0 ], [ 23.3101076, 42.692455, 0.0 ], [ 23.3100432, 42.6923604, 0.0 ], [ 23.3100164, 42.6921869, 0.0 ], [ 23.3097374, 42.691907, 0.0 ], [ 23.3086753, 42.6913629, 0.0 ], [ 23.3071142, 42.6905388, 0.0 ], [ 23.3064115, 42.6901681, 0.0 ], [ 23.3064866, 42.690038, 0.0 ], [ 23.3068836, 42.6897738, 0.0 ], [ 23.3084822, 42.688512, 0.0 ], [ 23.3095872, 42.6876169, 0.0 ], [ 23.3122855, 42.6854955, 0.0 ], [ 23.3127147, 42.6850499, 0.0 ], [ 23.313911, 42.6841469, 0.0 ], [ 23.31478, 42.6834094, 0.0 ], [ 23.3160675, 42.6824078, 0.0 ], [ 23.3163786, 42.6821672, 0.0 ], [ 23.3165449, 42.6820884, 0.0 ], [ 23.3174461, 42.6818754, 0.0 ], [ 23.3181918, 42.6819622, 0.0 ], [ 23.3189106, 42.6821357, 0.0 ], [ 23.3193773, 42.6822264, 0.0 ], [ 23.3208686, 42.6827351, 0.0 ], [ 23.3208177, 42.6835465, 0.0 ], [ 23.3209598, 42.6843578, 0.0 ], [ 23.3213085, 42.6859489, 0.0 ], [ 23.3263296, 42.6871516, 0.0 ], [ 23.328309, 42.6876367, 0.0 ], [ 23.3301276, 42.6891785, 0.0 ], [ 23.3313507, 42.6901524, 0.0 ], [ 23.334403, 42.6883346, 0.0 ], [ 23.3345961, 42.688445, 0.0 ], [ 23.335036, 42.6887092, 0.0 ], [ 23.3376485, 42.6903811, 0.0 ], [ 23.3378416, 42.6904954, 0.0 ], [ 23.3379167, 42.6905545, 0.0 ], [ 23.337509, 42.690803, 0.0 ], [ 23.3373159, 42.6907635, 0.0 ], [ 23.3372086, 42.6907872, 0.0 ], [ 23.3359265, 42.6918084, 0.0 ], [ 23.3348376, 42.6927153, 0.0 ], [ 23.3346176, 42.6929006, 0.0 ], [ 23.3343655, 42.6930938, 0.0 ], [ 23.3343333, 42.6931529, 0.0 ], [ 23.334741, 42.6945289, 0.0 ], [ 23.3351755, 42.6960469, 0.0 ], [ 23.3353204, 42.6963465, 0.0 ], [ 23.3354545, 42.6964845, 0.0 ], [ 23.3355349, 42.6965476, 0.0 ], [ 23.3355671, 42.6966304, 0.0 ], [ 23.3355671, 42.6967329, 0.0 ], [ 23.3355121, 42.6968009, 0.0 ], [ 23.3354249, 42.6968531, 0.0 ], [ 23.3353163, 42.6968837, 0.0 ], [ 23.3352131, 42.6968709, 0.0 ], [ 23.3351245, 42.6968413, 0.0 ], [ 23.335036, 42.6967842, 0.0 ], [ 23.3349998, 42.6967388, 0.0 ], [ 23.3349958, 42.6966481, 0.0 ], [ 23.3350743, 42.6964786, 0.0 ], [ 23.3351366, 42.696313, 0.0 ], [ 23.3351353, 42.6960686, 0.0 ], [ 23.3349925, 42.6955339, 0.0 ], [ 23.3348282, 42.695559, 0.0 ], [ 23.3345687, 42.6955939, 0.0 ], [ 23.3337447, 42.6956886, 0.0 ], [ 23.3335486, 42.6956038, 0.0 ], [ 23.3333847, 42.6954915, 0.0 ], [ 23.3329627, 42.6953278, 0.0 ] ] ] } },
{ "type": "Feature", "properties": { "Name": "City Sightseeing Tour" }, "geometry": { "type": "MultiLineString", "coordinates": [ [ [ 23.3218503, 42.6977304, 0.0 ], [ 23.3218825, 42.6978171, 0.0 ], [ 23.3221453, 42.6988027, 0.0 ], [ 23.3223009, 42.6994059, 0.0 ], [ 23.3225262, 42.7004349, 0.0 ], [ 23.3229715, 42.7018975, 0.0 ], [ 23.3238083, 42.7046353, 0.0 ], [ 23.3239209, 42.7046344, 0.0 ], [ 23.3240711, 42.7046472, 0.0 ], [ 23.3242642, 42.7047162, 0.0 ], [ 23.3244359, 42.7048344, 0.0 ], [ 23.3245164, 42.7049881, 0.0 ], [ 23.3245325, 42.7051025, 0.0 ], [ 23.3245002, 42.7052365, 0.0 ], [ 23.3244078, 42.7053666, 0.0 ], [ 23.3242617, 42.7054691, 0.0 ], [ 23.3241155, 42.7055144, 0.0 ], [ 23.3239478, 42.7055243, 0.0 ], [ 23.3237708, 42.7055085, 0.0 ], [ 23.3236098, 42.7054454, 0.0 ], [ 23.3234945, 42.7053666, 0.0 ], [ 23.3234006, 42.7052562, 0.0 ], [ 23.323355, 42.7051557, 0.0 ], [ 23.3233631, 42.7050512, 0.0 ], [ 23.3233872, 42.704927, 0.0 ], [ 23.3234703, 42.7048206, 0.0 ], [ 23.323583, 42.7047309, 0.0 ], [ 23.3237171, 42.7046767, 0.0 ], [ 23.32376, 42.704655, 0.0 ], [ 23.3237547, 42.7046097, 0.0 ], [ 23.3234596, 42.7035808, 0.0 ], [ 23.3231324, 42.7025125, 0.0 ], [ 23.3223706, 42.7001786, 0.0 ], [ 23.3217591, 42.697758, 0.0 ] ] ] } },
{ "type": "Feature", "properties": { "Name": "City Sightseeing Tour" }, "geometry": { "type": "MultiLineString", "coordinates": [ [ [ 23.3259165, 42.6964924, 0.0 ], [ 23.3245218, 42.697068, 0.0 ], [ 23.3241141, 42.6973085, 0.0 ], [ 23.3238673, 42.6975411, 0.0 ], [ 23.3234811, 42.6974504, 0.0 ], [ 23.3228052, 42.6975451, 0.0 ], [ 23.3223438, 42.6976121, 0.0 ], [ 23.3218503, 42.6977264, 0.0 ] ] ] } },
{ "type": "Feature", "properties": { "Name": "City Sightseeing Tour" }, "geometry": { "type": "MultiLineString", "coordinates": [ [ [ 23.3329627, 42.6953278, 0.0 ], [ 23.3327401, 42.6951795, 0.0 ], [ 23.3320212, 42.6940696, 0.0 ], [ 23.331989, 42.6940834, 0.0 ], [ 23.3299077, 42.694935, 0.0 ], [ 23.3259165, 42.6964924, 0.0 ] ] ] } }
]
}
