{
"type": "FeatureCollection",
"name": "sofiaplan_schools_points_20230705_shortversion_4326",
"crs": { "type": "name", "properties": { "name": "urn:ogc:def:crs:OGC:1.3:CRS84" } },
"features": [
{ "type": "Feature", "properties": { "objectid": 1, "object_nam": "Национално училище за  танцово изкуство", "object_nom": 0.0, "adres": "бул. Шипченски проход №48", "finansiran": "1", "type": "4", "url": "https://nutibg.com/" }, "geometry": { "type": "Point", "coordinates": [ 23.365938244387319, 42.677880218721498 ] } },
{ "type": "Feature", "properties": { "objectid": 2, "object_nam": "22 СОУ Георги С. Раковски", "object_nom": 22.0, "adres": "бул. Витоша №132", "finansiran": "2", "type": "3", "url": "https://www.22seu.bg/" }, "geometry": { "type": "Point", "coordinates": [ 23.314593553293136, 42.684760796337777 ] } },
{ "type": "Feature", "properties": { "objectid": 4, "object_nam": "Национална природо-математическа гимназия Академик Любомир Чакалов", "object_nom": 0.0, "adres": "ж.к. Лозенец, ул. Бигла №52", "finansiran": "1", "type": "4", "url": "https://npmg.org/" }, "geometry": { "type": "Point", "coordinates": [ 23.330108645755683, 42.670529793660272 ] } },
{ "type": "Feature", "properties": { "objectid": 5, "object_nam": "21 СОУ Христо Ботев", "object_nom": 21.0, "adres": "ж.к. Лозенец, ул. Люботрън №12", "finansiran": "2", "type": "3", "url": "http://www.21su.bg/" }, "geometry": { "type": "Point", "coordinates": [ 23.315456715723126, 42.6694124390268 ] } },
{ "type": "Feature", "properties": { "objectid": 6, "object_nam": "124 ОУ Васил Левски", "object_nom": 124.0, "adres": "кв. Подуяне, ул. Вършец №13", "finansiran": "2", "type": "2", "url": "http://www.124ou.org/" }, "geometry": { "type": "Point", "coordinates": [ 23.371414015003985, 42.697775498329094 ] } },
{ "type": "Feature", "properties": { "objectid": 7, "object_nam": "94 СОУ Дим. Страшимиров", "object_nom": 94.0, "adres": "кв. Христо Ботев, ул. 511 №22", "finansiran": "2", "type": "3", "url": "http://school94-sofia.com/" }, "geometry": { "type": "Point", "coordinates": [ 23.38286157870645, 42.690152194473015 ] } },
{ "type": "Feature", "properties": { "objectid": 8, "object_nam": "17 СОУ Дамян Груев", "object_nom": 17.0, "adres": "ж.к. Западен парк, ул. Сава Михайлов №64", "finansiran": "2", "type": "3", "url": "http://17su.bg/" }, "geometry": { "type": "Point", "coordinates": [ 23.277906161683248, 42.70561949390121 ] } },
{ "type": "Feature", "properties": { "objectid": 9, "object_nam": "123 СОУ Стефан Стамболов", "object_nom": 123.0, "adres": "ж.к. Красна поляна, ул. Братин дол №26", "finansiran": "2", "type": "3", "url": "https://123sustefanstambolov.com/" }, "geometry": { "type": "Point", "coordinates": [ 23.278256414152999, 42.698709159886683 ] } },
{ "type": "Feature", "properties": { "objectid": 10, "object_nam": "49 ОУ Бенито Хуарес", "object_nom": 49.0, "adres": "ж.к. Сухата река, ул. Константин Фотинов №4", "finansiran": "2", "type": "2", "url": "https://www.49ousofia.com/" }, "geometry": { "type": "Point", "coordinates": [ 23.363371380740716, 42.700982687737117 ] } },
{ "type": "Feature", "properties": { "objectid": 11, "object_nam": "166 Специализирано спортно училище \"Васил Левски\"", "object_nom": 166.0, "adres": "ж.к. Сухата река, ул. Константин Фотинов №4", "finansiran": "2", "type": "4", "url": "https://166su.com/" }, "geometry": { "type": "Point", "coordinates": [ 23.36297479385432, 42.701275097185984 ] } },
{ "type": "Feature", "properties": { "objectid": 12, "object_nam": "199 ОУ Свети апостол Йоан Богослов", "object_nom": 199.0, "adres": "ж.к. Левски Г, ул. ПОРУЧИК ГЕОРГИ КЮМЮРДЖИЕВ №30", "finansiran": "2", "type": "2", "url": "https://www.199ou.bg/" }, "geometry": { "type": "Point", "coordinates": [ 23.37828997189618, 42.713725827661733 ] } },
{ "type": "Feature", "properties": { "objectid": 13, "object_nam": "44 СОУ Неофит Бозвели", "object_nom": 44.0, "adres": "ж.к. Сухата река, ул. Плакалница №45", "finansiran": "2", "type": "3", "url": "http://44sou.eu/" }, "geometry": { "type": "Point", "coordinates": [ 23.367299328619126, 42.701204044290677 ] } },
{ "type": "Feature", "properties": { "objectid": 14, "object_nam": "Софийска духовна семинария Св. Иван Рилски (СОУ 1-12 клас)", "object_nom": 0.0, "adres": "ж.к. Лозенец, пл. Велчова завера №2", "finansiran": "1", "type": "5", "url": "https://sofia-seminaria.org/" }, "geometry": { "type": "Point", "coordinates": [ 23.335658957399882, 42.675530472053026 ] } },
{ "type": "Feature", "properties": { "objectid": 15, "object_nam": "20 ОУ Тодор Минков", "object_nom": 20.0, "adres": "ул. Княз Борис I №27", "finansiran": "2", "type": "2", "url": "https://20ou.bg/" }, "geometry": { "type": "Point", "coordinates": [ 23.315941525129574, 42.688599648268159 ] } },
{ "type": "Feature", "properties": { "objectid": 16, "object_nam": "ПРОФЕСИОНАЛНА ГИМНАЗИЯ ПО АУДИО-, ВИДЕО- И ТЕЛЕКОМУНИКАЦИЯ \"А. С. ПОПОВ\"", "object_nom": 0.0, "adres": "бул. Сливница №10", "finansiran": "1", "type": "5", "url": "https://aspopov.bg/" }, "geometry": { "type": "Point", "coordinates": [ 23.296560770818356, 42.707960908283525 ] } },
{ "type": "Feature", "properties": { "objectid": 17, "object_nam": "41 ОУ Патриарх Евтимий", "object_nom": 41.0, "adres": "ул. Цар Самуил №24", "finansiran": "2", "type": "2", "url": "http://www.41ou.com/" }, "geometry": { "type": "Point", "coordinates": [ 23.316600158408246, 42.692563468233075 ] } },
{ "type": "Feature", "properties": { "objectid": 18, "object_nam": "120 ОУ Г. С. Раковски", "object_nom": 120.0, "adres": "ж.к. Лозенец, пл. Папа Йоан Павел II №7", "finansiran": "2", "type": "2", "url": "http://www.daskalo.com/ou120/" }, "geometry": { "type": "Point", "coordinates": [ 23.324539208244726, 42.683463425840266 ] } },
{ "type": "Feature", "properties": { "objectid": 19, "object_nam": "119 СОУ Академик Михаил Арнаудов", "object_nom": 119.0, "adres": "ж.к. Изток, ул. Латинка №11", "finansiran": "2", "type": "3", "url": "https://119su.bg/" }, "geometry": { "type": "Point", "coordinates": [ 23.354635606816515, 42.675085651104567 ] } },
{ "type": "Feature", "properties": { "objectid": 20, "object_nam": "138 СОУ Професор В. Златарски", "object_nom": 138.0, "adres": "ж.к. Гео Милев, ул. Алфред Нобел №3", "finansiran": "2", "type": "3", "url": "http://www.138sou.com/" }, "geometry": { "type": "Point", "coordinates": [ 23.358624238970989, 42.678444866758674 ] } },
{ "type": "Feature", "properties": { "objectid": 21, "object_nam": "105 СОУ \"Атанас Далчев\"", "object_nom": 105.0, "adres": "ул. Св. Пимен Зографски №7", "finansiran": "2", "type": "3", "url": "http://105sou.eu/" }, "geometry": { "type": "Point", "coordinates": [ 23.35100294846718, 42.664963879357273 ] } },
{ "type": "Feature", "properties": { "objectid": 22, "object_nam": "Частно средно общообразователно училище   \"Орфей\"", "object_nom": 0.0, "adres": "ж.к. Гоце Делчев, ул. Георги Измирлиев №24", "finansiran": "3", "type": "3", "url": "https://www.orfei.net/" }, "geometry": { "type": "Point", "coordinates": [ 23.293185573235547, 42.666293713222046 ] } },
{ "type": "Feature", "properties": { "objectid": 23, "object_nam": "ЧАСТНА ПРОФЕСИОНАЛНА   ГИМНАЗИЯ ПО БАНКОВО ДЕЛО, ТЪРГОВИЯ И ФИНАНСИ", "object_nom": 0.0, "adres": "бул. Витоша №91", "finansiran": "3", "type": "5", "url": "https://btf.ntbg.bg/" }, "geometry": { "type": "Point", "coordinates": [ 23.313824199855333, 42.680759557389521 ] } },
{ "type": "Feature", "properties": { "objectid": 24, "object_nam": "Втора английска езикова гимназия \"Томас Джеферсън\"", "object_nom": 0.0, "adres": "ул. Траянова врата №26", "finansiran": "2", "type": "4", "url": "https://2els.com/" }, "geometry": { "type": "Point", "coordinates": [ 23.300691924029078, 42.675088085483942 ] } },
{ "type": "Feature", "properties": { "objectid": 25, "object_nam": "Частно основно училище \"Банкерче\"", "object_nom": 0.0, "adres": "ул. Нишава №107", "finansiran": "3", "type": "2", "url": "https://www.bankerche.com/" }, "geometry": { "type": "Point", "coordinates": [ 23.298040665691573, 42.674215023191145 ] } },
{ "type": "Feature", "properties": { "objectid": 26, "object_nam": "ЧАСТНА  ПРОФЕСИОНАЛНА ГИМНАЗИЯ \"БАНКЕР\"", "object_nom": 0.0, "adres": "ул. Нишава №107", "finansiran": "3", "type": "5", "url": "https://www.banker-school.com/" }, "geometry": { "type": "Point", "coordinates": [ 23.298190110067551, 42.674220885928953 ] } },
{ "type": "Feature", "properties": { "objectid": 27, "object_nam": "135 СОУ \"Ян Амос Коменски\"", "object_nom": 135.0, "adres": "ул. Булина ливада №47", "finansiran": "2", "type": "3", "url": "http://www.135sou.eu/" }, "geometry": { "type": "Point", "coordinates": [ 23.282095956100218, 42.704955601301407 ] } },
{ "type": "Feature", "properties": { "objectid": 28, "object_nam": "109 ОУ Христо Смирненски", "object_nom": 109.0, "adres": "ж.к. Слатина, ул. Слатинска №24", "finansiran": "2", "type": "2", "url": "https://109ou.net/" }, "geometry": { "type": "Point", "coordinates": [ 23.369710859016806, 42.689959754702613 ] } },
{ "type": "Feature", "properties": { "objectid": 29, "object_nam": "31 Средно училище за чужди езици и мениджмънт Иван Вазов", "object_nom": 31.0, "adres": "ж.к. Гео Милев, ул. Гео Милев №2", "finansiran": "2", "type": "4", "url": "https://ivanvazov.com/" }, "geometry": { "type": "Point", "coordinates": [ 23.352428442883721, 42.686233761137821 ] } },
{ "type": "Feature", "properties": { "objectid": 30, "object_nam": "47 СОУ Христо Г. Данов", "object_nom": 47.0, "adres": "ж.к. Иван Вазов, ул. Димитър Манов №18", "finansiran": "2", "type": "3", "url": "https://www.47suhristodanov.com/" }, "geometry": { "type": "Point", "coordinates": [ 23.309192039021998, 42.679694208257068 ] } },
{ "type": "Feature", "properties": { "objectid": 31, "object_nam": "107 ОУ Хан Крум", "object_nom": 107.0, "adres": "ж.к. Лозенец, ул. Димитър Димов №13", "finansiran": "2", "type": "2", "url": "http://www.107ou.com/" }, "geometry": { "type": "Point", "coordinates": [ 23.329785251199414, 42.67621153661667 ] } },
{ "type": "Feature", "properties": { "objectid": 32, "object_nam": "ЧАСТНА ПРОФЕСИОНАЛНА ГИМНАЗИЯ ПО ИКОНОМИКА, ИНФОРМАТИКА И ТУРИЗЪМ  БУЛПРОГРЕС", "object_nom": 0.0, "adres": "ул. Суходолска №13", "finansiran": "3", "type": "5", "url": "https://bulprogress.com/" }, "geometry": { "type": "Point", "coordinates": [ 23.283278073029994, 42.7010999067938 ] } },
{ "type": "Feature", "properties": { "objectid": 33, "object_nam": "Частно основно училище  \" Св. Климент Охридски \"", "object_nom": 0.0, "adres": "кв. Изток, ул. Лъчезар Станчев №13", "finansiran": "3", "type": "2", "url": "https://saintkliment.com/" }, "geometry": { "type": "Point", "coordinates": [ 23.35901611583536, 42.666515615274704 ] } },
{ "type": "Feature", "properties": { "objectid": 34, "object_nam": "130 СОУ Стефан Караджа", "object_nom": 130.0, "adres": "кв. Васил Левски, ул. Константин Фотинов №118", "finansiran": "2", "type": "3", "url": "https://130cy.com/" }, "geometry": { "type": "Point", "coordinates": [ 23.378429373289254, 42.703930434464283 ] } },
{ "type": "Feature", "properties": { "objectid": 35, "object_nam": "148 СОУ \"ПРОФ. ЛЮБОМИР МИЛЕТИЧ\"", "object_nom": 148.0, "adres": "ул. Слатинска №35", "finansiran": "2", "type": "3", "url": "http://148-ou.com/" }, "geometry": { "type": "Point", "coordinates": [ 23.372433358519512, 42.685896390952863 ] } },
{ "type": "Feature", "properties": { "objectid": 36, "object_nam": "57 Специализирано спортно училище   \"Свети  Наум Охридски\"", "object_nom": 57.0, "adres": "ул. Доктор Калинков №40", "finansiran": "2", "type": "4", "url": "https://57su.com/" }, "geometry": { "type": "Point", "coordinates": [ 23.292539032266806, 42.6991401783051 ] } },
{ "type": "Feature", "properties": { "objectid": 37, "object_nam": "ПРОФЕСИОНАЛНА ГИМНАЗИЯ ПО ТРАНСПОРТ МАКГАХАН", "object_nom": 0.0, "adres": "кв. Редута, ул. Кадемлия №15", "finansiran": "1", "type": "5", "url": "https://www.pgtmakgahan.eu/" }, "geometry": { "type": "Point", "coordinates": [ 23.359522930950046, 42.691917833973982 ] } },
{ "type": "Feature", "properties": { "objectid": 38, "object_nam": "23 СОУ Фредерик Жолио Кюри", "object_nom": 23.0, "adres": "бул. Ситняково №21", "finansiran": "2", "type": "3", "url": "http://23su.info/" }, "geometry": { "type": "Point", "coordinates": [ 23.355602953895097, 42.695371661161701 ] } },
{ "type": "Feature", "properties": { "objectid": 39, "object_nam": "28 СОУ Алеко Константинов", "object_nom": 28.0, "adres": "бул. Възкресение №60", "finansiran": "2", "type": "3", "url": "http://28sou.eu/" }, "geometry": { "type": "Point", "coordinates": [ 23.285176291980395, 42.69635191145364 ] } },
{ "type": "Feature", "properties": { "objectid": 40, "object_nam": "92 СОУ Димитър Талев", "object_nom": 92.0, "adres": "ж.к. Красна поляна, ул. Добротич №21", "finansiran": "2", "type": "3", "url": "https://www.92dimitartalev.com/" }, "geometry": { "type": "Point", "coordinates": [ 23.280088934650834, 42.693487448476766 ] } },
{ "type": "Feature", "properties": { "objectid": 41, "object_nam": "СПГЕ, ПРОФЕСИОНАЛНА ГИМНАЗИЯ ПО ЕЛЕКТРОНИКА \"ДЖОН АТАНАСОВ\";", "object_nom": 0.0, "adres": "ж.к. Изток, ул. Райко Алексиев №46", "finansiran": "1", "type": "5", "url": "https://spge-bg.com/" }, "geometry": { "type": "Point", "coordinates": [ 23.361470428230561, 42.670662820388024 ] } },
{ "type": "Feature", "properties": { "objectid": 42, "object_nam": "ПРОФЕСИОНАЛНА ГИМНАЗИЯ ПО ОБЛЕКЛО \"КНЯГИНЯ МАРИЯ ЛУИЗА \"", "object_nom": 0.0, "adres": "бул. Черни връх №37", "finansiran": "1", "type": "5", "url": "https://pgo-sofia.com/" }, "geometry": { "type": "Point", "coordinates": [ 23.32054163654189, 42.670170829851997 ] } },
{ "type": "Feature", "properties": { "objectid": 43, "object_nam": "139 ОУ Захарий Круша", "object_nom": 139.0, "adres": "ж.к. Лозенец, ул. Димитър Хаджикоцев №44", "finansiran": "2", "type": "2", "url": "http://139ou.com/" }, "geometry": { "type": "Point", "coordinates": [ 23.316383652433021, 42.675895472408406 ] } },
{ "type": "Feature", "properties": { "objectid": 44, "object_nam": "Частно начално училище \"Прогресивно образование\"", "object_nom": 0.0, "adres": "ул. Нишава №107", "finansiran": "3", "type": "1", "url": "https://school1.transform.bg/" }, "geometry": { "type": "Point", "coordinates": [ 23.298200485515931, 42.674305984471687 ] } },
{ "type": "Feature", "properties": { "objectid": 45, "object_nam": "143 ОУ Г.Бенковски", "object_nom": 143.0, "adres": "ж.к. Сухата река, ул. Тодорини кукли №9", "finansiran": "2", "type": "2", "url": "https://www.143ou.com/" }, "geometry": { "type": "Point", "coordinates": [ 23.355809521790381, 42.702748497217968 ] } },
{ "type": "Feature", "properties": { "objectid": 46, "object_nam": "35 Средно езиково училище Добри Войников", "object_nom": 35.0, "adres": "ж.к. Лозенец, ул. Добри Войников №16", "finansiran": "2", "type": "4", "url": "https://35sou.bg/" }, "geometry": { "type": "Point", "coordinates": [ 23.329108496217305, 42.68231591228605 ] } },
{ "type": "Feature", "properties": { "objectid": 47, "object_nam": "СОФИЙСКА ГИМНАЗИЯ ПО СТРОИТЕЛСТВО, АРХИТЕКТУРА И ГЕОДЕЗИЯ \"ХРИСТО БОТЕВ\"", "object_nom": 0.0, "adres": "бул. Евлоги Георгиев №34", "finansiran": "1", "type": "5", "url": "http://www.sgcag.info/" }, "geometry": { "type": "Point", "coordinates": [ 23.3311345950715, 42.68548645784719 ] } },
{ "type": "Feature", "properties": { "objectid": 48, "object_nam": "ПРОФЕСИОНАЛНА ГИМНАЗИЯ ПО ФРИЗЬОРСТВО И КОЗМЕТИКА \"КНЯГИНЯ ЕВДОКИЯ\"", "object_nom": 0.0, "adres": "ж.к. Изток, ул. Атанас Далчев №8", "finansiran": "1", "type": "5", "url": "https://spgke.com/" }, "geometry": { "type": "Point", "coordinates": [ 23.355410719199138, 42.672569124813307 ] } },
{ "type": "Feature", "properties": { "objectid": 49, "object_nam": "126 ОУ П. Ю. Тодоров", "object_nom": 126.0, "adres": "ж.к. Стрелбище, бул. България №43", "finansiran": "2", "type": "2", "url": "http://126ou.net/" }, "geometry": { "type": "Point", "coordinates": [ 23.296122931988595, 42.673593602787186 ] } },
{ "type": "Feature", "properties": { "objectid": 50, "object_nam": "113 СОУ Сава Филаретов", "object_nom": 113.0, "adres": "бул. Тодор Александров №177", "finansiran": "2", "type": "3", "url": "http://www.113su.net/" }, "geometry": { "type": "Point", "coordinates": [ 23.291333474359025, 42.703688738371213 ] } },
{ "type": "Feature", "properties": { "objectid": 51, "object_nam": "33 ЕЗИКОВА ГИМНАЗИЯ \"СВЕТА СОФИЯ\"", "object_nom": 33.0, "adres": "ж.к. Света Троица, ул. Пловдив№20", "finansiran": "2", "type": "4", "url": "https://33eg.eu/" }, "geometry": { "type": "Point", "coordinates": [ 23.29546161142002, 42.711687164011622 ] } },
{ "type": "Feature", "properties": { "objectid": 52, "object_nam": "45 ОУ Константин Величков", "object_nom": 45.0, "adres": "ж.к. Света Троица, ул. Пловдив №20", "finansiran": "2", "type": "2", "url": "https://www.kv45ou.com/" }, "geometry": { "type": "Point", "coordinates": [ 23.296099456756664, 42.71108306215924 ] } },
{ "type": "Feature", "properties": { "objectid": 53, "object_nam": "43 ОУ Христо Смирненски", "object_nom": 43.0, "adres": "бул. Сливница №45", "finansiran": "2", "type": "2", "url": "https://43ou.com/" }, "geometry": { "type": "Point", "coordinates": [ 23.300919281327591, 42.707144254675917 ] } },
{ "type": "Feature", "properties": { "objectid": 54, "object_nam": "НФСГ, Финансово-стопанска гимназия", "object_nom": 0.0, "adres": "ж.к. Лозенец, ул. Розова долина №1", "finansiran": "1", "type": "5", "url": "https://www.nfsg-sofia.net/" }, "geometry": { "type": "Point", "coordinates": [ 23.325940723752208, 42.683140571602884 ] } },
{ "type": "Feature", "properties": { "objectid": 55, "object_nam": "ЧАСТНО  СРЕДНО ОБЩООБРАЗОВАТЕЛНО   УЧИЛИЩЕ  \"ГАЛИНА СЕРГЕЕВНА УЛАНОВА\"", "object_nom": 0.0, "adres": "бул. Свети Наум №36", "finansiran": "3", "type": "3", "url": "https://www.ruliceum.org/bg/school" }, "geometry": { "type": "Point", "coordinates": [ 23.32740816528543, 42.677815627786963 ] } },
{ "type": "Feature", "properties": { "objectid": 56, "object_nam": "Частно основно училище   \"Професор Николай Райнов\"", "object_nom": 0.0, "adres": "ул. Горски пътник №44", "finansiran": "3", "type": "2", "url": "https://www.waldorf.bg/" }, "geometry": { "type": "Point", "coordinates": [ 23.316163246473664, 42.672584611489889 ] } },
{ "type": "Feature", "properties": { "objectid": 57, "object_nam": "Частно средно  училище \"Свети Георги\"", "object_nom": 0.0, "adres": "ж.к. Лозенец, бул. Никола Вапцаров №47", "finansiran": "3", "type": "3", "url": "https://stgeorgeschool.eu/?lang=bg" }, "geometry": { "type": "Point", "coordinates": [ 23.323438393325002, 42.666118420697948 ] } },
{ "type": "Feature", "properties": { "objectid": 58, "object_nam": "Частна профилирана гимназия  \"Образователни технологии\"", "object_nom": 0.0, "adres": "ж.к. Слатина, ул. Гео Милев №158, в сградата на ВВТУ Тодор Каблешков", "finansiran": "3", "type": "4", "url": "https://eduteh.eu/chastna-profilirana-gimnazia" }, "geometry": { "type": "Point", "coordinates": [ 23.38150031751551, 42.680783132541407 ] } },
{ "type": "Feature", "properties": { "objectid": 59, "object_nam": "147 ОУ  \"Йордан  Радичков\"", "object_nom": 147.0, "adres": "ул. Доктор Калинков №40", "finansiran": "2", "type": "2", "url": "https://www.147ou.com/" }, "geometry": { "type": "Point", "coordinates": [ 23.293152869874127, 42.699036395668699 ] } },
{ "type": "Feature", "properties": { "objectid": 60, "object_nam": "157 ГИЧЕ “Сесар Вайехо“", "object_nom": 157.0, "adres": "ул. Слатинска №35", "finansiran": "2", "type": "4", "url": "https://157giche.com/" }, "geometry": { "type": "Point", "coordinates": [ 23.372319342544856, 42.685474192087959 ] } },
{ "type": "Feature", "properties": { "objectid": 61, "object_nam": "ЧУТИ \"Г.С.Уланова\" (по изкуствата)", "object_nom": 0.0, "adres": "бул. Свети Наум №36", "finansiran": "3", "type": "4", "url": "https://www.ruliceum.org/bg/dance" }, "geometry": { "type": "Point", "coordinates": [ 23.327766677114923, 42.677786091284432 ] } },
{ "type": "Feature", "properties": { "objectid": 62, "object_nam": "6-тоосновно помощно училище (ЦСОП Лозенец)", "object_nom": 0.0, "adres": "ул. Русалийски проход №12", "finansiran": "1", "type": "6", "url": "https://csop-lozenec.eu/" }, "geometry": { "type": "Point", "coordinates": [ 23.315915626608501, 42.662858260577423 ] } },
{ "type": "Feature", "properties": { "objectid": 63, "object_nam": "Частно средно училище по изкуства и чужди езици \"Артис\"", "object_nom": 0.0, "adres": "бул. \"Андрей Ляпчев, до метростанция \"Александър Малинов 72", "finansiran": "3", "type": "3", "url": "https://artisbg.com/" }, "geometry": { "type": "Point", "coordinates": [ 23.374692428957239, 42.648189133221955 ] } },
{ "type": "Feature", "properties": { "objectid": 64, "object_nam": "73 СОУ Владислав Граматик", "object_nom": 73.0, "adres": "ж.к. Гоце Делчев, ул. Георги Измирлиев №2", "finansiran": "2", "type": "3", "url": "http://sou73.bg/" }, "geometry": { "type": "Point", "coordinates": [ 23.299389437206127, 42.663459107573836 ] } },
{ "type": "Feature", "properties": { "objectid": 65, "object_nam": "121 СОУ Георги Измирлиев", "object_nom": 121.0, "adres": "ж.к. Гоце Делчев, ул. Георги Измирлиев №24", "finansiran": "2", "type": "3", "url": "https://www.121su.org/" }, "geometry": { "type": "Point", "coordinates": [ 23.293774452014123, 42.666267360169137 ] } },
{ "type": "Feature", "properties": { "objectid": 66, "object_nam": "42 ОУ Хаджи Димитър", "object_nom": 42.0, "adres": "ж.к. Хаджи Димитър, ул. Генерал Липранди №5", "finansiran": "2", "type": "2", "url": "https://42ou.com/" }, "geometry": { "type": "Point", "coordinates": [ 23.345557504613662, 42.706323484113021 ] } },
{ "type": "Feature", "properties": { "objectid": 67, "object_nam": "Частно ОУ  \"Образователни технологии\"", "object_nom": 0.0, "adres": "ж.к. Слатина, ул. Гео Милев №158, в сградата на ВВТУ Тодор Каблешков", "finansiran": "3", "type": "2", "url": "https://eduteh.eu/chastno-osnovno-uchilishte" }, "geometry": { "type": "Point", "coordinates": [ 23.381370189077266, 42.680232235985059 ] } },
{ "type": "Feature", "properties": { "objectid": 68, "object_nam": "Частно ОУ  \"Джани РоДари\"", "object_nom": 0.0, "adres": "ж.к. Слатина, ул. Гео Милев №158, в сградата на ВВТУ Тодор Каблешков", "finansiran": "3", "type": "2", "url": "https://djanirodari.org/" }, "geometry": { "type": "Point", "coordinates": [ 23.380939949816089, 42.678693660177302 ] } },
{ "type": "Feature", "properties": { "objectid": 69, "object_nam": "93 СОУ Академик Ал. Теодоров - Балан", "object_nom": 93.0, "adres": "ж.к. Гео Милев, ул. Гео Милев №32", "finansiran": "2", "type": "3", "url": "https://www.93su.bg/" }, "geometry": { "type": "Point", "coordinates": [ 23.36202905658579, 42.682741713970422 ] } },
{ "type": "Feature", "properties": { "objectid": 70, "object_nam": "104 ОУ Захари Стоянов", "object_nom": 104.0, "adres": "ж.к. Гоце Делчев, ул. Костенски водопад №60", "finansiran": "2", "type": "2", "url": "https://www.104ou.com/" }, "geometry": { "type": "Point", "coordinates": [ 23.297469099990803, 42.665887073501736 ] } },
{ "type": "Feature", "properties": { "objectid": 71, "object_nam": "3 СОУ Марин Дринов", "object_nom": 3.0, "adres": "ж.к. Света Троица, ул. Хайдут Сидер №12", "finansiran": "2", "type": "3", "url": "http://3coy.eu/wordpress/" }, "geometry": { "type": "Point", "coordinates": [ 23.287267678822669, 42.710015590123163 ] } },
{ "type": "Feature", "properties": { "objectid": 72, "object_nam": "11 ОУ Свети Пимен Зографски", "object_nom": 11.0, "adres": "ж.к. Дианабад, ул. Никола Габровски №22", "finansiran": "2", "type": "2", "url": "https://11oy.bg/" }, "geometry": { "type": "Point", "coordinates": [ 23.343178326041649, 42.662816852618178 ] } },
{ "type": "Feature", "properties": { "objectid": 73, "object_nam": "95 СОУ Професор Иван Шишманов", "object_nom": 95.0, "adres": "ж.к. Стефан Караджа, ул. Ангел войвода №66", "finansiran": "2", "type": "3", "url": "https://sites.google.com/site/95sousofia/" }, "geometry": { "type": "Point", "coordinates": [ 23.358479169063187, 42.707021329522348 ] } },
{ "type": "Feature", "properties": { "objectid": 74, "object_nam": "75 ОУ Тодор Каблешков", "object_nom": 75.0, "adres": "бул. Възкресение №151", "finansiran": "2", "type": "2", "url": "https://www.ou75sofia.com/" }, "geometry": { "type": "Point", "coordinates": [ 23.266691112462002, 42.693075569342746 ] } },
{ "type": "Feature", "properties": { "objectid": 75, "object_nam": "24 СОУ Пейо К.Яворов", "object_nom": 24.0, "adres": "ж.к. Хаджи Димитър, ул. Клисура №16", "finansiran": "2", "type": "3", "url": "http://sou24.bg.cm/" }, "geometry": { "type": "Point", "coordinates": [ 23.353201206356623, 42.706170547389384 ] } },
{ "type": "Feature", "properties": { "objectid": 76, "object_nam": "ПРОФЕСИОНАЛНА ГИМНАЗИЯ ПО ТЕКСТИЛ И МОДЕН ДИЗАЙН", "object_nom": 0.0, "adres": "ж.к. Иван Взов, ул. Балша №2", "finansiran": "1", "type": "5", "url": "https://pgdsofia.com/" }, "geometry": { "type": "Point", "coordinates": [ 23.309559580157558, 42.680991721984569 ] } },
{ "type": "Feature", "properties": { "objectid": 77, "object_nam": "НАЦИОНАЛНА ТЪРГОВСКО-БАНКОВА ГИМНАЗИЯ", "object_nom": 0.0, "adres": "бул. Витоша №91", "finansiran": "1", "type": "5", "url": "https://www.ntbg.bg/" }, "geometry": { "type": "Point", "coordinates": [ 23.314425630438894, 42.680882891489937 ] } },
{ "type": "Feature", "properties": { "objectid": 78, "object_nam": "Национална професионална гимназия по полиграфия и фотография", "object_nom": 0.0, "adres": "ж.к. Стрелбище, ул. Златишки проход №5", "finansiran": "1", "type": "5", "url": "https://npgpf.com/" }, "geometry": { "type": "Point", "coordinates": [ 23.302495212237901, 42.672767146748583 ] } },
{ "type": "Feature", "properties": { "objectid": 79, "object_nam": "122 ОУ Николай Лилиев", "object_nom": 122.0, "adres": "ж.к. Лозенец, ул. Презвитер Козма №2", "finansiran": "2", "type": "2", "url": "https://122ou.com/" }, "geometry": { "type": "Point", "coordinates": [ 23.322804179674478, 42.674907302968869 ] } },
{ "type": "Feature", "properties": { "objectid": 80, "object_nam": "Професионална гимназия по  хранително-вкусови технологии \"Проф. д-р Георги Павлов\"", "object_nom": 0.0, "adres": "ж.к. Света Троица, ул. Хайдут Сидер №10", "finansiran": "1", "type": "5", "url": "https://www.facebook.com/profile.php?id=100063838890180&locale=bg_BG" }, "geometry": { "type": "Point", "coordinates": [ 23.287878178291262, 42.710511826337061 ] } },
{ "type": "Feature", "properties": { "objectid": 81, "object_nam": "ПРОФЕСИОНАЛНА ГИМНАЗИЯ ПО ТРАНСПОРТ И ЕНЕРГЕТИКА \"ХЕНРИ ФОРД\"", "object_nom": 0.0, "adres": "ж.к. Света Троица, ул. Хайдут Сидер №8", "finansiran": "1", "type": "5", "url": "https://www.pgtehford.com/" }, "geometry": { "type": "Point", "coordinates": [ 23.288544042682854, 42.711341623352574 ] } },
{ "type": "Feature", "properties": { "objectid": 82, "object_nam": "СГХСТ, Софийска гимназия по хлебни и сладкарски технологии", "object_nom": 0.0, "adres": "ж.к. Западен парк, ул. Суходолска №12, бл. 5", "finansiran": "1", "type": "5", "url": "https://www.sghst.com/" }, "geometry": { "type": "Point", "coordinates": [ 23.278884521623418, 42.700203388381212 ] } },
{ "type": "Feature", "properties": { "objectid": 83, "object_nam": "81 СОУ Виктор Юго", "object_nom": 81.0, "adres": "ж.к. Младост III, ул .Бъднина №3", "finansiran": "2", "type": "3", "url": "https://www.81sou.org/" }, "geometry": { "type": "Point", "coordinates": [ 23.377514213118893, 42.641612303879313 ] } },
{ "type": "Feature", "properties": { "objectid": 84, "object_nam": "106 ОУ Григорий Цамблак", "object_nom": 106.0, "adres": "кв. Васил Левски, ул. Григорий Цамблак №18", "finansiran": "2", "type": "2", "url": "http://106ou.info/" }, "geometry": { "type": "Point", "coordinates": [ 23.381821010938751, 42.699774790501358 ] } },
{ "type": "Feature", "properties": { "objectid": 85, "object_nam": "ЧАСТНО ОСНОВНО УЧИЛИЩЕ \"Д-Р ПЕТЪР БЕРОН\"", "object_nom": 0.0, "adres": "бул. Черни връх №67, вход от ул. Флора Кънева №14", "finansiran": "3", "type": "2", "url": "https://pberon.com/" }, "geometry": { "type": "Point", "coordinates": [ 23.318802375717642, 42.650911684527195 ] } },
{ "type": "Feature", "properties": { "objectid": 86, "object_nam": "НПГПТО „М. В. Ломоносов“ (Корпус практика)", "object_nom": 0.0, "adres": "ул. Иван Грозев №6", "finansiran": " ", "type": "5", "url": "https://lomonosov-bg.com/" }, "geometry": { "type": "Point", "coordinates": [ 23.284759746665532, 42.710075141858333 ] } },
{ "type": "Feature", "properties": { "objectid": 87, "object_nam": "7 СОУ Св. Седмочисленици", "object_nom": 7.0, "adres": "ул. Цар Иван Шишман №28", "finansiran": "2", "type": "3", "url": "https://7-mo.com/" }, "geometry": { "type": "Point", "coordinates": [ 23.328451281127197, 42.690642282981877 ] } },
{ "type": "Feature", "properties": { "objectid": 88, "object_nam": "60 ОУ „Св. Св. Кирил и Методий“", "object_nom": 60.0, "adres": "ул. Наука №2", "finansiran": "2", "type": "2", "url": "https://www.60ousvsvkirilimetodii.com/" }, "geometry": { "type": "Point", "coordinates": [ 23.344429555795831, 42.742221316781091 ] } },
{ "type": "Feature", "properties": { "objectid": 89, "object_nam": "112 ОУ „Стоян Заимов“", "object_nom": 112.0, "adres": "бул. Княз Александър Дондуков №60", "finansiran": "2", "type": "2", "url": "https://112ou.org/" }, "geometry": { "type": "Point", "coordinates": [ 23.336608267624726, 42.698575591562083 ] } },
{ "type": "Feature", "properties": { "objectid": 90, "object_nam": "67 ОУ „Васил Друмев“", "object_nom": 67.0, "adres": "ж.к. Сердика, ул. Гюешево №63", "finansiran": "2", "type": "2", "url": "https://67ouvasildrumev.com/" }, "geometry": { "type": "Point", "coordinates": [ 23.29730404315529, 42.693136643984225 ] } },
{ "type": "Feature", "properties": { "objectid": 91, "object_nam": "Софийска математическа гимназия Паисий Хилендарски", "object_nom": 0.0, "adres": "ул. Искър №61", "finansiran": "2", "type": "4", "url": "https://smg.bg/" }, "geometry": { "type": "Point", "coordinates": [ 23.332783158734252, 42.701754103291805 ] } },
{ "type": "Feature", "properties": { "objectid": 92, "object_nam": "30 СУ „Братя Миладинови“", "object_nom": 30.0, "adres": "бул. Александър Стамболийски №125А, 1303 ж.к. Зона Б-5", "finansiran": "2", "type": "3", "url": "http://30su-bg.com/" }, "geometry": { "type": "Point", "coordinates": [ 23.307015050874899, 42.698560707746772 ] } },
{ "type": "Feature", "properties": { "objectid": 93, "object_nam": "НГ по приложни изкуства „Св. Лука“", "object_nom": 0.0, "adres": "бул. Сливница №134", "finansiran": "1", "type": "4", "url": "https://ngpisvetiluka.com/" }, "geometry": { "type": "Point", "coordinates": [ 23.312789554536756, 42.705324807329475 ] } },
{ "type": "Feature", "properties": { "objectid": 94, "object_nam": "Национална професионална гимназия по прецизна техниха и оптика „М. В. Ломоносов“", "object_nom": 0.0, "adres": "ул. Св. Св. Кирил и Методий №148", "finansiran": "1", "type": "5", "url": "https://lomonosov-bg.com/" }, "geometry": { "type": "Point", "coordinates": [ 23.313799663920452, 42.705180649420505 ] } },
{ "type": "Feature", "properties": { "objectid": 95, "object_nam": "76 ОУ „Уилям Сароян”", "object_nom": 76.0, "adres": "ул. Братя Миладинови №9", "finansiran": "2", "type": "2", "url": "http://76ou.eu/" }, "geometry": { "type": "Point", "coordinates": [ 23.316365950080399, 42.698272003944297 ] } },
{ "type": "Feature", "properties": { "objectid": 96, "object_nam": "14 СУ „Проф. д-р Асен Златаров“", "object_nom": 14.0, "adres": "ул. Ген. Иван Чернаев №8", "finansiran": "2", "type": "3", "url": "https://www.14su.bg/" }, "geometry": { "type": "Point", "coordinates": [ 23.311178565722635, 42.709784233365795 ] } },
{ "type": "Feature", "properties": { "objectid": 97, "object_nam": "ПГ по механоелектотехника „Никола Й. Вапцаров“", "object_nom": 0.0, "adres": "ул. Стара планина №13", "finansiran": "1", "type": "5", "url": "https://pgme-sofia.eu/" }, "geometry": { "type": "Point", "coordinates": [ 23.332586707296304, 42.699756389793144 ] } },
{ "type": "Feature", "properties": { "objectid": 98, "object_nam": "133 СОУ Александър С. Пушкин", "object_nom": 133.0, "adres": "ул. Цар Шишман №1", "finansiran": "2", "type": "3", "url": "http://133sou.com/" }, "geometry": { "type": "Point", "coordinates": [ 23.332118413053681, 42.692802815518455 ] } },
{ "type": "Feature", "properties": { "objectid": 99, "object_nam": "58 ОУ „Сергей Румянцев“", "object_nom": 58.0, "adres": "ул. Железопътна №65", "finansiran": "2", "type": "2", "url": "http://58ou.net/" }, "geometry": { "type": "Point", "coordinates": [ 23.339197731928081, 42.725278393713367 ] } },
{ "type": "Feature", "properties": { "objectid": 100, "object_nam": "Профилирана гимназия с интензивно изучаване на румънски език „Михай Еминеску“", "object_nom": 0.0, "adres": "ул. Георги С. Раковски №20", "finansiran": "1", "type": "4", "url": "http://pgiire.com/" }, "geometry": { "type": "Point", "coordinates": [ 23.327481842655281, 42.705473943995884 ] } },
{ "type": "Feature", "properties": { "objectid": 101, "object_nam": "127 СУ \"Иван Николаевич Денкоглу\"", "object_nom": 127.0, "adres": "ул. Парчевич №43", "finansiran": "2", "type": "3", "url": "https://127sou.com/" }, "geometry": { "type": "Point", "coordinates": [ 23.320998974498089, 42.691159041429927 ] } },
{ "type": "Feature", "properties": { "objectid": 102, "object_nam": "ПГ по текстилни и кожени изделия", "object_nom": 0.0, "adres": "ж.к. Сердика, ул. Архитект Петко Момчилов №2", "finansiran": "1", "type": "5", "url": "https://www.pgtki.org/" }, "geometry": { "type": "Point", "coordinates": [ 23.291324393464187, 42.690213186145371 ] } },
{ "type": "Feature", "properties": { "objectid": 103, "object_nam": "ЧАСТНА ПРОФИЛИРАНА ГИМНАЗИЯ ПО ИНФОРМАЦИОННИ ТЕХНОЛОГИИ И ЕЗИЦИ “ЕВКЛИД”", "object_nom": 0.0, "adres": "ул. Балканджи Йово №22", "finansiran": "3", "type": "4", "url": "https://www.evklid.bg/%D0%B3%D0%B8%D0%BC%D0%BD%D0%B0%D0%B7%D0%B8%D1%8F-%D0%B5%D0%B2%D0%BA%D0%BB%D0%B8%D0%B4/" }, "geometry": { "type": "Point", "coordinates": [ 23.287239386034038, 42.681323130146119 ] } },
{ "type": "Feature", "properties": { "objectid": 104, "object_nam": "59 ОУ Васил Левски", "object_nom": 59.0, "adres": "кв. Орландовци, ул. Кестен №1", "finansiran": "2", "type": "2", "url": "http://59sou.org/" }, "geometry": { "type": "Point", "coordinates": [ 23.346613570702889, 42.716021641384863 ] } },
{ "type": "Feature", "properties": { "objectid": 105, "object_nam": "18 СУ „Уилям Гладстон“", "object_nom": 18.0, "adres": "ул. Пиротска №68", "finansiran": "2", "type": "3", "url": "https://18sou.net/" }, "geometry": { "type": "Point", "coordinates": [ 23.311906884845619, 42.701242524065563 ] } },
{ "type": "Feature", "properties": { "objectid": 106, "object_nam": "4 сменно-вечерна гимназия „Отец Паисий", "object_nom": 0.0, "adres": "ул. Дунав №30", "finansiran": "2", "type": "3", "url": "https://ve4erna.com/" }, "geometry": { "type": "Point", "coordinates": [ 23.332060032227698, 42.700999522311974 ] } },
{ "type": "Feature", "properties": { "objectid": 107, "object_nam": "12 СОУ Цар Иван Асен II", "object_nom": 12.0, "adres": "ж.к. Яворов, ул. Цар Иван Асен II №72", "finansiran": "2", "type": "3", "url": "https://12sou-sofia.info/" }, "geometry": { "type": "Point", "coordinates": [ 23.346433369447777, 42.687473028778342 ] } },
{ "type": "Feature", "properties": { "objectid": 108, "object_nam": "29 СУ „Кузман Шапкарев“", "object_nom": 29.0, "adres": "ул. Георги С. Раковски №20", "finansiran": "2", "type": "3", "url": "http://sou29.com/" }, "geometry": { "type": "Point", "coordinates": [ 23.32808857411273, 42.705583507509303 ] } },
{ "type": "Feature", "properties": { "objectid": 109, "object_nam": "38 ОУ Васил Априлов", "object_nom": 38.0, "adres": "ул. Шипка №40", "finansiran": "2", "type": "2", "url": "https://vasilaprilov.com/" }, "geometry": { "type": "Point", "coordinates": [ 23.34224353991641, 42.692639297970437 ] } },
{ "type": "Feature", "properties": { "objectid": 110, "object_nam": "Софийска професионална гимназия по туризъм", "object_nom": 0.0, "adres": "бул. Сливница №182", "finansiran": "1", "type": "5", "url": "https://spgt.org/" }, "geometry": { "type": "Point", "coordinates": [ 23.32624537276536, 42.704272217057365 ] } },
{ "type": "Feature", "properties": { "objectid": 111, "object_nam": "Първа частна английска гимназия \"Уилям Шекспир-Интелект Инвест\"", "object_nom": 0.0, "adres": "ул. Стара планина №13, ет. 3", "finansiran": "3", "type": "4", "url": "https://www.fpels.ws/" }, "geometry": { "type": "Point", "coordinates": [ 23.332320044881651, 42.699662236627709 ] } },
{ "type": "Feature", "properties": { "objectid": 112, "object_nam": "Частна профилирана гимназия \"Веда\"", "object_nom": 0.0, "adres": "ул. Иван Мърквичка №1", "finansiran": "3", "type": "4", "url": "https://wedaschule.com/gimnazia/" }, "geometry": { "type": "Point", "coordinates": [ 23.305094369648408, 42.721732100603617 ] } },
{ "type": "Feature", "properties": { "objectid": 113, "object_nam": "Национално училище за изящни изкуства \"Илия Петров\"", "object_nom": 0.0, "adres": "бул. Васил Левски №62", "finansiran": "1", "type": "4", "url": "https://hg-iliapetrov.com/" }, "geometry": { "type": "Point", "coordinates": [ 23.328510158553147, 42.687514592080753 ] } },
{ "type": "Feature", "properties": { "objectid": 114, "object_nam": "9 Френска езикова гимназия Алфонс дьо Ламартин", "object_nom": 9.0, "adres": "бул. Патриарх Евтимий №35", "finansiran": "2", "type": "4", "url": "https://www.feg.bg/" }, "geometry": { "type": "Point", "coordinates": [ 23.323256363128113, 42.688204885905023 ] } },
{ "type": "Feature", "properties": { "objectid": 115, "object_nam": "6 ОУ Граф Игнатиев", "object_nom": 6.0, "adres": "ул. 6-ти септември №16", "finansiran": "2", "type": "2", "url": "https://www.6ou.org/" }, "geometry": { "type": "Point", "coordinates": [ 23.326531966181026, 42.691009827058068 ] } },
{ "type": "Feature", "properties": { "objectid": 116, "object_nam": "ЧПГ \"ЕЗИКОВ СВЯТ\"", "object_nom": 0.0, "adres": "бул. Александър Стамболийски №82", "finansiran": "3", "type": "4", "url": "https://www.ezikovsviat.com/" }, "geometry": { "type": "Point", "coordinates": [ 23.309253676879951, 42.698881522117816 ] } },
{ "type": "Feature", "properties": { "objectid": 117, "object_nam": "25 ОУ „д-р Петър Берон“", "object_nom": 25.0, "adres": "ж.к. Лагера, ул. Балканджи Йово №22", "finansiran": "2", "type": "2", "url": "https://25ou.bg/" }, "geometry": { "type": "Point", "coordinates": [ 23.286511019917889, 42.68124586555151 ] } },
{ "type": "Feature", "properties": { "objectid": 118, "object_nam": "34 ОУ „Стою Шишков“", "object_nom": 34.0, "adres": "ж.к. Борово, ул. Родопски извор №43", "finansiran": "2", "type": "2", "url": "https://34ou.org/" }, "geometry": { "type": "Point", "coordinates": [ 23.286602840743615, 42.670466528401363 ] } },
{ "type": "Feature", "properties": { "objectid": 119, "object_nam": "Първа Частна Математическа Гимназия", "object_nom": 0.0, "adres": "бул. Генерал Михаил Д. Скобелев №58", "finansiran": "3", "type": "4", "url": "https://parvamatematicheska.com/" }, "geometry": { "type": "Point", "coordinates": [ 23.309898170399446, 42.693597185595358 ] } },
{ "type": "Feature", "properties": { "objectid": 120, "object_nam": "Частно начално училище \"Питагор\"", "object_nom": 0.0, "adres": "бул. Генерал Михаил Д. Скобелев №58", "finansiran": "3", "type": "1", "url": "https://pitagor-school.eu/" }, "geometry": { "type": "Point", "coordinates": [ 23.310060520852584, 42.693621917504089 ] } },
{ "type": "Feature", "properties": { "objectid": 121, "object_nam": "Частно основно училище с ранно чуждоезиково обучение \"Езиков свят\"", "object_nom": 0.0, "adres": "бул. Александър Стамболийски №82", "finansiran": "3", "type": "2", "url": "https://www.ezikovsviat.com/%d1%87%d0%be%d1%83-%d0%b5%d0%b7%d0%b8%d0%ba%d0%be%d0%b2-%d1%81%d0%b2%d1%8f%d1%82" }, "geometry": { "type": "Point", "coordinates": [ 23.309030116816047, 42.69892789519195 ] } },
{ "type": "Feature", "properties": { "objectid": 122, "object_nam": "32 СУ „Св. Климент Охридски“", "object_nom": 32.0, "adres": "бул. Христо Ботев №63", "finansiran": "2", "type": "3", "url": "https://www.school32.com/" }, "geometry": { "type": "Point", "coordinates": [ 23.314884879078672, 42.699432209963796 ] } },
{ "type": "Feature", "properties": { "objectid": 123, "object_nam": "134 СУ „Димчо Дебелянов“", "object_nom": 134.0, "adres": "ул. Пиротска №78", "finansiran": "1", "type": "2", "url": "https://www.hebrewschool-bg.org/" }, "geometry": { "type": "Point", "coordinates": [ 23.308142653661889, 42.701768497862389 ] } },
{ "type": "Feature", "properties": { "objectid": 124, "object_nam": "203 Профилирана езикова гимназия \"Свети Методий\"", "object_nom": 203.0, "adres": "ж.к. Красно село, ул. Пчела №21", "finansiran": "2", "type": "4", "url": "https://www.stmethodiushs.bg/" }, "geometry": { "type": "Point", "coordinates": [ 23.280844004688685, 42.672953624072619 ] } },
{ "type": "Feature", "properties": { "objectid": 125, "object_nam": "164 гимназия с преподаване на испански език \"Мигел де Сервантес\"", "object_nom": 164.0, "adres": "ул. Султан тепе №1", "finansiran": "2", "type": "4", "url": "https://www.ibbcervantes-bg.com/" }, "geometry": { "type": "Point", "coordinates": [ 23.34681395496979, 42.693419536626294 ] } },
{ "type": "Feature", "properties": { "objectid": 126, "object_nam": "Национално музикално училище „Любомир Пипков“", "object_nom": 0.0, "adres": "ул. Оборище №17", "finansiran": "1", "type": "4", "url": "https://nmu.bg/" }, "geometry": { "type": "Point", "coordinates": [ 23.338369265239077, 42.695394443242293 ] } },
{ "type": "Feature", "properties": { "objectid": 127, "object_nam": "136 ОУ „Любен Kаравело“", "object_nom": 136.0, "adres": "ул. Димитър Петков N 116", "finansiran": "2", "type": "2", "url": "http://136ou.com/" }, "geometry": { "type": "Point", "coordinates": [ 23.299858376669633, 42.699649817078097 ] } },
{ "type": "Feature", "properties": { "objectid": 129, "object_nam": "Частно средно училище „Кралица София Испанска“", "object_nom": 0.0, "adres": "ул. Лозенград №2", "finansiran": "3", "type": "3", "url": "https://ispanskouchilishte.com/" }, "geometry": { "type": "Point", "coordinates": [ 23.321872224583672, 42.702962557276756 ] } },
{ "type": "Feature", "properties": { "objectid": 130, "object_nam": "142 ОУ „ВЕСЕЛИН ХАНЧЕВ“", "object_nom": 142.0, "adres": "ж.к. Красно село, ул. Пчела №21", "finansiran": "2", "type": "2", "url": "https://142ou.com/" }, "geometry": { "type": "Point", "coordinates": [ 23.280506281301054, 42.673084075178146 ] } },
{ "type": "Feature", "properties": { "objectid": 131, "object_nam": "129 ОУ \"Антим -І\"", "object_nom": 120.0, "adres": "ул. Султан тепе №1", "finansiran": "2", "type": "2", "url": "https://129ou-sofia.eu/" }, "geometry": { "type": "Point", "coordinates": [ 23.347785992211826, 42.69310891954369 ] } },
{ "type": "Feature", "properties": { "objectid": 132, "object_nam": "48 ОУ „Йосиф Ковачев“", "object_nom": 48.0, "adres": "ул. Клокотница №21", "finansiran": "2", "type": "2", "url": "https://48-ou.com/" }, "geometry": { "type": "Point", "coordinates": [ 23.320113425904484, 42.707647064414374 ] } },
{ "type": "Feature", "properties": { "objectid": 133, "object_nam": "1 СОУ Пенчо Славейков", "object_nom": 1.0, "adres": "ул. Стара планина №11", "finansiran": "2", "type": "3", "url": "http://1sousofia.org/" }, "geometry": { "type": "Point", "coordinates": [ 23.331505163895777, 42.69895979560544 ] } },
{ "type": "Feature", "properties": { "objectid": 134, "object_nam": "51 СУ „Елисавета Багряна“", "object_nom": 51.0, "adres": "ж.к. Хиподрума, ул. Софийски герой №29", "finansiran": "2", "type": "3", "url": "https://51sou.info/" }, "geometry": { "type": "Point", "coordinates": [ 23.299323010507308, 42.682517873606244 ] } },
{ "type": "Feature", "properties": { "objectid": 135, "object_nam": "36 СОУ „Максим Горки“", "object_nom": 36.0, "adres": "ж.к. Борово, ул. Пирински проход №35", "finansiran": "2", "type": "3", "url": "https://36sou.com/" }, "geometry": { "type": "Point", "coordinates": [ 23.286396617288641, 42.673373157404924 ] } },
{ "type": "Feature", "properties": { "objectid": 136, "object_nam": "100 ОУ „Найден Геров“", "object_nom": 100.0, "adres": "ул. Иван Йосифов №68", "finansiran": "2", "type": "2", "url": "https://www.100oung.com/" }, "geometry": { "type": "Point", "coordinates": [ 23.302003179073054, 42.714882640666922 ] } },
{ "type": "Feature", "properties": { "objectid": 137, "object_nam": "Профилирана гимназия за изобразителни изкуства \"Професор Николай Райнов\"", "object_nom": 0.0, "adres": "ул. Николай Райнов №2", "finansiran": "2", "type": "4", "url": "https://www.pgii-nrainov.eu/" }, "geometry": { "type": "Point", "coordinates": [ 23.347939266800861, 42.718505495974334 ] } },
{ "type": "Feature", "properties": { "objectid": 138, "object_nam": "5 Вечерно СОУ „Пеньо Пенев“", "object_nom": 0.0, "adres": "ул. Св. Св. Кирил и Методий  №63", "finansiran": "2", "type": "3", "url": "https://www.peta-vg.com/" }, "geometry": { "type": "Point", "coordinates": [ 23.321019272819736, 42.702971463746081 ] } },
{ "type": "Feature", "properties": { "objectid": 140, "object_nam": "46 ОУ „Константин Фотинов“", "object_nom": 46.0, "adres": "бул. Христо Ботев №109", "finansiran": "2", "type": "2", "url": "https://www.46ou.net/" }, "geometry": { "type": "Point", "coordinates": [ 23.316619170095613, 42.70309225790357 ] } },
{ "type": "Feature", "properties": { "objectid": 141, "object_nam": "132 СУ „Ваня Войнова“", "object_nom": 132.0, "adres": "бул. Цар Борис III №128", "finansiran": "2", "type": "3", "url": "https://www.132su.com/" }, "geometry": { "type": "Point", "coordinates": [ 23.276523859534773, 42.677664054962371 ] } },
{ "type": "Feature", "properties": { "objectid": 142, "object_nam": "ПГ по ПСТТ, ПРОФЕСИОНАЛНА ГИМНАЗИЯ ПО ПОДЕМНА, СТРОИТЕЛНА И ТРАНСПОРТНА ТЕХНИКА", "object_nom": 0.0, "adres": "ул. Марко Балабанов №2", "finansiran": "1", "type": "5", "url": "https://www.pgpstt.com/" }, "geometry": { "type": "Point", "coordinates": [ 23.313848200055407, 42.697055602818303 ] } },
{ "type": "Feature", "properties": { "objectid": 143, "object_nam": "91 Немска езикова гимназия Професор Константин Гълъбов", "object_nom": 91.0, "adres": "ул. Позитано N 26", "finansiran": "2", "type": "4", "url": "https://91neg.bg/" }, "geometry": { "type": "Point", "coordinates": [ 23.3168861340707, 42.696817884931335 ] } },
{ "type": "Feature", "properties": { "objectid": 144, "object_nam": "19 СУ „Елин Пелин\"", "object_nom": 19.0, "adres": "кв. Крива река, ул. Яков Крайков №16", "finansiran": "2", "type": "3", "url": "https://19su.bg/" }, "geometry": { "type": "Point", "coordinates": [ 23.303944369690591, 42.686975682994046 ] } },
{ "type": "Feature", "properties": { "objectid": 145, "object_nam": "Частно езиково средно училище  \"Дорис Тенеди\"", "object_nom": 0.0, "adres": "ж.к. Бели брези, ул. Нишава №66", "finansiran": "3", "type": "3", "url": "https://doristenedi.com/" }, "geometry": { "type": "Point", "coordinates": [ 23.293952893599254, 42.676144407902584 ] } },
{ "type": "Feature", "properties": { "objectid": 146, "object_nam": "Първа английска езикова гимназия", "object_nom": 0.0, "adres": "бул. Княз Александър Дондуков №60", "finansiran": " ", "type": "4", "url": "https://www.fels-sofia.org/" }, "geometry": { "type": "Point", "coordinates": [ 23.337361385242165, 42.698680009841254 ] } },
{ "type": "Feature", "properties": { "objectid": 147, "object_nam": "74 СОУ Гоце Делчев", "object_nom": 74.0, "adres": "ж.к. Връбница 1, ул. Бакърено шосе №1", "finansiran": "2", "type": "3", "url": "https://www.74su.org/" }, "geometry": { "type": "Point", "coordinates": [ 23.288296729026744, 42.736017442073525 ] } },
{ "type": "Feature", "properties": { "objectid": 148, "object_nam": "Частно основно училище \"Светлина\"", "object_nom": 0.0, "adres": "ул. Йозеф Валдхард №3", "finansiran": "3", "type": "2", "url": "https://svetlina.net/osnovno-inovativno-uchilishte/" }, "geometry": { "type": "Point", "coordinates": [ 23.336662587613112, 42.649035891446481 ] } },
{ "type": "Feature", "properties": { "objectid": 149, "object_nam": "Частна професионална гимназия по охрана и сигурност  \"Св.Георги Победоносец\"", "object_nom": 0.0, "adres": "ул. Полк. Георги Янков , 8 СОУ, ІV етаж", "finansiran": "3", "type": "5", "url": "https://www.security-school-bg.com/" }, "geometry": { "type": "Point", "coordinates": [ 23.363560427216946, 42.66244271410725 ] } },
{ "type": "Feature", "properties": { "objectid": 150, "object_nam": "ЧАСТНА ЕЗИКОВА ГИМНАЗИЯ \"ПРОФ. ИВАН АПОСТОЛОВ\"", "object_nom": 0.0, "adres": "ул. Проф. арх. Станчо Белковски № 1", "finansiran": "3", "type": "4", "url": "https://ivanapostolov.bg/" }, "geometry": { "type": "Point", "coordinates": [ 23.364532125628816, 42.663824787194805 ] } },
{ "type": "Feature", "properties": { "objectid": 151, "object_nam": "СПЕЦИАЛИЗИРАНО СПОРТНО УЧИЛИЩЕ \"ГЕН. ВЛАДИМИР СТОЙЧЕВ\"", "object_nom": 0.0, "adres": "бул. Асен Йорданов №2", "finansiran": "1", "type": "4", "url": "https://sugvs-sofia.com/" }, "geometry": { "type": "Point", "coordinates": [ 23.377283529390617, 42.673496393752856 ] } },
{ "type": "Feature", "properties": { "objectid": 152, "object_nam": "ПРОФЕСИОНАЛНА ГИМНАЗИЯ ПО ТРАНСПОРТ (Н. Ботушев)", "object_nom": 0.0, "adres": "кв. Гара Искър, ул. Мюнхен №12", "finansiran": "1", "type": "5", "url": "https://pgtsofia.com/" }, "geometry": { "type": "Point", "coordinates": [ 23.410790828012843, 42.659866066958969 ] } },
{ "type": "Feature", "properties": { "objectid": 153, "object_nam": "61 ОУ Св.Св. Кирил и Методий", "object_nom": 61.0, "adres": "ж.к. Връбница 2, бул. Ломско шосе №186", "finansiran": "2", "type": "2", "url": "https://ou-61.org/" }, "geometry": { "type": "Point", "coordinates": [ 23.290872209505761, 42.737955370405743 ] } },
{ "type": "Feature", "properties": { "objectid": 154, "object_nam": "ПРОФЕСИОНАЛНА ГИМНАЗИЯ ПО ТЕЛЕКОМУНИКАЦИИ", "object_nom": 0.0, "adres": "Студентски град, ул. Акад. Стефан  Младенов №1", "finansiran": "1", "type": "5", "url": "https://tcom-sf.org/" }, "geometry": { "type": "Point", "coordinates": [ 23.347627819330761, 42.655448677300321 ] } },
{ "type": "Feature", "properties": { "objectid": 155, "object_nam": "62 ОУ Христо Ботев", "object_nom": 62.0, "adres": "кв. Обеля, ул. Ефрем Чучков №26", "finansiran": "2", "type": "2", "url": "https://62ou.com/" }, "geometry": { "type": "Point", "coordinates": [ 23.263993644148556, 42.739579468345063 ] } },
{ "type": "Feature", "properties": { "objectid": 156, "object_nam": "140 СОУ Иван Богоров", "object_nom": 140.0, "adres": "ж.к. Обеля II, ул. Дико Илиев № 9", "finansiran": "2", "type": "3", "url": "http://140su.com/" }, "geometry": { "type": "Point", "coordinates": [ 23.2759665383578, 42.745549928358834 ] } },
{ "type": "Feature", "properties": { "objectid": 157, "object_nam": "102 ОУ Панайот Волов", "object_nom": 102.0, "adres": "ж.к. Надежда IV, ул. Звезда №3", "finansiran": "2", "type": "2", "url": "https://www.102ou.com/" }, "geometry": { "type": "Point", "coordinates": [ 23.305418227958015, 42.73518499853563 ] } },
{ "type": "Feature", "properties": { "objectid": 158, "object_nam": "141 Основно училище   \"Народни будители\"", "object_nom": 141.0, "adres": "ж.к. Свобода, ул. Народни Будители (до бл. 5)", "finansiran": "2", "type": "2", "url": "https://141ou.com/" }, "geometry": { "type": "Point", "coordinates": [ 23.30798493480448, 42.738417945071596 ] } },
{ "type": "Feature", "properties": { "objectid": 159, "object_nam": "16 ОУ Райко Жинзифов", "object_nom": 16.0, "adres": "ж.к. Надежда I, ул. Дравски бой №7", "finansiran": "2", "type": "2", "url": "https://www.ou16.bg/" }, "geometry": { "type": "Point", "coordinates": [ 23.299698442742322, 42.726332071404435 ] } },
{ "type": "Feature", "properties": { "objectid": 160, "object_nam": "101 СОУ Бачо Киро", "object_nom": 101.0, "adres": "ж.к. Надежда I, ул. Илинденско въстание №36", "finansiran": "2", "type": "3", "url": "https://101su.bg/" }, "geometry": { "type": "Point", "coordinates": [ 23.294073444442091, 42.728386641592174 ] } },
{ "type": "Feature", "properties": { "objectid": 161, "object_nam": "8 СОУ Васил Левски", "object_nom": 8.0, "adres": "ж.к. \"Младост 1\", ул. Полк. Г. Янков № 3", "finansiran": "2", "type": "3", "url": "https://8sou.com/" }, "geometry": { "type": "Point", "coordinates": [ 23.363995407544913, 42.66277654719233 ] } },
{ "type": "Feature", "properties": { "objectid": 162, "object_nam": "55 СОУ Петко Каравелов", "object_nom": 55.0, "adres": "ж.к. Дървеница, ул. Дъбница №3", "finansiran": "2", "type": "3", "url": "https://www.55su.bg/" }, "geometry": { "type": "Point", "coordinates": [ 23.360629138708212, 42.655733798943906 ] } },
{ "type": "Feature", "properties": { "objectid": 163, "object_nam": "70 ОУ Св. Климент Охридски", "object_nom": 70.0, "adres": "кв. Модерно предградие, ул. Адам Мицкевич №10", "finansiran": "2", "type": "2", "url": "http://www.70ou.com/" }, "geometry": { "type": "Point", "coordinates": [ 23.282673403007006, 42.726692937209577 ] } },
{ "type": "Feature", "properties": { "objectid": 164, "object_nam": "145 ОУ Симеон Радев", "object_nom": 145.0, "adres": "ж.к. Младост IА, ул. Ресен №1", "finansiran": "2", "type": "2", "url": "http://145ou.com/" }, "geometry": { "type": "Point", "coordinates": [ 23.385453917077569, 42.648279855965313 ] } },
{ "type": "Feature", "properties": { "objectid": 165, "object_nam": "2 СОУ Академик Емилиян Станев", "object_nom": 2.0, "adres": "ж.к. Бъкстон, ул. Генерал Александър В. Суворов №36", "finansiran": "2", "type": "3", "url": "https://2su.bg/" }, "geometry": { "type": "Point", "coordinates": [ 23.273804097585408, 42.668970596858458 ] } },
{ "type": "Feature", "properties": { "objectid": 166, "object_nam": "144 СОУ Народни будители", "object_nom": 144.0, "adres": "ж.к. Младост  III, ул. Бъднина №1", "finansiran": "2", "type": "3", "url": "https://144sou.bg/re/" }, "geometry": { "type": "Point", "coordinates": [ 23.378291450123946, 42.642810733868373 ] } },
{ "type": "Feature", "properties": { "objectid": 167, "object_nam": "68 СОУ Академик Никола Обрешков", "object_nom": 68.0, "adres": "ж.к. Дружба II", "finansiran": "2", "type": "3", "url": "https://68su.org/" }, "geometry": { "type": "Point", "coordinates": [ 23.40202521560224, 42.652471003366607 ] } },
{ "type": "Feature", "properties": { "objectid": 168, "object_nam": "69 СОУ Димитър Маринов", "object_nom": 69.0, "adres": "ж.к. Дружба I, ул. Чудомир Топлодолски № 2", "finansiran": "2", "type": "3", "url": "http://www.sou69.com/" }, "geometry": { "type": "Point", "coordinates": [ 23.395892089109569, 42.665894559080094 ] } },
{ "type": "Feature", "properties": { "objectid": 169, "object_nam": "10 СОУ Теодор Траянов", "object_nom": 10.0, "adres": "ж.к. Младост I, ул. Методи Андонов №1", "finansiran": "2", "type": "3", "url": "https://10sou.eu/" }, "geometry": { "type": "Point", "coordinates": [ 23.372601287685363, 42.650785696546194 ] } },
{ "type": "Feature", "properties": { "objectid": 170, "object_nam": "3-то помощно училище \"Едуард Сеген\" (ЦСОП Едуард Сеген)", "object_nom": 0.0, "adres": "ул. Граничар №16", "finansiran": "1", "type": "6", "url": "http://csopsegen.com/za-nas/" }, "geometry": { "type": "Point", "coordinates": [ 23.300396834531711, 42.725624828212041 ] } },
{ "type": "Feature", "properties": { "objectid": 171, "object_nam": "15 СОУ Адам Мицкевич", "object_nom": 15.0, "adres": "ж.к. Надежда II, ул. Йордан Хаджиконстантинов - Джинот №68", "finansiran": "2", "type": "3", "url": "https://www.15sou-sofia.com/" }, "geometry": { "type": "Point", "coordinates": [ 23.307836190951654, 42.729029673221106 ] } },
{ "type": "Feature", "properties": { "objectid": 172, "object_nam": "153 Специализирано спортно училище \"Неофит Рилски\"", "object_nom": 153.0, "adres": "ж.к. Свобода, ул. Народни будители №2", "finansiran": "2", "type": "4", "url": "https://www.nrilski153.org/" }, "geometry": { "type": "Point", "coordinates": [ 23.31074321288434, 42.736181991147404 ] } },
{ "type": "Feature", "properties": { "objectid": 173, "object_nam": "77 ОУ Св. Св. Кирил и Методий", "object_nom": 77.0, "adres": "кв. Филиповци, ул. 3-ти март №45", "finansiran": "2", "type": "2", "url": "https://77ou-sofia.com/" }, "geometry": { "type": "Point", "coordinates": [ 23.221110248176075, 42.719264059447973 ] } },
{ "type": "Feature", "properties": { "objectid": 174, "object_nam": "ПРОФЕСИОНАЛНА ГИМНАЗИЯ ПО ЕЛЕКТРОТЕХНИКА И АВТОМАТИКА", "object_nom": 0.0, "adres": "бул. Овча купел №1", "finansiran": "1", "type": "5", "url": "https://pgea.bg/" }, "geometry": { "type": "Point", "coordinates": [ 23.270416770437453, 42.672431671998119 ] } },
{ "type": "Feature", "properties": { "objectid": 175, "object_nam": "НАЦИОНАЛНО СРЕДНО УЧИЛИЩЕ \"СОФИЯ\"", "object_nom": 0.0, "adres": "кв. Овча купел, ул. Монтевидео №21", "finansiran": "1", "type": "3", "url": "http://www.nsousofia.org/" }, "geometry": { "type": "Point", "coordinates": [ 23.25037463122397, 42.678406874420887 ] } },
{ "type": "Feature", "properties": { "objectid": 176, "object_nam": "163 ОУ Черноризец Храбър", "object_nom": 163.0, "adres": "ж.к. Дружба II, ул. Обиколна №36", "finansiran": "2", "type": "2", "url": "http://163ou.org/" }, "geometry": { "type": "Point", "coordinates": [ 23.405929126791868, 42.644771595783759 ] } },
{ "type": "Feature", "properties": { "objectid": 177, "object_nam": "27 СОУ Академик Георги Караславов", "object_nom": 27.0, "adres": "ул. Полк. Н. Попов №4", "finansiran": "2", "type": "3", "url": "https://www.27su.eu/" }, "geometry": { "type": "Point", "coordinates": [ 23.252108557679634, 42.711650094349146 ] } },
{ "type": "Feature", "properties": { "objectid": 178, "object_nam": "89 ОУ Д-р Христо Стамболски", "object_nom": 89.0, "adres": "ж.к. Дружба I, ул. Чудомир Топлодолски № 4", "finansiran": "2", "type": "2", "url": "http://www.89ousofia.com/" }, "geometry": { "type": "Point", "coordinates": [ 23.395042250223373, 42.664997354807184 ] } },
{ "type": "Feature", "properties": { "objectid": 179, "object_nam": "56 СОУ Проф. Константин Иречек", "object_nom": 56.0, "adres": "ж.к. Люлин VIII, ул. Търново", "finansiran": "2", "type": "3", "url": "https://su-56.com/" }, "geometry": { "type": "Point", "coordinates": [ 23.261557758412128, 42.722283977013817 ] } },
{ "type": "Feature", "properties": { "objectid": 180, "object_nam": "Частно ОУ Ерих Кестнер", "object_nom": 0.0, "adres": "ж.к. Люлин VI, ул. полк. Никола Попов", "finansiran": "3", "type": "2", "url": "https://www.eks-bg.eu/" }, "geometry": { "type": "Point", "coordinates": [ 23.253552080754307, 42.71235309879301 ] } },
{ "type": "Feature", "properties": { "objectid": 181, "object_nam": "Частно средно общообразователно училище \"Българско школо\"", "object_nom": 0.0, "adres": "ул. Генерал-майор Васил Делов №10", "finansiran": "3", "type": "3", "url": "https://bgshkolo.com/" }, "geometry": { "type": "Point", "coordinates": [ 23.367820588986376, 42.636196735457673 ] } },
{ "type": "Feature", "properties": { "objectid": 182, "object_nam": "Частно Основно Училище \"Азбуки\"", "object_nom": 0.0, "adres": "ул. Проф. арх. Станчо Белковски № 1", "finansiran": "3", "type": "2", "url": "https://azbuki-school.bg/" }, "geometry": { "type": "Point", "coordinates": [ 23.364127124044135, 42.663621144294041 ] } },
{ "type": "Feature", "properties": { "objectid": 183, "object_nam": "Частно основно училище \"Куест Академи\"", "object_nom": 0.0, "adres": "ул. Димитър Доспевски №9", "finansiran": "3", "type": "2", "url": "https://questacademy.bg/" }, "geometry": { "type": "Point", "coordinates": [ 23.376381861176149, 42.652361142600498 ] } },
{ "type": "Feature", "properties": { "objectid": 184, "object_nam": "Технологично училище \"Електронни системи\" към Технически Университет  - София", "object_nom": 0.0, "adres": "ж.к. Младост I, ул. Владимир Пашов №2", "finansiran": "1", "type": "5", "url": "https://www.elsys-bg.org/" }, "geometry": { "type": "Point", "coordinates": [ 23.372999724010516, 42.662392563281699 ] } },
{ "type": "Feature", "properties": { "objectid": 185, "object_nam": "54 СОУ Св. Иван Рилски", "object_nom": 54.0, "adres": "ж.к. Лев Толстой, ул. Йордан Хаджиконстантинов - Джинот №38", "finansiran": "2", "type": "3", "url": "http://54suivanrilski.com/" }, "geometry": { "type": "Point", "coordinates": [ 23.311702285672691, 42.72777596682176 ] } },
{ "type": "Feature", "properties": { "objectid": 186, "object_nam": "98 НУ Св. Св. Кирил и Методий", "object_nom": 98.0, "adres": "кв. Илиянци, ул. Махония №2", "finansiran": "2", "type": "1", "url": "https://nu98.org/" }, "geometry": { "type": "Point", "coordinates": [ 23.317014390770257, 42.751233715522687 ] } },
{ "type": "Feature", "properties": { "objectid": 187, "object_nam": "85 СОУ Отец Паисий", "object_nom": 85.0, "adres": "кв. Враждебна, ул. 59 №13", "finansiran": "2", "type": "3", "url": "https://su85.org/" }, "geometry": { "type": "Point", "coordinates": [ 23.414649188121338, 42.711511468553468 ] } },
{ "type": "Feature", "properties": { "objectid": 188, "object_nam": "50 ОУ Васил Левски", "object_nom": 50.0, "adres": "кв. Драгалевци, ул. Бела Дона №1", "finansiran": "2", "type": "2", "url": "https://50ou-vasil-levski.com/" }, "geometry": { "type": "Point", "coordinates": [ 23.309466145038673, 42.629345306541438 ] } },
{ "type": "Feature", "properties": { "objectid": 189, "object_nam": "64 ОУ Цар Симеон Велики", "object_nom": 64.0, "adres": "кв. Симеоново, ул. Симеоновска №1", "finansiran": "2", "type": "2", "url": "https://64oucarsimeon.org/" }, "geometry": { "type": "Point", "coordinates": [ 23.336007459282602, 42.616923942595854 ] } },
{ "type": "Feature", "properties": { "objectid": 190, "object_nam": "33 ОУ Санкт Петербург", "object_nom": 33.0, "adres": "ж.к. Люлин III,  ул. 309 №8", "finansiran": "2", "type": "2", "url": "https://33-ou.com/" }, "geometry": { "type": "Point", "coordinates": [ 23.247687474630272, 42.719993501714313 ] } },
{ "type": "Feature", "properties": { "objectid": 191, "object_nam": "63 ОУ \"Христо Ботев\"", "object_nom": 63.0, "adres": "кв. Требич, ул. \"Леденика\" №12", "finansiran": "2", "type": "2", "url": "https://63ou-hbotev.org/" }, "geometry": { "type": "Point", "coordinates": [ 23.312206038597751, 42.774678585343217 ] } },
{ "type": "Feature", "properties": { "objectid": 192, "object_nam": "65 ОУ \"Св.Св. Кирил и Методий\"", "object_nom": 65.0, "adres": "Бусманци, ул. Ген. Йосиф В. Гурко №40", "finansiran": "2", "type": "2", "url": "https://65ou.ucoz.com/" }, "geometry": { "type": "Point", "coordinates": [ 23.433557785628132, 42.675111663202991 ] } },
{ "type": "Feature", "properties": { "objectid": 193, "object_nam": "71 СОУ \"П.К. Яворов\"", "object_nom": 71.0, "adres": "с. Казичане, ул. Пейо Яворов №10", "finansiran": "2", "type": "3", "url": "http://71sou.org/" }, "geometry": { "type": "Point", "coordinates": [ 23.463433636806773, 42.656782897613645 ] } },
{ "type": "Feature", "properties": { "objectid": 194, "object_nam": "78 СОУ \"Христо Смирненски\"", "object_nom": 7.0, "adres": "Банкя, ул. Царибродска №5", "finansiran": "2", "type": "3", "url": "https://78su.net/" }, "geometry": { "type": "Point", "coordinates": [ 23.140272896856882, 42.711700737287799 ] } },
{ "type": "Feature", "properties": { "objectid": 195, "object_nam": "83 ОУ \"Елин Пелин\"", "object_nom": 83.0, "adres": "кв. Панчарево, ул. Елин Пелин №21", "finansiran": "2", "type": "2", "url": "https://83ou.org/" }, "geometry": { "type": "Point", "coordinates": [ 23.409534563329249, 42.59590122048337 ] } },
{ "type": "Feature", "properties": { "objectid": 196, "object_nam": "84 ОУ \"Васил Левски\"", "object_nom": 84.0, "adres": "с. Герман, ул. Патриарх Герман №81Б", "finansiran": "2", "type": "2", "url": "https://www.84ou.com/" }, "geometry": { "type": "Point", "coordinates": [ 23.41626179685171, 42.618042343001484 ] } },
{ "type": "Feature", "properties": { "objectid": 197, "object_nam": "86 ОУ \"Св. Климент Охридски\"", "object_nom": 86.0, "adres": "с. Владая, ул. Брезова гора №2", "finansiran": "2", "type": "2", "url": "https://www.86ou-vladaya.com/" }, "geometry": { "type": "Point", "coordinates": [ 23.195636961415019, 42.630275339197425 ] } },
{ "type": "Feature", "properties": { "objectid": 198, "object_nam": "88 СОУ \"ДИМИТЪР ПОПНИКОЛОВ\"", "object_nom": 88.0, "adres": "ж.к. Овча купел I, ул. Димитър Попниколов №7", "finansiran": "2", "type": "3", "url": "https://88cy.info/" }, "geometry": { "type": "Point", "coordinates": [ 23.258819802132777, 42.685077079854032 ] } },
{ "type": "Feature", "properties": { "objectid": 199, "object_nam": "146 ОУ Патриарх Евтимий", "object_nom": 146.0, "adres": "с. Волуяк, ул. Зорница №63", "finansiran": "2", "type": "2", "url": "http://146ou.4stupki.com/" }, "geometry": { "type": "Point", "coordinates": [ 23.242397525575178, 42.771584458340612 ] } },
{ "type": "Feature", "properties": { "objectid": 200, "object_nam": "152 ОУ \"Св.Св. Кирил и Методий\"", "object_nom": 152.0, "adres": "Мърчаево, ул. Цар Симеон I №62", "finansiran": "2", "type": "2", "url": "http://152oy-murchaevo.com/" }, "geometry": { "type": "Point", "coordinates": [ 23.175251179880707, 42.60357500982407 ] } },
{ "type": "Feature", "properties": { "objectid": 202, "object_nam": "156 ОУ  \"Васил Левски\"", "object_nom": 156.0, "adres": "кв. Кремиковци, алея Свежест", "finansiran": "2", "type": "2", "url": "http://156ou.bg/" }, "geometry": { "type": "Point", "coordinates": [ 23.502296853457128, 42.784631186418075 ] } },
{ "type": "Feature", "properties": { "objectid": 203, "object_nam": "159 ОУ \"Васил Левски\"", "object_nom": 159.0, "adres": "кв. Челопечене, ул. Ангел Маджаров №31", "finansiran": "2", "type": "2", "url": "https://www.ou159.com/" }, "geometry": { "type": "Point", "coordinates": [ 23.472474645105173, 42.7329638994619 ] } },
{ "type": "Feature", "properties": { "objectid": 204, "object_nam": "160 ОУ \"Св.Св. Кирил и Методий\"", "object_nom": 160.0, "adres": "с. Чепинци, ул. Стара планина №22", "finansiran": "2", "type": "2", "url": "https://ou-160.com/" }, "geometry": { "type": "Point", "coordinates": [ 23.430123461216237, 42.761253866078164 ] } },
{ "type": "Feature", "properties": { "objectid": 205, "object_nam": "162 ОУ \"Отец Паисий\"", "object_nom": 162.0, "adres": "кв. Ботунец, ул. Свобода № 10", "finansiran": "2", "type": "2", "url": "https://162ou.com/" }, "geometry": { "type": "Point", "coordinates": [ 23.509340544244736, 42.740674933930947 ] } },
{ "type": "Feature", "properties": { "objectid": 206, "object_nam": "170 СОУ \"Васил Левски\"", "object_nom": 170.0, "adres": "кв. Курило, ул. Искърско дефиле №277", "finansiran": "2", "type": "3", "url": "https://170sou.com/" }, "geometry": { "type": "Point", "coordinates": [ 23.352333642014038, 42.825079282780067 ] } },
{ "type": "Feature", "properties": { "objectid": 207, "object_nam": "171 ОУ \"Стоил Попов\"", "object_nom": 171.0, "adres": "гр. Нови Искър, кв. Кумарица, ул. Светлина №26", "finansiran": "2", "type": "2", "url": "https://171ou.bg/" }, "geometry": { "type": "Point", "coordinates": [ 23.341746432455302, 42.797381479656828 ] } },
{ "type": "Feature", "properties": { "objectid": 208, "object_nam": "172 ОУ \"Христо Ботев\"", "object_nom": 172.0, "adres": "гр. Нови Искър, кв. Гниляне, ул. Христо Ботев № 51", "finansiran": "2", "type": "2", "url": "https://172obu.com" }, "geometry": { "type": "Point", "coordinates": [ 23.376031556178372, 42.809815524111208 ] } },
{ "type": "Feature", "properties": { "objectid": 209, "object_nam": "175 ОУ Васил Левски", "object_nom": 175.0, "adres": "с. Мрамор, ул. Св.Св.Кирил и Методий №1", "finansiran": "2", "type": "2", "url": "http://175ou.bgschool.bg/" }, "geometry": { "type": "Point", "coordinates": [ 23.27438615815208, 42.784820489247515 ] } },
{ "type": "Feature", "properties": { "objectid": 210, "object_nam": "176 ОУ \"Св.Св. Кирил и Методий\"", "object_nom": 176.0, "adres": "с. Негован, ул. Училищна № 6", "finansiran": "2", "type": "2", "url": "https://176ou.com/" }, "geometry": { "type": "Point", "coordinates": [ 23.405809233878959, 42.771949666594949 ] } },
{ "type": "Feature", "properties": { "objectid": 211, "object_nam": "115 ОУ \"Св.Св. Кирил и Методий\"", "object_nom": 115.0, "adres": "с. Горни Богров, ул. Черковна №9", "finansiran": "2", "type": "2", "url": "http://115oy.com/" }, "geometry": { "type": "Point", "coordinates": [ 23.531349738612874, 42.721506957330291 ] } },
{ "type": "Feature", "properties": { "objectid": 212, "object_nam": "116 ОУ  ПАИСИЙ ХИЛЕНДАРСКИ", "object_nom": 116.0, "adres": "с. Яна, ул.Васил Левски №32", "finansiran": "2", "type": "2", "url": "https://116ouphilendarski.com/" }, "geometry": { "type": "Point", "coordinates": [ 23.558476113114022, 42.732236692774464 ] } },
{ "type": "Feature", "properties": { "objectid": 213, "object_nam": "117 СОУ \"Св.Св. Кирил и Методий\"", "object_nom": 117.0, "adres": "гр. Бухово, ул. Младежка №34", "finansiran": "2", "type": "3", "url": "http://www.117sou.bg/" }, "geometry": { "type": "Point", "coordinates": [ 23.556876753439983, 42.758910614053939 ] } },
{ "type": "Feature", "properties": { "objectid": 214, "object_nam": "177 ОУ \"Св.Св. Кирил и Методий\"", "object_nom": 177.0, "adres": "с. Световрачене, ул.Софийска №23", "finansiran": "2", "type": "2", "url": "https://177ou.idwebbg.com/" }, "geometry": { "type": "Point", "coordinates": [ 23.386395134823033, 42.782792568022685 ] } },
{ "type": "Feature", "properties": { "objectid": 215, "object_nam": "179 ОУ \"Васил Левски\"", "object_nom": 179.0, "adres": "с. Доброславци, ул.Доброславско шосе №34", "finansiran": "2", "type": "2", "url": "https://www.179ou.com/" }, "geometry": { "type": "Point", "coordinates": [ 23.283389847178352, 42.823956296568582 ] } },
{ "type": "Feature", "properties": { "objectid": 216, "object_nam": "191 ОУ \"Отец Паисий\"", "object_nom": 191.0, "adres": "с. Железница, ул. Плана планина №11", "finansiran": "2", "type": "2", "url": "http://191ou.info/" }, "geometry": { "type": "Point", "coordinates": [ 23.367372348226471, 42.536501978848214 ] } },
{ "type": "Feature", "properties": { "objectid": 217, "object_nam": "192 СОУ \"Христо Ботев\"", "object_nom": 192.0, "adres": "с. Бистрица, ул. Просвета №11", "finansiran": "2", "type": "3", "url": "https://hristobotev.net/" }, "geometry": { "type": "Point", "coordinates": [ 23.357533914338791, 42.583168893164824 ] } },
{ "type": "Feature", "properties": { "objectid": 218, "object_nam": "200 ОУ \"Отец Паисий\"", "object_nom": 200.0, "adres": "с. Лозен, ул. Иван Пешев №1", "finansiran": "2", "type": "2", "url": "https://200ou.org/" }, "geometry": { "type": "Point", "coordinates": [ 23.495467223852497, 42.603474699266492 ] } },
{ "type": "Feature", "properties": { "objectid": 219, "object_nam": "201 ОУ \"Св.Св. Кирил и Методий\"", "object_nom": 201.0, "adres": "с. Лозен, ул. Св.св. Кирил и Методий №17", "finansiran": "2", "type": "2", "url": "https://201ou.alle.bg/" }, "geometry": { "type": "Point", "coordinates": [ 23.474565193464045, 42.600535049720868 ] } },
{ "type": "Feature", "properties": { "objectid": 220, "object_nam": "202 ОУ \"Христо Ботев\"", "object_nom": 202.0, "adres": "с. Долни Пасарел, ул. Диляна №16", "finansiran": "2", "type": "2", "url": "https://202ou.weebly.com/" }, "geometry": { "type": "Point", "coordinates": [ 23.501966758433603, 42.541044394163016 ] } },
{ "type": "Feature", "properties": { "objectid": 221, "object_nam": "ПГТ \"Алеко Константинов\"", "object_nom": 0.0, "adres": "Банкя, ул. Александър Стамболийски №13", "finansiran": "1", "type": "5", "url": "https://www.pgtbankya.com/za-nas" }, "geometry": { "type": "Point", "coordinates": [ 23.142919766038098, 42.709181994624217 ] } },
{ "type": "Feature", "properties": { "objectid": 222, "object_nam": "Частно Основно Училище \"Откривател\"", "object_nom": 0.0, "adres": "ул. Болград №6", "finansiran": "3", "type": "2", "url": "https://montessorischools.bg/" }, "geometry": { "type": "Point", "coordinates": [ 23.313159993287357, 42.67383585706645 ] } },
{ "type": "Feature", "properties": { "objectid": 223, "object_nam": "4-ТО ОСНОВНО ПОМОЩНО УЧИЛИЩЕ \"ПРОФ. ДИМИТЪР КАЦАРОВ\" (ЦСОП ДИМИТЪР КАЦАРОВ)", "object_nom": 0.0, "adres": "ул. проф.Николай Державин №2", "finansiran": "1", "type": "6", "url": "https://tssop-knyazhevo.eu/" }, "geometry": { "type": "Point", "coordinates": [ 23.237805623855586, 42.657707654595583 ] } },
{ "type": "Feature", "properties": { "objectid": 224, "object_nam": "Специално училище за ученици с нарушено зрение \"ЛУИ БРАЙЛ\"", "object_nom": 0.0, "adres": "ж.к. Връбница 1, ул. Ломско шосе №177", "finansiran": "1", "type": "6", "url": "https://suunz.org/" }, "geometry": { "type": "Point", "coordinates": [ 23.287486194605055, 42.738563089547199 ] } },
{ "type": "Feature", "properties": { "objectid": 225, "object_nam": "ССУ С ДЕТСКА ГРАДИНА ЗА ДЕЦА С УВРЕДЕН СЛУХ ПРОФ. ДЕЧО ДЕНЕВ", "object_nom": 0.0, "adres": "ул. Ген. Стефан Тошев №82", "finansiran": "1", "type": "6", "url": "https://deafschoolsofia.com/" }, "geometry": { "type": "Point", "coordinates": [ 23.277502947194531, 42.664198226120853 ] } },
{ "type": "Feature", "properties": { "objectid": 226, "object_nam": "ЧНУ \"Фоти\"", "object_nom": 0.0, "adres": "Банкя, ул. Панайот Волов №2", "finansiran": "3", "type": "1", "url": "http://photy.isixteen.net/nachalno-uchilishte/" }, "geometry": { "type": "Point", "coordinates": [ 23.139694306589632, 42.707627514977176 ] } },
{ "type": "Feature", "properties": { "objectid": 227, "object_nam": "ЧСОУ \"УВЕКИНД\" (СОУ 1-12 клас)", "object_nom": 0.0, "adres": "кв. Княжево, ул. Войводина могила №136", "finansiran": "3", "type": "3", "url": "https://uwekind.com/" }, "geometry": { "type": "Point", "coordinates": [ 23.226230859646673, 42.655175352155894 ] } },
{ "type": "Feature", "properties": { "objectid": 228, "object_nam": "ЧПСОУ, ЧАСТНА ЕЗИКОВА ГИМНАЗИЯ И ОСНОВНО УЧИЛИЩЕ  СВ. НАУМ", "object_nom": 0.0, "adres": "кв. Бояна, ул. Брезите №17", "finansiran": "3", "type": "3", "url": "http://www.svetinaum.net/" }, "geometry": { "type": "Point", "coordinates": [ 23.272034826093883, 42.645807040505566 ] } },
{ "type": "Feature", "properties": { "objectid": 229, "object_nam": "ЧСОУ \"РЬОРИХ\"", "object_nom": 0.0, "adres": "Драгалевци, ул.Камен дел №4а", "finansiran": "3", "type": "3", "url": "https://roerich-school.org/" }, "geometry": { "type": "Point", "coordinates": [ 23.310330596472532, 42.627609130971202 ] } },
{ "type": "Feature", "properties": { "objectid": 230, "object_nam": "Частно средно езиково училище \"Дрита\"", "object_nom": 0.0, "adres": "ул. Каменица №13", "finansiran": "3", "type": "3", "url": "http://www.dritaschool.com/" }, "geometry": { "type": "Point", "coordinates": [ 23.339844726488757, 42.616788888620746 ] } },
{ "type": "Feature", "properties": { "objectid": 231, "object_nam": "ЧНГ Ерих Кестнер (профилирана гимназия)", "object_nom": 0.0, "adres": "ж.к. Люлин VI, ул. полк. Никола Попов №4", "finansiran": "3", "type": "4", "url": "https://www.eks-bg.eu/" }, "geometry": { "type": "Point", "coordinates": [ 23.252505888980888, 42.711476636491057 ] } },
{ "type": "Feature", "properties": { "objectid": 232, "object_nam": "5 ОУ Иван Вазов", "object_nom": 5.0, "adres": "кв. Павлово, ул. Симеон Радев №31", "finansiran": "2", "type": "2", "url": "https://5ou-ivanvazov.com/" }, "geometry": { "type": "Point", "coordinates": [ 23.271087321587594, 42.663920991974393 ] } },
{ "type": "Feature", "properties": { "objectid": 233, "object_nam": "53 ОУ Николай Хрелков", "object_nom": 53.0, "adres": "кв. Горна Баня, ул. Обзор №6", "finansiran": "2", "type": "2", "url": "http://53ou.com/" }, "geometry": { "type": "Point", "coordinates": [ 23.23337516470967, 42.676864210050745 ] } },
{ "type": "Feature", "properties": { "objectid": 234, "object_nam": "Национален учебен комплекс по култура с лицей за изучаване на италиански език и култура", "object_nom": 0.0, "adres": "кв. Горна Баня, ул. Вечерница №21", "finansiran": "1", "type": "4", "url": "https://www.nukk.org/" }, "geometry": { "type": "Point", "coordinates": [ 23.231958040616412, 42.675093424666336 ] } },
{ "type": "Feature", "properties": { "objectid": 235, "object_nam": "Частно ОУ Доктор Мария Монтесори", "object_nom": 0.0, "adres": "кв. Горна Баня, ул. Вечерница №21, в сградата на Националния учебен комплекс по култура", "finansiran": "2", "type": "2", "url": "https://montessori-bg.org/" }, "geometry": { "type": "Point", "coordinates": [ 23.231355619560588, 42.675610490000203 ] } },
{ "type": "Feature", "properties": { "objectid": 236, "object_nam": "52 ОУ Цанко Церковски", "object_nom": 52.0, "adres": "кв. Бояна, ул. Александър Сергеевич Пушкин №112", "finansiran": "2", "type": "2", "url": "https://www.52ou.org/" }, "geometry": { "type": "Point", "coordinates": [ 23.265465796318914, 42.65080317556091 ] } },
{ "type": "Feature", "properties": { "objectid": 237, "object_nam": "125 СОУ Боян Пенев", "object_nom": 125.0, "adres": "ж.к. Младост I, ул. Никола Генадиев №1", "finansiran": "2", "type": "3", "url": "http://sou125.com/" }, "geometry": { "type": "Point", "coordinates": [ 23.378022493727791, 42.653834852736885 ] } },
{ "type": "Feature", "properties": { "objectid": 238, "object_nam": "Частна профилирана гимназия с преподаване на английски език Меридиан 22", "object_nom": 0.0, "adres": "ж.к. Младост II, до бл. 227", "finansiran": "3", "type": "4", "url": "http://highschool.meridian22-edu.com/" }, "geometry": { "type": "Point", "coordinates": [ 23.371591209807683, 42.644204148228553 ] } },
{ "type": "Feature", "properties": { "objectid": 239, "object_nam": "131 СУ \"Климент Аркадиевич Тимирязев\"", "object_nom": 131.0, "adres": "ж.к. Младост IV, ул. Филип Аврамов №29", "finansiran": "2", "type": "3", "url": "https://su131.weebly.com/" }, "geometry": { "type": "Point", "coordinates": [ 23.38079852762823, 42.63439235872778 ] } },
{ "type": "Feature", "properties": { "objectid": 240, "object_nam": "Американски колеж", "object_nom": 0.0, "adres": "ж.к. Младост II, Алея Флойд Бляк", "finansiran": "3", "type": "4", "url": "https://www.acs.bg/bg/" }, "geometry": { "type": "Point", "coordinates": [ 23.366664157607552, 42.631816523171118 ] } },
{ "type": "Feature", "properties": { "objectid": 241, "object_nam": "149 СОУ Иван Хаджийски", "object_nom": 149.0, "adres": "ж.к. Овча купел II, ул. Иван хаджийски №21", "finansiran": "2", "type": "3", "url": "http://149su.com/" }, "geometry": { "type": "Point", "coordinates": [ 23.247706006897104, 42.686262197772258 ] } },
{ "type": "Feature", "properties": { "objectid": 242, "object_nam": "66 СОУ Филип Станиславов", "object_nom": 66.0, "adres": "кв. Овча купел, ул. Букет №29", "finansiran": "2", "type": "3", "url": "https://66sou.org/" }, "geometry": { "type": "Point", "coordinates": [ 23.260835844358798, 42.672868529903312 ] } },
{ "type": "Feature", "properties": { "objectid": 243, "object_nam": "108 СОУ Никола Беловеждов", "object_nom": 108.0, "adres": "ж.к. Дружба I, ул.5038 №15", "finansiran": "2", "type": "3", "url": "https://www.108su.net/" }, "geometry": { "type": "Point", "coordinates": [ 23.388071924353575, 42.66961249800827 ] } },
{ "type": "Feature", "properties": { "objectid": 244, "object_nam": "72 ОУ Христо Ботев", "object_nom": 72.0, "adres": "кв. Суходол, ул. Овче поле №14", "finansiran": "2", "type": "2", "url": "http://ou72.org/" }, "geometry": { "type": "Point", "coordinates": [ 23.225090338515198, 42.694989641411652 ] } },
{ "type": "Feature", "properties": { "objectid": 245, "object_nam": "Професионална гимназия по  екология и биотехнологии \"Проф. д-р Асен Златаров\"", "object_nom": 0.0, "adres": "кв. Карпузица, ул. Средорек №3", "finansiran": "1", "type": "5", "url": "https://pgeb-bg.com/" }, "geometry": { "type": "Point", "coordinates": [ 23.253548757000488, 42.666288850104522 ] } },
{ "type": "Feature", "properties": { "objectid": 246, "object_nam": "26 СОУ Йордан Йовков", "object_nom": 26.0, "adres": "кв. Княжево, ул. Кореняците №40", "finansiran": "2", "type": "3", "url": "http://26coy.net/Web_26/" }, "geometry": { "type": "Point", "coordinates": [ 23.245261200436037, 42.664450254981276 ] } },
{ "type": "Feature", "properties": { "objectid": 247, "object_nam": "ЧОУ, Частно ОУ с ранно чуждоезиково обучение Света София", "object_nom": 0.0, "adres": "кв. Княжево, ул. Морени №7", "finansiran": "3", "type": "2", "url": "https://www.svetasofia.com/" }, "geometry": { "type": "Point", "coordinates": [ 23.250943654814506, 42.657746934415862 ] } },
{ "type": "Feature", "properties": { "objectid": 248, "object_nam": "90 СОУ Генерал Хосе де Сан Мартин", "object_nom": 90.0, "adres": "ж.к. Люлин II, ул. Стефана Клинчарова №3", "finansiran": "2", "type": "3", "url": "http://sou90.org/" }, "geometry": { "type": "Point", "coordinates": [ 23.252587511661769, 42.725136656333056 ] } },
{ "type": "Feature", "properties": { "objectid": 249, "object_nam": "96 СОУ Лев Николаевич Толстой", "object_nom": 96.0, "adres": "ж.к. Люлин IV, ул. Никола Беловеждов №1", "finansiran": "2", "type": "3", "url": "http://96sou.com/" }, "geometry": { "type": "Point", "coordinates": [ 23.24415563842657, 42.717517795285602 ] } },
{ "type": "Feature", "properties": { "objectid": 250, "object_nam": "97 СОУ Братя Миладинови", "object_nom": 97.0, "adres": "ж.к. Люлин V, ул. 504 №1", "finansiran": "2", "type": "3", "url": "http://97su.bg/" }, "geometry": { "type": "Point", "coordinates": [ 23.242036485827228, 42.713655925020504 ] } },
{ "type": "Feature", "properties": { "objectid": 251, "object_nam": "ЧОУ „Изгрев“", "object_nom": 0.0, "adres": "кв. Панчарево, ул. Люляк №17", "finansiran": "3", "type": "2", "url": "https://izgrevou.com/" }, "geometry": { "type": "Point", "coordinates": [ 23.416022587988198, 42.58847804989837 ] } },
{ "type": "Feature", "properties": { "objectid": 252, "object_nam": "ЧСОУ с чуждоезиков профил \"Абрахам Линкълн\"", "object_nom": 0.0, "adres": "с. Лозен, ул. Орлова круша №1", "finansiran": "3", "type": "3", "url": "http://aeasofia.com/" }, "geometry": { "type": "Point", "coordinates": [ 23.460514018156303, 42.6120696918696 ] } },
{ "type": "Feature", "properties": { "objectid": 253, "object_nam": "128 СОУ Алберт Айнщайн", "object_nom": 128.0, "adres": "ж.к. Младост II", "finansiran": "2", "type": "3", "url": "https://128sou-sofia.info/" }, "geometry": { "type": "Point", "coordinates": [ 23.371110976531259, 42.64347882895926 ] } },
{ "type": "Feature", "properties": { "objectid": 254, "object_nam": "Частно ОУ с изучаване на английски език Меридиан 22", "object_nom": 0.0, "adres": "ж.к. Младост II, до бл. 227", "finansiran": "3", "type": "2", "url": "http://school.meridian22.bg/" }, "geometry": { "type": "Point", "coordinates": [ 23.371560636513887, 42.644150416709024 ] } },
{ "type": "Feature", "properties": { "objectid": 255, "object_nam": "ПРОФЕСИОНАЛНА ГИМНАЗИЯ ПО СЕЛСКО СТОПАНСТВО \"БУЗЕМА\"", "object_nom": 0.0, "adres": "кв. Овча купел, ул. Маестро Кънев №74", "finansiran": "1", "type": "5", "url": "https://pgss-buzema.eu/" }, "geometry": { "type": "Point", "coordinates": [ 23.254889057010018, 42.67979457825151 ] } },
{ "type": "Feature", "properties": { "objectid": 256, "object_nam": "137 СОУ Ангел Кънчев", "object_nom": 137.0, "adres": "ж.к. Люлин I,  ул. 335 №15", "finansiran": "2", "type": "3", "url": "https://www.137sou.org/" }, "geometry": { "type": "Point", "coordinates": [ 23.259970843465624, 42.726855817389541 ] } },
{ "type": "Feature", "properties": { "objectid": 257, "object_nam": "Национална гимназия за древни езици и култура Константин Кирил Философ", "object_nom": 0.0, "adres": "кв. Модерно предградие, ул. Баба №16", "finansiran": "1", "type": "4", "url": "https://ngdek.com/" }, "geometry": { "type": "Point", "coordinates": [ 23.270357313419549, 42.726523248459252 ] } },
{ "type": "Feature", "properties": { "objectid": 258, "object_nam": "37 СОУ Райна Княгиня", "object_nom": 37.0, "adres": "ж.к. Люлин IX, ул. Луи Пастьор №1", "finansiran": "2", "type": "3", "url": "http://37su.eu/" }, "geometry": { "type": "Point", "coordinates": [ 23.273187158008341, 42.719656724165112 ] } },
{ "type": "Feature", "properties": { "objectid": 259, "object_nam": "39 СОУ Петър Динеков", "object_nom": 39.0, "adres": "ж.к. Младост II, ул. Васил Карагьозов №6", "finansiran": "2", "type": "3", "url": "https://www.39su.eu/" }, "geometry": { "type": "Point", "coordinates": [ 23.370447361664532, 42.640901582514566 ] } },
{ "type": "Feature", "properties": { "objectid": 260, "object_nam": "Частно основно училище с изучаване на немски език \"ВЕДА\"", "object_nom": 0.0, "adres": "ул. Иван Мърквичка №1", "finansiran": "3", "type": "2", "url": "https://wedaschule.com/osnovno-uchilishte/" }, "geometry": { "type": "Point", "coordinates": [ 23.305209788567673, 42.721784116753653 ] } },
{ "type": "Feature", "properties": { "objectid": 261, "object_nam": "ЧСОУ \"Цар Симеон Велики\"", "object_nom": 0.0, "adres": "Иваняне, ул. Св.св. Кирил и Методий №66", "finansiran": "3", "type": "3", "url": "https://tzarsimeon.bg/" }, "geometry": { "type": "Point", "coordinates": [ 23.186920726120121, 42.710160676751016 ] } },
{ "type": "Feature", "properties": { "objectid": 262, "object_nam": "Частно средно училище  \"Петко Рачов Славейков\"", "object_nom": 0.0, "adres": "кв. Карпузица, ул. Средорек №3", "finansiran": "3", "type": "3", "url": "https://www.slaveikov-school.org/" }, "geometry": { "type": "Point", "coordinates": [ 23.253160931857323, 42.666333962980218 ] } },
{ "type": "Feature", "properties": { "objectid": 263, "object_nam": "ЧСУ \"Евлоги и Христо Георгиеви\"", "object_nom": 0.0, "adres": "бул. Цар Борис III №224, сградата на ДИУУ", "finansiran": "3", "type": "3", "url": "https://unischool.bg/" }, "geometry": { "type": "Point", "coordinates": [ 23.252727872449174, 42.663385761921425 ] } },
{ "type": "Feature", "properties": { "objectid": 264, "object_nam": "ЧОУ \"ТОМАС ЕДИСЪН\"", "object_nom": 0.0, "adres": "бул. Никола Петков №73", "finansiran": "3", "type": "2", "url": "https://edisonschool.eu/" }, "geometry": { "type": "Point", "coordinates": [ 23.257796085747536, 42.666315243770839 ] } },
{ "type": "Feature", "properties": { "objectid": 265, "object_nam": "Частно средно   училище \"Дружба\"", "object_nom": 0.0, "adres": "ж.к. Обеля II, ул. 106 №3", "finansiran": "3", "type": "3", "url": "https://drujba.org/" }, "geometry": { "type": "Point", "coordinates": [ 23.274029443988198, 42.745419198703395 ] } },
{ "type": "Feature", "properties": { "objectid": 266, "object_nam": "82 ОУ Васил Априлов", "object_nom": 82.0, "adres": "кв. Горубляне, ул. Самоковско шосе №41", "finansiran": "2", "type": "2", "url": "https://www.82ou.bg/" }, "geometry": { "type": "Point", "coordinates": [ 23.410014228638879, 42.630704291148824 ] } },
{ "type": "Feature", "properties": { "objectid": 267, "object_nam": "150 ОУ Цар Симеон I", "object_nom": 150.0, "adres": "ж.к. Дружба II, IV-ти Микрорайон, ул. Делийска воденица №11", "finansiran": "2", "type": "2", "url": "http://www.150ou.org/" }, "geometry": { "type": "Point", "coordinates": [ 23.410310867414584, 42.645959344140962 ] } },
{ "type": "Feature", "properties": { "objectid": 268, "object_nam": "103 Основно училище \"Васил Левски\"", "object_nom": 103.0, "adres": "кв. Филиповци", "finansiran": "2", "type": "2", "url": "http://103ouvasillevski.bg/" }, "geometry": { "type": "Point", "coordinates": [ 23.233340859313145, 42.719539443996609 ] } },
{ "type": "Feature", "properties": { "objectid": 269, "object_nam": "118 СОУ Академик Людмил Стоянов", "object_nom": 118.0, "adres": "ж.к. Младост I, ул. Д-р Стоян Чомаков №6", "finansiran": "2", "type": "3", "url": "http://sou118.com/" }, "geometry": { "type": "Point", "coordinates": [ 23.376385016052676, 42.659728359683299 ] } },
{ "type": "Feature", "properties": { "objectid": 270, "object_nam": "4 Основно училище \"Проф. Джон Атанасов\"", "object_nom": 4.0, "adres": "ж.к. Дружба I, ул. Тирана №12", "finansiran": "2", "type": "2", "url": "https://4ou.bg/" }, "geometry": { "type": "Point", "coordinates": [ 23.39897995479733, 42.660515021549593 ] } },
{ "type": "Feature", "properties": { "objectid": 271, "object_nam": "79 СОУ Индира Ганди", "object_nom": 79.0, "adres": "ж.к. Люлин VII, ул. полк. Ст. Топузов №6", "finansiran": "2", "type": "3", "url": "https://79su.bg/" }, "geometry": { "type": "Point", "coordinates": [ 23.262990422694013, 42.712236084456435 ] } },
{ "type": "Feature", "properties": { "objectid": 272, "object_nam": "40 СОУ Луи Пастьор", "object_nom": 40.0, "adres": "ж.к. Люлин IX, ул. Иван Бойчев №17", "finansiran": "2", "type": "3", "url": "https://40-su.com/" }, "geometry": { "type": "Point", "coordinates": [ 23.266002375947128, 42.718493754938812 ] } },
{ "type": "Feature", "properties": { "objectid": 273, "object_nam": "Частно средно училище с ранно чуждоезиково обучение \"ЕСПА\"", "object_nom": 0.0, "adres": "в.з. Киноцентър III, ул. Градина №23", "finansiran": "3", "type": "3", "url": "https://www.espa-bg.com/" }, "geometry": { "type": "Point", "coordinates": [ 23.295958899586768, 42.6476293157043 ] } },
{ "type": "Feature", "properties": { "objectid": 274, "object_nam": "Частно основно училище \"Проф. д-р Васил Златарски\"", "object_nom": 0.0, "adres": "бул. Св.Климент Охридски №49", "finansiran": "3", "type": "4", "url": "https://bg.zlatarskischool.org/" }, "geometry": { "type": "Point", "coordinates": [ 23.355800753757833, 42.647469485908246 ] } },
{ "type": "Feature", "properties": { "objectid": 275, "object_nam": "ЧГЕХП, ЧАСТНА ГИМНАЗИЯ С ЕЗИКОВ И ХУМАНИТАРЕН ПРОФИЛ \"ПРОФ.Д-Р ВАСИЛ ЗЛАТАРСКИ", "object_nom": 0.0, "adres": "бул. Св.Климент Охридски №49", "finansiran": "3", "type": "4", "url": "https://bg.zlatarskischool.org/international-school-sofia/" }, "geometry": { "type": "Point", "coordinates": [ 23.355926099473454, 42.64759410972168 ] } }
]
}
